{"type": "FeatureCollection", "crs": {"type": "name", "properties": {"name": "EPSG:4326"}}, "features": [{"type": "Feature", "id": 1, "geometry": {"type": "Polygon", "coordinates": [[[35.1842578204647, 31.7782604045663], [35.1842608042702, 31.7782346150894], [35.1842621962197, 31.7782225793386], [35.1842649388655, 31.7781988703707], [35.1842685879688, 31.7781673218414], [35.1840777585928, 31.7781512144324], [35.1840647664903, 31.7782635258412], [35.1841466095675, 31.7782704334496], [35.1841474779574, 31.7782629320737], [35.1841798081062, 31.7782656607676], [35.1841789407745, 31.7782731630456], [35.1842555960946, 31.7782796332695], [35.1842578204647, 31.7782604045663]]]}, "properties": {"OBJECTID": 1, "CateTitle": "building", "rel_height": 2.7670288086, "med_height": 792.4060058594, "PID": "55894", "PARID": "-1", "CID": "31497", "bldg_ch": null, "mispar_komot": 1, "Shape__Area": 224.73099517822266, "Shape__Length": 63.027306190859115}}, {"type": "Feature", "id": 2, "geometry": {"type": "Polygon", "coordinates": [[[35.1840777585928, 31.7781512144324], [35.1839564932567, 31.778140978981], [35.1839113637162, 31.7781371695714], [35.1838783590208, 31.7781343829829], [35.1838653677354, 31.7782466943718], [35.1839494752861, 31.778253793662], [35.1839503436918, 31.7782462922875], [35.1839838403912, 31.7782491195189], [35.1839829730438, 31.7782566217956], [35.1840647664903, 31.7782635258412], [35.1840777585928, 31.7781512144324]]]}, "properties": {"OBJECTID": 2, "CateTitle": "building", "rel_height": 3.2950439453, "med_height": 790.382019043, "PID": "55900", "PARID": "-1", "CID": "31501", "bldg_ch": null, "mispar_komot": 1, "Shape__Area": 234.8450164794922, "Shape__Length": 64.65868115327072}}, {"type": "Feature", "id": 3, "geometry": {"type": "Polygon", "coordinates": [[[35.1839729600708, 31.7766868502171], [35.1839810972326, 31.7766785266244], [35.1839153650719, 31.7766316374642], [35.1839010474222, 31.7766462837699], [35.1838112903643, 31.776738104699], [35.1838988000133, 31.7768081738357], [35.183999140855, 31.7767055261325], [35.1839729600708, 31.7766868502171]]]}, "properties": {"OBJECTID": 3, "CateTitle": "building", "rel_height": 7.3020019531, "med_height": 796.0969848633, "PID": "55915", "PARID": "-1", "CID": "31506", "bldg_ch": null, "mispar_komot": 2, "Shape__Area": 174.25735473632812, "Shape__Length": 54.11510495381665}}, {"type": "Feature", "id": 4, "geometry": {"type": "Polygon", "coordinates": [[[35.1845875999182, 31.778154453865], [35.1845261272896, 31.778172001335], [35.1845166657205, 31.77814781158], [35.1845622422858, 31.7781348024108], [35.1845388737763, 31.7780750626221], [35.1844828892124, 31.7780910435269], [35.1844760043438, 31.7780734421203], [35.1844316831367, 31.7780860925228], [35.1844744073043, 31.7781953139669], [35.1845187285579, 31.7781826626479], [35.1845453163622, 31.7782506331423], [35.1846383330527, 31.7782240820682], [35.1846276168655, 31.7781966887877], [35.1846503280811, 31.7781902053666], [35.1846124437105, 31.7780933561888], [35.1845685955083, 31.7781058723381], [35.1845875999182, 31.778154453865]]]}, "properties": {"OBJECTID": 4, "CateTitle": "building", "rel_height": 5.4429931641, "med_height": 797.0880126953, "PID": "55927", "PARID": "-1", "CID": "31511", "bldg_ch": null, "mispar_komot": 2, "Shape__Area": 218.35162353515625, "Shape__Length": 93.8623224367863}}, {"type": "Feature", "id": 5, "geometry": {"type": "Polygon", "coordinates": [[[35.184755231255, 31.7780582398456], [35.184744719754, 31.7780613369508], [35.1847000131374, 31.7780745086514], [35.184706959365, 31.7780917123435], [35.1846777951065, 31.7781003050844], [35.1847059250669, 31.7781699748534], [35.1847807187645, 31.7781479381795], [35.1847702830417, 31.778122092513], [35.1848255930296, 31.7781057966357], [35.184795203861, 31.7780305333265], [35.1847825564908, 31.7780342595913], [35.1847822810892, 31.7780335777571], [35.1847492083014, 31.7780433215638], [35.184755231255, 31.7780582398456]]]}, "properties": {"OBJECTID": 5, "CateTitle": "building", "rel_height": 6.7579956055, "med_height": 799.2869873047, "PID": "55929", "PARID": "-1", "CID": "31513", "bldg_ch": null, "mispar_komot": 2, "Shape__Area": 118.05046081542969, "Shape__Length": 49.9509606753236}}, {"type": "Feature", "id": 6, "geometry": {"type": "Polygon", "coordinates": [[[35.1848750753399, 31.7780091782677], [35.1848926508462, 31.7780507522258], [35.1849047545149, 31.7780470186522], [35.1849362978271, 31.7781216327858], [35.1850786310442, 31.7780777239621], [35.1850295110105, 31.777961535926], [35.1849221712995, 31.7779946495999], [35.1849178555064, 31.7779844391972], [35.1848707584955, 31.7779989678633], [35.1848750753399, 31.7780091782677]]]}, "properties": {"OBJECTID": 6, "CateTitle": "building", "rel_height": 4.5209960938, "med_height": 797.6760253906, "PID": "55932", "PARID": "-1", "CID": "31515", "bldg_ch": null, "mispar_komot": 2, "Shape__Area": 208.03001403808594, "Shape__Length": 60.9092998256806}}, {"type": "Feature", "id": 7, "geometry": {"type": "Polygon", "coordinates": [[[35.1846781416765, 31.777635969699], [35.1846300378738, 31.7776146499358], [35.1846175050448, 31.7776508929864], [35.1846197208933, 31.77765145157], [35.1846148362147, 31.7776655763494], [35.1846207954648, 31.7776670797418], [35.1846235864075, 31.7776590095986], [35.1846586346107, 31.7776678530757], [35.1846651186321, 31.7776491039009], [35.1846781416765, 31.777635969699]]]}, "properties": {"OBJECTID": 7, "CateTitle": "building", "rel_height": 13.9840087891, "med_height": 805.9390258789, "PID": "55934", "PARID": "-1", "CID": "31517", "bldg_ch": null, "mispar_komot": 5, "Shape__Area": 20.238059997558594, "Shape__Length": 20.235324889565415}}, {"type": "Feature", "id": 8, "geometry": {"type": "Polygon", "coordinates": [[[35.1846955335777, 31.7775966439989], [35.1847067150336, 31.7775853673019], [35.184635855145, 31.7775340992888], [35.1846246736867, 31.7775453759796], [35.1846955335777, 31.7775966439989]]]}, "properties": {"OBJECTID": 8, "CateTitle": "building", "rel_height": 13.7260131836, "med_height": 805.6810302734, "PID": "55935", "PARID": "-1", "CID": "31517", "bldg_ch": null, "mispar_komot": 5, "Shape__Area": 14.413642883300781, "Shape__Length": 20.86913809691606}}, {"type": "Feature", "id": 9, "geometry": {"type": "Polygon", "coordinates": [[[35.1845477020304, 31.7776486365473], [35.1845962532792, 31.7776608874965], [35.1846148362147, 31.7776655763494], [35.1846197208933, 31.77765145157], [35.1846175050448, 31.7776508929864], [35.1846300378738, 31.7776146499358], [35.1846781416765, 31.777635969699], [35.1847081095539, 31.7776057437162], [35.1846955335777, 31.7775966439989], [35.1846246736867, 31.7775453759796], [35.1845972322569, 31.7775255221948], [35.1845477020304, 31.7776486365473]]]}, "properties": {"OBJECTID": 9, "CateTitle": "building", "rel_height": 12.8289794922, "med_height": 804.783996582, "PID": "55936", "PARID": "-1", "CID": "31517", "bldg_ch": null, "mispar_komot": 4, "Shape__Area": 112.48893737792969, "Shape__Length": 50.39689459930921}}, {"type": "Feature", "id": 10, "geometry": {"type": "Polygon", "coordinates": [[[35.1845477020304, 31.7776486365473], [35.1845440744298, 31.7776591289038], [35.1845926246278, 31.7776713798542], [35.1845962532792, 31.7776608874965], [35.1845477020304, 31.7776486365473]]]}, "properties": {"OBJECTID": 10, "CateTitle": "building", "rel_height": 2.3389892578, "med_height": 794.2940063477, "PID": "55937", "PARID": "-1", "CID": "31517", "bldg_ch": null, "mispar_komot": 1, "Shape__Area": 5.817268371582031, "Shape__Length": 12.01674724904505}}, {"type": "Feature", "id": 11, "geometry": {"type": "Polygon", "coordinates": [[[35.1839352102774, 31.7765217476845], [35.1839533389511, 31.7765362422821], [35.1840027171223, 31.7764911743632], [35.1839937820873, 31.7764840303497], [35.1840241800023, 31.7764562855566], [35.1839457512511, 31.7763935787889], [35.1838659741013, 31.776466390547], [35.1838896717076, 31.7764853375397], [35.1838523447617, 31.7765194057965], [35.1838978833336, 31.7765558159545], [35.1839352102774, 31.7765217476845]]]}, "properties": {"OBJECTID": 11, "CateTitle": "building", "rel_height": 3.7230224609, "med_height": 795.0280151367, "PID": "55966", "PARID": "-1", "CID": "31522", "bldg_ch": null, "mispar_komot": 1, "Shape__Area": 151.02786254882812, "Shape__Length": 55.13432811409052}}, {"type": "Feature", "id": 12, "geometry": {"type": "Polygon", "coordinates": [[[35.1841481216719, 31.7779345817623], [35.1841504756023, 31.7779216163669], [35.1841652069449, 31.7778404683389], [35.1841299371674, 31.7778357957061], [35.1841369556203, 31.7777971375994], [35.1841282429579, 31.7777959836608], [35.1841233807746, 31.7778227657646], [35.1840328463503, 31.777810772172], [35.184037708559, 31.7777839900716], [35.1840288027068, 31.777782809942], [35.1840247685143, 31.7778129100479], [35.1840016475322, 31.7778202734892], [35.183975994063, 31.7778170840775], [35.183974206524, 31.7778275758105], [35.1839967815793, 31.777830382349], [35.1839845573971, 31.7779021344769], [35.183961981269, 31.7778993279361], [35.1839604907689, 31.777908079163], [35.1839882356034, 31.7779115277411], [35.1840023902633, 31.7779236318132], [35.183998243114, 31.7779488249821], [35.1840075775812, 31.7779501251273], [35.1840115527415, 31.7779293040562], [35.1840989876188, 31.7779414847529], [35.1840950135333, 31.7779623058269], [35.1841046984945, 31.7779636547203], [35.1841112303626, 31.7779294426148], [35.1841481216719, 31.7779345817623]], [[35.1840150333141, 31.7779059712783], [35.184027745601, 31.7778324768686], [35.1841300174236, 31.7778453867991], [35.18411730416, 31.7779188812187], [35.1840150333141, 31.7779059712783]]]}, "properties": {"OBJECTID": 12, "CateTitle": "building", "rel_height": 12.3400268555, "med_height": 797.7050170898, "PID": "56042", "PARID": "-1", "CID": "31551", "bldg_ch": null, "mispar_komot": 4, "Shape__Area": 130.71328735351562, "Shape__Length": 123.04050386006871}}, {"type": "Feature", "id": 13, "geometry": {"type": "Polygon", "coordinates": [[[35.1840150333141, 31.7779059712783], [35.18411730416, 31.7779188812187], [35.1841300174236, 31.7778453867991], [35.184027745601, 31.7778324768686], [35.1840150333141, 31.7779059712783]]]}, "properties": {"OBJECTID": 13, "CateTitle": "building", "rel_height": 12.5709838867, "med_height": 797.9359741211, "PID": "56043", "PARID": "-1", "CID": "31551", "bldg_ch": null, "mispar_komot": 4, "Shape__Area": 80.66908264160156, "Shape__Length": 36.06068144984118}}, {"type": "Feature", "id": 14, "geometry": {"type": "Polygon", "coordinates": [[[35.1880968329695, 31.7764544835213], [35.1880742520226, 31.7765044841243], [35.1881408597657, 31.7765304007355], [35.1881660799709, 31.7764803544631], [35.1880968329695, 31.7764544835213]]]}, "properties": {"OBJECTID": 14, "CateTitle": "building", "rel_height": 7.1359863281, "med_height": 787.0209960938, "PID": "56122", "PARID": "-1", "CID": "31584", "bldg_ch": null, "mispar_komot": 2, "Shape__Area": 42.18992614746094, "Shape__Length": 26.07632738412532}}, {"type": "Feature", "id": 15, "geometry": {"type": "Polygon", "coordinates": [[[35.1878843365029, 31.7783669600871], [35.1879545398764, 31.7783475119443], [35.1879598445387, 31.7783617012938], [35.188007740035, 31.7783494757927], [35.1879886512955, 31.7782898048269], [35.1878686179764, 31.7783178257491], [35.1878843365029, 31.7783669600871]]]}, "properties": {"OBJECTID": 15, "CateTitle": "building", "rel_height": 8.2550048828, "med_height": 798.2169799805, "PID": "56151", "PARID": "-1", "CID": "31593", "bldg_ch": null, "mispar_komot": 3, "Shape__Area": 71.46029663085938, "Shape__Length": 37.670980159884444}}, {"type": "Feature", "id": 16, "geometry": {"type": "Polygon", "coordinates": [[[35.1880344955451, 31.7784331060487], [35.1880107693766, 31.7783589428077], [35.188007740035, 31.7783494757927], [35.1879598445387, 31.7783617012938], [35.1879545398764, 31.7783475119443], [35.1878843365029, 31.7783669600871], [35.1879041099828, 31.7784287721271], [35.1879517456151, 31.7784176513688], [35.1879620966464, 31.7784500071531], [35.1880344955451, 31.7784331060487]]]}, "properties": {"OBJECTID": 16, "CateTitle": "building", "rel_height": 11.825012207, "med_height": 801.7869873047, "PID": "56152", "PARID": "-1", "CID": "31593", "bldg_ch": null, "mispar_komot": 4, "Shape__Area": 105.2978515625, "Shape__Length": 45.60186687066708}}, {"type": "Feature", "id": 17, "geometry": {"type": "Polygon", "coordinates": [[[35.1875059745782, 31.7792141368897], [35.1875342283856, 31.7792955633388], [35.1875715696474, 31.7792861079637], [35.1875742445632, 31.779293817253], [35.1876945446613, 31.7792633580699], [35.1876931000964, 31.779259194081], [35.1877286602072, 31.7792501911504], [35.1876996232874, 31.7791665082352], [35.187663184788, 31.7791757337972], [35.1876611946896, 31.7791699996312], [35.1875445245118, 31.7791995402875], [35.1875460672022, 31.7792039856654], [35.1875059745782, 31.7792141368897]]]}, "properties": {"OBJECTID": 17, "CateTitle": "building", "rel_height": 10.4429931641, "med_height": 797.341003418, "PID": "56240", "PARID": "-1", "CID": "31609", "bldg_ch": null, "mispar_komot": 3, "Shape__Area": 197.17129516601562, "Shape__Length": 59.81978548242714}}, {"type": "Feature", "id": 18, "geometry": {"type": "Polygon", "coordinates": [[[35.1851662697316, 31.7782441296009], [35.1851327195893, 31.7782544957051], [35.1851239728261, 31.7782342327195], [35.1850927285431, 31.7782439155664], [35.1850262837594, 31.778265055459], [35.1850548220579, 31.7783322541669], [35.1851381321267, 31.7783064362547], [35.1851533388796, 31.7783422425435], [35.1851335225531, 31.7783483837922], [35.1851465597806, 31.7783790817258], [35.1851693745879, 31.7783720111295], [35.1851776454009, 31.7783914858308], [35.1852228949248, 31.7783774636087], [35.1851662697316, 31.7782441296009]]]}, "properties": {"OBJECTID": 18, "CateTitle": "building", "rel_height": 9.6049804688, "med_height": 804.3579711914, "PID": "56286", "PARID": "-1", "CID": "31620", "bldg_ch": null, "mispar_komot": 3, "Shape__Area": 153.36692810058594, "Shape__Length": 66.68350676246763}}, {"type": "Feature", "id": 19, "geometry": {"type": "Polygon", "coordinates": [[[35.1851239728261, 31.7782342327195], [35.1851327195893, 31.7782544957051], [35.1851662697316, 31.7782441296009], [35.1851576359391, 31.7782238008002], [35.1851239728261, 31.7782342327195]]]}, "properties": {"OBJECTID": 19, "CateTitle": "building", "rel_height": 5.7650146484, "med_height": 800.5180053711, "PID": "56287", "PARID": "-1", "CID": "31620", "bldg_ch": null, "mispar_komot": 2, "Shape__Area": 8.113067626953125, "Shape__Length": 11.563967092124091}}, {"type": "Feature", "id": 20, "geometry": {"type": "Polygon", "coordinates": [[[35.1850262837594, 31.778265055459], [35.1850927285431, 31.7782439155664], [35.1850833466189, 31.7782218244499], [35.1850166960823, 31.7782424791159], [35.1850262837594, 31.778265055459]]]}, "properties": {"OBJECTID": 20, "CateTitle": "building", "rel_height": 7.2620239258, "med_height": 802.0150146484, "PID": "56288", "PARID": "-1", "CID": "31620", "bldg_ch": null, "mispar_komot": 2, "Shape__Area": 17.692047119140625, "Shape__Length": 18.700641795042536}}, {"type": "Feature", "id": 21, "geometry": {"type": "Polygon", "coordinates": [[[35.1882512499685, 31.7793113112622], [35.1880650036067, 31.7793618699808], [35.1880879733936, 31.779440404326], [35.1882795499818, 31.7793920088633], [35.1882512499685, 31.7793113112622]]]}, "properties": {"OBJECTID": 21, "CateTitle": "building", "rel_height": 7.7390136719, "med_height": 791.5130004883, "PID": "56300", "PARID": "-1", "CID": "31626", "bldg_ch": null, "mispar_komot": 3, "Shape__Area": 171.28948974609375, "Shape__Length": 55.750436732208875}}, {"type": "Feature", "id": 22, "geometry": {"type": "Polygon", "coordinates": [[[35.1880269489284, 31.7765213235505], [35.1879887863198, 31.7765074347956], [35.1879710599393, 31.7765009834448], [35.1879591779107, 31.7765248067563], [35.1879670361288, 31.7765276666066], [35.1879481807505, 31.7765654765763], [35.1879518955652, 31.776566828014], [35.1879373300031, 31.7765960349694], [35.1879809524394, 31.7766119102974], [35.1879955179903, 31.7765827033371], [35.1881048565035, 31.7766224948764], [35.1881098676244, 31.7766124453976], [35.1881206130471, 31.7766163553507], [35.1881563382331, 31.7765447203415], [35.1881379900587, 31.7765380425726], [35.1881279900082, 31.7765580946395], [35.1880502681238, 31.7765298092631], [35.1880549096156, 31.7765205028562], [35.1880315904223, 31.7765120162425], [35.1880269489284, 31.7765213235505]]]}, "properties": {"OBJECTID": 22, "CateTitle": "building", "rel_height": 4.95703125, "med_height": 786.7960205078, "PID": "56437", "PARID": "-1", "CID": "31662", "bldg_ch": null, "mispar_komot": 2, "Shape__Area": 152.10208129882812, "Shape__Length": 65.06799925526366}}, {"type": "Feature", "id": 23, "geometry": {"type": "Polygon", "coordinates": [[[35.1878717401585, 31.7796582413826], [35.1879764811256, 31.779633171121], [35.1879716209687, 31.7796183550529], [35.1880362048242, 31.7796028958886], [35.1880109395817, 31.7795258727262], [35.1879990619318, 31.7795287156045], [35.1879871742864, 31.7794924772057], [35.1879490317303, 31.7795016061326], [35.1879610628656, 31.7795382855535], [35.1877957754931, 31.7795778477268], [35.187822343712, 31.7796588437097], [35.1878683277187, 31.7796478373039], [35.1878717401585, 31.7796582413826]]]}, "properties": {"OBJECTID": 23, "CateTitle": "building", "rel_height": 9.4899902344, "med_height": 794.5520019531, "PID": "56571", "PARID": "-1", "CID": "31699", "bldg_ch": null, "mispar_komot": 3, "Shape__Area": 222.56503295898438, "Shape__Length": 71.85654105001129}}, {"type": "Feature", "id": 24, "geometry": {"type": "Polygon", "coordinates": [[[35.1881263922258, 31.7797225402333], [35.1881230028942, 31.7797126357843], [35.1880736529275, 31.7797249576367], [35.1880770422542, 31.779734862087], [35.1879620101667, 31.7797635844613], [35.1879931660276, 31.7798553607013], [35.1880131407353, 31.7798498656494], [35.1881470343916, 31.7798182480214], [35.1881498854602, 31.7798272189957], [35.1881971207635, 31.7798151313238], [35.1881942162404, 31.7798039057416], [35.1882520058857, 31.7797916372191], [35.1882234395752, 31.7796996683762], [35.1881904113326, 31.7797069086674], [35.188184171257, 31.7796861384788], [35.1881403676346, 31.7796957411106], [35.1881468873153, 31.7797174221963], [35.1881263922258, 31.7797225402333]]]}, "properties": {"OBJECTID": 24, "CateTitle": "building", "rel_height": 8.8670043945, "med_height": 792.9329833984, "PID": "56598", "PARID": "-1", "CID": "31706", "bldg_ch": null, "mispar_komot": 3, "Shape__Area": 293.0868682861328, "Shape__Length": 81.81444360986826}}, {"type": "Feature", "id": 25, "geometry": {"type": "Polygon", "coordinates": [[[35.1875556100911, 31.7783469656366], [35.1874206696432, 31.7783805945185], [35.1875111316887, 31.7786454736383], [35.1876460714327, 31.7786118455639], [35.1875556100911, 31.7783469656366]]]}, "properties": {"OBJECTID": 25, "CateTitle": "building", "rel_height": 9.2219848633, "med_height": 800.658996582, "PID": "56599", "PARID": "-1", "CID": "31707", "bldg_ch": null, "mispar_komot": 3, "Shape__Area": 407.36009216308594, "Shape__Length": 87.8195861200944}}, {"type": "Feature", "id": 26, "geometry": {"type": "Polygon", "coordinates": [[[35.1877049432539, 31.7791307743871], [35.1877008154587, 31.7791181453677], [35.1878119539125, 31.7790916439538], [35.1879496242008, 31.7790588167503], [35.1879403302657, 31.7790303750943], [35.1879824550452, 31.779020330412], [35.1879556146899, 31.7789381935904], [35.1879072439228, 31.778949728199], [35.1879119351975, 31.7789640852123], [35.1878862659003, 31.7789702062909], [35.1878818943442, 31.7789568305211], [35.1878329302073, 31.7789685057118], [35.1878377554777, 31.778983271279], [35.1878200911345, 31.778987484187], [35.1878168433376, 31.778977546379], [35.1877984578934, 31.778981929638], [35.1878016930264, 31.7789918304694], [35.1877809531769, 31.778996776168], [35.1876661533615, 31.7790241500566], [35.187674177854, 31.7790487073371], [35.187626764593, 31.7790600137989], [35.1876538674281, 31.779142953361], [35.1877049432539, 31.7791307743871]]]}, "properties": {"OBJECTID": 26, "CateTitle": "building", "rel_height": 7.1049804688, "med_height": 794.0479736328, "PID": "56617", "PARID": "-1", "CID": "31713", "bldg_ch": null, "mispar_komot": 2, "Shape__Area": 367.1010437011719, "Shape__Length": 101.00301337056001}}, {"type": "Feature", "id": 27, "geometry": {"type": "Polygon", "coordinates": [[[35.1881272339538, 31.7788459473663], [35.1881721168279, 31.7788324128485], [35.1881610510276, 31.7788056366822], [35.1881831751881, 31.778798964974], [35.1881867557979, 31.7788076276122], [35.188300927194, 31.7787731980719], [35.1882970014934, 31.7787636993867], [35.1883716196456, 31.7787411979393], [35.1883590373372, 31.7787107511063], [35.1883474901376, 31.7787142334643], [35.1883319646207, 31.7786766653213], [35.1883131018416, 31.7786823535586], [35.1883035039338, 31.7786591272356], [35.1882764798848, 31.7786672764625], [35.188284136045, 31.7786858021467], [35.1882240899657, 31.7787039098202], [35.1882225386848, 31.778700157063], [35.1881961861008, 31.7787081043456], [35.1881975126034, 31.7787113141663], [35.1881198896452, 31.77873472238], [35.1881258077153, 31.7787490443708], [35.1880914669748, 31.7787593994287], [35.1881272339538, 31.7788459473663]]]}, "properties": {"OBJECTID": 27, "CateTitle": "building", "rel_height": 8.0020141602, "med_height": 794.8170166016, "PID": "56619", "PARID": "-1", "CID": "31715", "bldg_ch": null, "mispar_komot": 3, "Shape__Area": 242.5488739013672, "Shape__Length": 82.2611590926518}}, {"type": "Feature", "id": 28, "geometry": {"type": "Polygon", "coordinates": [[[35.1876772763516, 31.7794543999781], [35.1876842819824, 31.779473677746], [35.1877077829499, 31.7794674454982], [35.1877094364871, 31.7794719955021], [35.1878489282216, 31.7794350030449], [35.1878469823798, 31.7794296494647], [35.1878767082933, 31.7794217658215], [35.1878474541919, 31.7793412700198], [35.1878174010054, 31.7793492401905], [35.1878147165089, 31.7793418519605], [35.187759686386, 31.7793564446899], [35.1877485928085, 31.7793259186319], [35.1877279214089, 31.7793314009259], [35.1877390160359, 31.7793619269858], [35.1876803001082, 31.7793774976963], [35.187670294488, 31.7793499676898], [35.187596488074, 31.7793695405536], [35.1876188904126, 31.7794311816249], [35.1876644469474, 31.7794191002416], [35.1876683649903, 31.7794298804602], [35.1876481253834, 31.7794352473622], [35.1876570367399, 31.7794597668815], [35.1876772763516, 31.7794543999781]]]}, "properties": {"OBJECTID": 28, "CateTitle": "building", "rel_height": 11.6580200195, "med_height": 797.2080078125, "PID": "56639", "PARID": "-1", "CID": "31720", "bldg_ch": null, "mispar_komot": 4, "Shape__Area": 255.5657196044922, "Shape__Length": 86.41078068982287}}, {"type": "Feature", "id": 29, "geometry": {"type": "Polygon", "coordinates": [[[35.190212380272, 31.7804386535931], [35.1903013733492, 31.780451527324], [35.1903166586614, 31.7803744243346], [35.1902276667117, 31.7803615506143], [35.190212380272, 31.7804386535931]]]}, "properties": {"OBJECTID": 29, "CateTitle": "building", "rel_height": 4.5039672852, "med_height": 787.7709960938, "PID": "56833", "PARID": "-1", "CID": "31771", "bldg_ch": null, "mispar_komot": 2, "Shape__Area": 74.13290405273438, "Shape__Length": 34.44105258067396}}, {"type": "Feature", "id": 30, "geometry": {"type": "Polygon", "coordinates": [[[35.1910782348728, 31.7815527267815], [35.1911425415814, 31.7815986813624], [35.1911593085917, 31.7815815625633], [35.1911770521694, 31.7815942424802], [35.1912394202374, 31.7815305618536], [35.1912316104462, 31.7815249804574], [35.19129334699, 31.7814619436527], [35.1912547382667, 31.7814343532746], [35.191265091567, 31.7814237820643], [35.1912139701201, 31.7813872495358], [35.1911121961611, 31.7814911670795], [35.1911276848224, 31.781502236081], [35.1910782348728, 31.7815527267815]]]}, "properties": {"OBJECTID": 30, "CateTitle": "building", "rel_height": 3.501953125, "med_height": 794.4879760742, "PID": "56837", "PARID": "-1", "CID": "31775", "bldg_ch": null, "mispar_komot": 1, "Shape__Area": 231.95359802246094, "Shape__Length": 68.73653102052715}}, {"type": "Feature", "id": 31, "geometry": {"type": "Polygon", "coordinates": [[[35.1919308953789, 31.780403708387], [35.1919377395553, 31.780390135451], [35.1919319407185, 31.7803790296167], [35.1918948221265, 31.7803656616027], [35.1918789132865, 31.7803709159691], [35.1918734080623, 31.780382555487], [35.1918478463047, 31.7803731503808], [35.1918051696269, 31.7804577839267], [35.1919150769624, 31.7804982233572], [35.1919577535586, 31.7804135906768], [35.1919308953789, 31.780403708387]]]}, "properties": {"OBJECTID": 31, "CateTitle": "building", "rel_height": 6.2489624023, "med_height": 783.4439697266, "PID": "56843", "PARID": "-1", "CID": "31779", "bldg_ch": null, "mispar_komot": 2, "Shape__Area": 129.817138671875, "Shape__Length": 46.987445421131014}}, {"type": "Feature", "id": 32, "geometry": {"type": "Polygon", "coordinates": [[[35.1917992294841, 31.7762991390453], [35.1916628338645, 31.7763146588063], [35.1916693461033, 31.7763564237291], [35.1917026827927, 31.7763526303017], [35.191710167567, 31.7764006315518], [35.1917550539275, 31.7763955243752], [35.1917557068435, 31.7763997116893], [35.1917885927493, 31.7763959695996], [35.1917867162706, 31.7763839388506], [35.1918101819171, 31.7763812681124], [35.1918095775199, 31.7763773883313], [35.1918371119357, 31.7763742553453], [35.1918260144214, 31.7763030899513], [35.1918003022096, 31.7763060165934], [35.1917992294841, 31.7762991390453]]]}, "properties": {"OBJECTID": 32, "CateTitle": "building", "rel_height": 3.9420166016, "med_height": 769.0520019531, "PID": "56915", "PARID": "-1", "CID": "31834", "bldg_ch": null, "mispar_komot": 1, "Shape__Area": 132.61196899414062, "Shape__Length": 52.002002989624444}}, {"type": "Feature", "id": 33, "geometry": {"type": "Polygon", "coordinates": [[[35.1921705665043, 31.7759815908676], [35.1920658124919, 31.7760172215478], [35.1920965945175, 31.7760911105826], [35.1922040403651, 31.7760576887445], [35.1921705665043, 31.7759815908676]]]}, "properties": {"OBJECTID": 33, "CateTitle": "building", "rel_height": 4.5549926758, "med_height": 764.5980224609, "PID": "56916", "PARID": "-1", "CID": "31835", "bldg_ch": null, "mispar_komot": 2, "Shape__Area": 95.22367858886719, "Shape__Length": 39.22224744617356}}, {"type": "Feature", "id": 34, "geometry": {"type": "Polygon", "coordinates": [[[35.1905144379769, 31.7803512840569], [35.1905515248832, 31.7803562761728], [35.1905440230667, 31.780382036439], [35.1905676121423, 31.7803870288859], [35.190581766418, 31.780331856705], [35.190521531109, 31.7803192036477], [35.1905144379769, 31.7803512840569]]]}, "properties": {"OBJECTID": 34, "CateTitle": "building", "rel_height": 10.3869628906, "med_height": 791.1729736328, "PID": "56928", "PARID": "-1", "CID": "31844", "bldg_ch": null, "mispar_komot": 3, "Shape__Area": 26.502349853515625, "Shape__Length": 24.559939860957428}}, {"type": "Feature", "id": 35, "geometry": {"type": "Polygon", "coordinates": [[[35.1905676121423, 31.7803870288859], [35.1905440230667, 31.780382036439], [35.1905515248832, 31.7803562761728], [35.1905144379769, 31.7803512840569], [35.1904847426968, 31.7804855847477], [35.1906473856411, 31.7805118252227], [35.1906887387363, 31.7803248041377], [35.1906741052562, 31.7803224424455], [35.1906569660741, 31.7804084951464], [35.1906426896053, 31.7804049304335], [35.1906363054187, 31.7804265153029], [35.1905609707502, 31.7804129182096], [35.1905676121423, 31.7803870288859]]]}, "properties": {"OBJECTID": 35, "CateTitle": "building", "rel_height": 7.9079589844, "med_height": 788.6939697266, "PID": "56929", "PARID": "-1", "CID": "31844", "bldg_ch": null, "mispar_komot": 3, "Shape__Area": 190.51084899902344, "Shape__Length": 85.93779563899818}}, {"type": "Feature", "id": 36, "geometry": {"type": "Polygon", "coordinates": [[[35.190581766418, 31.780331856705], [35.1905676121423, 31.7803870288859], [35.1905609707502, 31.7804129182096], [35.1906363054187, 31.7804265153029], [35.1906426896053, 31.7804049304335], [35.1906569660741, 31.7804084951464], [35.1906741052562, 31.7803224424455], [35.1906100699327, 31.7803121112609], [35.1906037425196, 31.780335287884], [35.190581766418, 31.780331856705]]]}, "properties": {"OBJECTID": 36, "CateTitle": "building", "rel_height": 12.0939941406, "med_height": 792.8800048828, "PID": "56930", "PARID": "-1", "CID": "31844", "bldg_ch": null, "mispar_komot": 4, "Shape__Area": 93.51486206054688, "Shape__Length": 40.97888303929282}}, {"type": "Feature", "id": 37, "geometry": {"type": "Polygon", "coordinates": [[[35.1909760054393, 31.7813428252798], [35.1910476385225, 31.7812742992284], [35.1909630735618, 31.7812097961106], [35.1908914394103, 31.781278322115], [35.1909760054393, 31.7813428252798]]]}, "properties": {"OBJECTID": 37, "CateTitle": "building", "rel_height": 4.3909912109, "med_height": 794.2199707031, "PID": "56961", "PARID": "-1", "CID": "31853", "bldg_ch": null, "mispar_komot": 1, "Shape__Area": 109.39155578613281, "Shape__Length": 41.850707411406965}}, {"type": "Feature", "id": 38, "geometry": {"type": "Polygon", "coordinates": [[[35.1903544191318, 31.7811904265965], [35.1903453480872, 31.7811898168542], [35.1903471081356, 31.781161289123], [35.1903196015639, 31.7811590910073], [35.1903220109459, 31.7811164089589], [35.1901919025161, 31.7811109546195], [35.1901896375999, 31.7811889347245], [35.1901721162136, 31.7811883014815], [35.1901697280461, 31.781229873363], [35.1903517145405, 31.7812375014782], [35.1903544191318, 31.7811904265965]]]}, "properties": {"OBJECTID": 38, "CateTitle": "building", "rel_height": 4.3290405273, "med_height": 794.6450195312, "PID": "56976", "PARID": "-1", "CID": "31857", "bldg_ch": null, "mispar_komot": 1, "Shape__Area": 196.21096801757812, "Shape__Length": 61.132988655879274}}, {"type": "Feature", "id": 39, "geometry": {"type": "Polygon", "coordinates": [[[35.1908307573242, 31.7812118067262], [35.190783081046, 31.781262360632], [35.1907897728867, 31.7812668822738], [35.1908380867505, 31.7812169840715], [35.1908307573242, 31.7812118067262]]]}, "properties": {"OBJECTID": 39, "CateTitle": "building", "rel_height": 18.1040039062, "med_height": 807.382019043, "PID": "57005", "PARID": "-1", "CID": "31863", "bldg_ch": null, "mispar_komot": 6, "Shape__Area": 6.142730712890625, "Shape__Length": 16.087488404765683}}, {"type": "Feature", "id": 40, "geometry": {"type": "Polygon", "coordinates": [[[35.1906503652608, 31.7812098718856], [35.190720288503, 31.7811388946296], [35.1907091619097, 31.7811309572373], [35.1906395543056, 31.7812021599815], [35.1906503652608, 31.7812098718856]]]}, "properties": {"OBJECTID": 40, "CateTitle": "building", "rel_height": 10.3189697266, "med_height": 799.5969848633, "PID": "57006", "PARID": "-1", "CID": "31863", "bldg_ch": null, "mispar_komot": 3, "Shape__Area": 13.923080444335938, "Shape__Length": 23.27943806176289}}, {"type": "Feature", "id": 41, "geometry": {"type": "Polygon", "coordinates": [[[35.1906842042698, 31.7812340096888], [35.1906440115141, 31.7812751229777], [35.1906631547653, 31.7812887789095], [35.1906545341838, 31.7812975970797], [35.190665233252, 31.7813052287066], [35.1906207713432, 31.7813507091418], [35.1906405532786, 31.7813648196735], [35.190672466556, 31.7813321746801], [35.1906790063512, 31.7813367955138], [35.1906472482496, 31.7813695947403], [35.1906928969941, 31.7814018458705], [35.1907246550908, 31.781369045731], [35.1907045838718, 31.7813548657396], [35.1907897728867, 31.7812668822738], [35.190783081046, 31.781262360632], [35.1907387322116, 31.7813076427159], [35.1906995927618, 31.7812794054922], [35.1907190672924, 31.7812588086419], [35.1906842042698, 31.7812340096888]]]}, "properties": {"OBJECTID": 41, "CateTitle": "building", "rel_height": 5.5629882812, "med_height": 794.841003418, "PID": "57007", "PARID": "-1", "CID": "31863", "bldg_ch": null, "mispar_komot": 2, "Shape__Area": 107.85191345214844, "Shape__Length": 75.04507178199766}}, {"type": "Feature", "id": 42, "geometry": {"type": "Polygon", "coordinates": [[[35.1906842042698, 31.7812340096888], [35.1907190672924, 31.7812588086419], [35.1906995927618, 31.7812794054922], [35.1907387322116, 31.7813076427159], [35.190783081046, 31.781262360632], [35.1908307573242, 31.7812118067262], [35.1907958372594, 31.7811871358587], [35.19080057625, 31.781182242977], [35.1907446687521, 31.7811424973916], [35.1907367271508, 31.7811506212231], [35.190720288503, 31.7811388946296], [35.1906503652608, 31.7812098718856], [35.1906842042698, 31.7812340096888]], [[35.1906897565246, 31.7812341338383], [35.1907207680987, 31.7812016068762], [35.19075445414, 31.7812250421105], [35.1907234436258, 31.7812575681788], [35.1906897565246, 31.7812341338383]]]}, "properties": {"OBJECTID": 42, "CateTitle": "building", "rel_height": 11.408996582, "med_height": 800.6870117188, "PID": "57008", "PARID": "-1", "CID": "31863", "bldg_ch": null, "mispar_komot": 4, "Shape__Area": 142.456787109375, "Shape__Length": 72.913033086612}}, {"type": "Feature", "id": 43, "geometry": {"type": "Polygon", "coordinates": [[[35.1897278252146, 31.778301122163], [35.189745289735, 31.7782839675478], [35.1897713663593, 31.7783038940158], [35.1898252297454, 31.7782505932629], [35.1898246015404, 31.7782239284563], [35.1897885554117, 31.7781988260925], [35.189781386752, 31.7782070897421], [35.1897310559095, 31.7781729609993], [35.1897450425772, 31.7781573941257], [35.189720861605, 31.7781405539703], [35.1896928399783, 31.7781699164894], [35.1896666839574, 31.7781517016901], [35.1896576520582, 31.7781524663089], [35.1896411642484, 31.778168670485], [35.1896429619015, 31.7781835988684], [35.1896042889489, 31.7782196734391], [35.1897278252146, 31.778301122163]]]}, "properties": {"OBJECTID": 43, "CateTitle": "building", "rel_height": 7.7329711914, "med_height": 787.8469848633, "PID": "57042", "PARID": "-1", "CID": "31873", "bldg_ch": null, "mispar_komot": 3, "Shape__Area": 207.30853271484375, "Shape__Length": 65.87045138569997}}, {"type": "Feature", "id": 44, "geometry": {"type": "Polygon", "coordinates": [[[35.1918423605547, 31.7802092267517], [35.1917104466061, 31.7801673042454], [35.1917234003123, 31.7801314555588], [35.1917672037607, 31.7801452436419], [35.1917826448409, 31.7801090669256], [35.1917561880053, 31.7800988076688], [35.1917515772453, 31.780108677859], [35.1917258465685, 31.7800999076071], [35.1917216466131, 31.7801088985423], [35.1916845301728, 31.7800962465282], [35.1916381282008, 31.7802235295048], [35.1917031428156, 31.7802375415843], [35.1916929398834, 31.780277057427], [35.1916592220478, 31.7802707060043], [35.1916498747094, 31.7803069085659], [35.1916382099692, 31.7803047114164], [35.1916347959531, 31.7803179347659], [35.1916164887801, 31.7803129592794], [35.1915988458164, 31.7803683575874], [35.1916237990222, 31.7803730586811], [35.1916170449223, 31.7803992176991], [35.1917287662357, 31.7804294206781], [35.191743805736, 31.7803888267122], [35.1917301901478, 31.7803851458494], [35.1917614182026, 31.7803008574999], [35.1917338777268, 31.7802934118745], [35.1917442617262, 31.7802653818908], [35.191767164433, 31.7802715734957], [35.191769450981, 31.7802653997203], [35.1918108857349, 31.7802766019759], [35.1918423605547, 31.7802092267517]]]}, "properties": {"OBJECTID": 44, "CateTitle": "building", "rel_height": 10.2399902344, "med_height": 782.0739746094, "PID": "57060", "PARID": "-1", "CID": "31879", "bldg_ch": null, "mispar_komot": 3, "Shape__Area": 382.744873046875, "Shape__Length": 134.93333755801058}}, {"type": "Feature", "id": 45, "geometry": {"type": "Polygon", "coordinates": [[[35.1906865362629, 31.7786503099283], [35.1906765245266, 31.7786444162217], [35.1906753202656, 31.7786063746345], [35.1906842159979, 31.7786056965057], [35.1906839064904, 31.7785925764893], [35.1906774748145, 31.7785934749326], [35.1906750554966, 31.7785691033205], [35.1906646058371, 31.7785690210292], [35.1906625441082, 31.7785467435302], [35.1906226297009, 31.7785482182417], [35.1906223866597, 31.7785639724762], [35.1905966221883, 31.7785659907146], [35.190596925388, 31.7785788482948], [35.1905736291504, 31.7785813492808], [35.1905794914688, 31.7786394221649], [35.190667719116, 31.778676868022], [35.1906865362629, 31.7786503099283]]]}, "properties": {"OBJECTID": 45, "CateTitle": "building", "rel_height": 16.5960083008, "med_height": 784.3040161133, "PID": "57111", "PARID": "-1", "CID": "31894", "bldg_ch": null, "mispar_komot": 6, "Shape__Area": 103.99388122558594, "Shape__Length": 45.338830203955}}, {"type": "Feature", "id": 46, "geometry": {"type": "Polygon", "coordinates": [[[35.1905649787933, 31.7785222651295], [35.1905729722054, 31.7785263982324], [35.1906062327038, 31.7785435945332], [35.1906035115039, 31.7785474360814], [35.1905851853441, 31.7785379611585], [35.1905664410521, 31.7785644164358], [35.1905518466111, 31.7785570017179], [35.1904889887633, 31.7786515123212], [35.190541288759, 31.7786737096196], [35.1905669184411, 31.7786340855097], [35.1905794914688, 31.7786394221649], [35.1905736291504, 31.7785813492808], [35.190596925388, 31.7785788482948], [35.1905966221883, 31.7785659907146], [35.1906223866597, 31.7785639724762], [35.1906226297009, 31.7785482182417], [35.1906625441082, 31.7785467435302], [35.1906646058371, 31.7785690210292], [35.1906750554966, 31.7785691033205], [35.1906774748145, 31.7785934749326], [35.1906839064904, 31.7785925764893], [35.1906842159979, 31.7786056965057], [35.1906753202656, 31.7786063746345], [35.1906765245266, 31.7786444162217], [35.1906865362629, 31.7786503099283], [35.1907471111414, 31.7785648146877], [35.1907157592338, 31.7785486052428], [35.1907358392621, 31.7785202643371], [35.1907092190389, 31.7785049824901], [35.1906883512633, 31.7785344352769], [35.1906336504141, 31.7785061539596], [35.1906314117884, 31.7785093128669], [35.1906057773409, 31.7784960602471], [35.190594204638, 31.7785156316501], [35.1905740654211, 31.7785086284754], [35.1905649787933, 31.7785222651295]]]}, "properties": {"OBJECTID": 46, "CateTitle": "building", "rel_height": 5.9240112305, "med_height": 773.632019043, "PID": "57113", "PARID": "-1", "CID": "31894", "bldg_ch": null, "mispar_komot": 2, "Shape__Area": 172.0860137939453, "Shape__Length": 109.24703307560608}}, {"type": "Feature", "id": 47, "geometry": {"type": "Polygon", "coordinates": [[[35.1908228092343, 31.7766353633785], [35.1907986859067, 31.7766083245067], [35.1908099767796, 31.7766009739006], [35.1907936897932, 31.7765827188954], [35.1907823989212, 31.7765900695], [35.1907712893641, 31.7765776174918], [35.1907140864337, 31.7766146833536], [35.1907682980362, 31.7766746381603], [35.1908228092343, 31.7766353633785]]]}, "properties": {"OBJECTID": 47, "CateTitle": "building", "rel_height": 3.7109985352, "med_height": 778.8959960938, "PID": "57445", "PARID": "-1", "CID": "31960", "bldg_ch": null, "mispar_komot": 1, "Shape__Area": 59.143280029296875, "Shape__Length": 32.69607722825322}}, {"type": "Feature", "id": 48, "geometry": {"type": "Polygon", "coordinates": [[[35.1899946387247, 31.7811279475056], [35.1899714465688, 31.7811494709169], [35.1899809726411, 31.7811568950453], [35.189956887138, 31.7811794446475], [35.1899642565442, 31.7811851884036], [35.1899454833597, 31.781202764052], [35.1899230607063, 31.7811843684673], [35.1899312873125, 31.7811770527682], [35.1899067998558, 31.7811569614857], [35.1898985743053, 31.7811642771833], [35.1898915723113, 31.7811585316615], [35.189859734123, 31.7811889741738], [35.1898502534255, 31.7811817394281], [35.1897793428443, 31.7812495425153], [35.1897882998044, 31.7812572786296], [35.1897907526749, 31.7812552055792], [35.1898330409478, 31.7812917277501], [35.1898264679305, 31.7812972814352], [35.1898881685978, 31.7813475155869], [35.1898930964751, 31.7813435949449], [35.1899191490265, 31.7813204251125], [35.1898922817964, 31.7813005914836], [35.189954340945, 31.7812454013762], [35.190069994625, 31.7813358708503], [35.1900441363949, 31.7813588666802], [35.1900710047301, 31.7813787002769], [35.1901630964744, 31.7812939456942], [35.1901534679504, 31.7812866117522], [35.1901620504275, 31.7812787297222], [35.1901021119927, 31.7812336607416], [35.1901070800505, 31.7812292422797], [35.1900882883942, 31.7812160354204], [35.1901092830533, 31.7811973642636], [35.1900948513212, 31.7811867119067], [35.1900853109852, 31.7811964290704], [35.1900390489781, 31.7811584726084], [35.1900235669169, 31.7811742151972], [35.1900008895856, 31.7811573049288], [35.1900151624288, 31.7811439430656], [35.1899946387247, 31.7811279475056]], [[35.1900768141315, 31.7812996022923], [35.1899704204851, 31.7812099419217], [35.1899980683105, 31.7811863249403], [35.1900997336183, 31.7812799934394], [35.1900768141315, 31.7812996022923]]]}, "properties": {"OBJECTID": 48, "CateTitle": "building", "rel_height": 8.4320068359, "med_height": 798.6010131836, "PID": "57449", "PARID": "-1", "CID": "31961", "bldg_ch": null, "mispar_komot": 3, "Shape__Area": 399.4588317871094, "Shape__Length": 173.36374335747857}}, {"type": "Feature", "id": 49, "geometry": {"type": "Polygon", "coordinates": [[[35.1902006741369, 31.7774781032054], [35.1901762697885, 31.7774383076445], [35.1901648718822, 31.7774197203273], [35.1901580303552, 31.7774088325363], [35.1900956169188, 31.7774374544961], [35.1900821914129, 31.7774160910768], [35.1899911436535, 31.7774578441806], [35.1900096796985, 31.7774873400883], [35.1899998531208, 31.777493542744], [35.1900118695745, 31.7775126640355], [35.1900141905398, 31.7775163564352], [35.190040619669, 31.7775017604103], [35.1900596310003, 31.7775300487988], [35.1900642490629, 31.7775279308933], [35.1900792297861, 31.7775210614493], [35.1900821238717, 31.7775256674773], [35.1900955842438, 31.7775194949839], [35.1901077516524, 31.777538856173], [35.1901256791069, 31.7775306351941], [35.1901340236236, 31.777543912132], [35.1902178676976, 31.7775054633732], [35.1902006741369, 31.7774781032054]]]}, "properties": {"OBJECTID": 49, "CateTitle": "building", "rel_height": 6.0620117188, "med_height": 788.9790039062, "PID": "57468", "PARID": "-1", "CID": "31964", "bldg_ch": null, "mispar_komot": 2, "Shape__Area": 194.36785888671875, "Shape__Length": 64.82970858685121}}, {"type": "Feature", "id": 50, "geometry": {"type": "Polygon", "coordinates": [[[35.1883108937341, 31.7791860278502], [35.1883229550444, 31.7792197446951], [35.1883324067703, 31.7792461662186], [35.1883369625113, 31.7792449592279], [35.1883484896441, 31.7792419061449], [35.1883457558537, 31.779232402201], [35.1884146819504, 31.7792151947211], [35.1883972216603, 31.7791623699033], [35.1883837983699, 31.7791657465133], [35.1883783641274, 31.7791493124849], [35.1883524332472, 31.7791539176298], [35.188304009399, 31.7791667862048], [35.1883108937341, 31.7791860278502]]]}, "properties": {"OBJECTID": 50, "CateTitle": "building", "rel_height": 11.3709716797, "med_height": 794.2369995117, "PID": "57624", "PARID": "-1", "CID": "31991", "bldg_ch": null, "mispar_komot": 4, "Shape__Area": 68.42222595214844, "Shape__Length": 35.3034101930047}}, {"type": "Feature", "id": 51, "geometry": {"type": "Polygon", "coordinates": [[[35.1882425335374, 31.7792699697701], [35.1883071891846, 31.7792528447764], [35.1883324067703, 31.7792461662186], [35.1883229550444, 31.7792197446951], [35.1882582480824, 31.7792346186955], [35.1882486811283, 31.7792031224929], [35.1883108937341, 31.7791860278502], [35.188304009399, 31.7791667862048], [35.1882561366604, 31.7791795087329], [35.1882311905227, 31.7791855578251], [35.1882116847075, 31.7791911269224], [35.1882425335374, 31.7792699697701]]]}, "properties": {"OBJECTID": 51, "CateTitle": "building", "rel_height": 8.5989990234, "med_height": 791.4650268555, "PID": "57628", "PARID": "-1", "CID": "31991", "bldg_ch": null, "mispar_komot": 3, "Shape__Area": 59.696746826171875, "Shape__Length": 48.72340348785158}}, {"type": "Feature", "id": 52, "geometry": {"type": "Polygon", "coordinates": [[[35.1883108937341, 31.7791860278502], [35.1882486811283, 31.7792031224929], [35.1882582480824, 31.7792346186955], [35.1883229550444, 31.7792197446951], [35.1883108937341, 31.7791860278502]]]}, "properties": {"OBJECTID": 52, "CateTitle": "building", "rel_height": 9.9489746094, "med_height": 792.8150024414, "PID": "57630", "PARID": "-1", "CID": "31991", "bldg_ch": null, "mispar_komot": 3, "Shape__Area": 23.54827880859375, "Shape__Length": 20.054627971010042}}, {"type": "Feature", "id": 53, "geometry": {"type": "Polygon", "coordinates": [[[35.1910478338926, 31.7784865135317], [35.1910824639414, 31.7785023931637], [35.1911086033621, 31.7785138113956], [35.1911218441145, 31.7784861641332], [35.1911349185458, 31.7784920779641], [35.1911744133062, 31.778419781472], [35.1911467982175, 31.7784067524119], [35.1911526442567, 31.7783962420622], [35.1911391084535, 31.7783905292955], [35.1911216338605, 31.778420741857], [35.1910928932381, 31.7784086109017], [35.1910478338926, 31.7784865135317]]]}, "properties": {"OBJECTID": 53, "CateTitle": "building", "rel_height": 19.0460205078, "med_height": 781.8300170898, "PID": "57789", "PARID": "-1", "CID": "32017", "bldg_ch": null, "mispar_komot": 6, "Shape__Area": 82.58772277832031, "Shape__Length": 42.18067369992672}}, {"type": "Feature", "id": 54, "geometry": {"type": "Polygon", "coordinates": [[[35.1910478338926, 31.7784865135317], [35.1910365368366, 31.7785060444209], [35.191024603009, 31.778526677292], [35.1910625406685, 31.7785426907489], [35.1910824639414, 31.7785023931637], [35.1910478338926, 31.7784865135317]]]}, "properties": {"OBJECTID": 54, "CateTitle": "building", "rel_height": 13.6129760742, "med_height": 776.3969726562, "PID": "57790", "PARID": "-1", "CID": "32017", "bldg_ch": null, "mispar_komot": 5, "Shape__Area": 18.945480346679688, "Shape__Length": 17.549163930345927}}, {"type": "Feature", "id": 55, "geometry": {"type": "Polygon", "coordinates": [[[35.1911526442567, 31.7783962420622], [35.1911467982175, 31.7784067524119], [35.1911744133062, 31.778419781472], [35.1911349185458, 31.7784920779641], [35.1911218441145, 31.7784861641332], [35.1911086033621, 31.7785138113956], [35.1910824639414, 31.7785023931637], [35.1910625406685, 31.7785426907489], [35.1911180858934, 31.7785661344946], [35.191130020761, 31.778545501615], [35.1911582335945, 31.7785574097521], [35.1912201380873, 31.7784503847723], [35.1911985717827, 31.7784412820628], [35.1912104992245, 31.7784206608984], [35.1911526442567, 31.7783962420622]]]}, "properties": {"OBJECTID": 55, "CateTitle": "building", "rel_height": 7.2750244141, "med_height": 770.0590209961, "PID": "57791", "PARID": "-1", "CID": "32017", "bldg_ch": null, "mispar_komot": 2, "Shape__Area": 109.50096130371094, "Shape__Length": 61.049514193558686}}, {"type": "Feature", "id": 56, "geometry": {"type": "Polygon", "coordinates": [[[35.1920533269154, 31.7780198417854], [35.1920574903206, 31.7780148369704], [35.1920034064201, 31.7779826982225], [35.1919976991473, 31.7779906302618], [35.1920533269154, 31.7780198417854]]]}, "properties": {"OBJECTID": 56, "CateTitle": "building", "rel_height": 19.2649536133, "med_height": 773.1389770508, "PID": "57816", "PARID": "-1", "CID": "32028", "bldg_ch": null, "mispar_komot": 6, "Shape__Area": 5.3169097900390625, "Shape__Length": 14.138807659846144}}, {"type": "Feature", "id": 57, "geometry": {"type": "Polygon", "coordinates": [[[35.1920034064201, 31.7779826982225], [35.1920574903206, 31.7780148369704], [35.1920533269154, 31.7780198417854], [35.1920921127759, 31.7780402091078], [35.192115565891, 31.7780076197343], [35.1921336292242, 31.7780171052346], [35.1921690320284, 31.7779691207691], [35.1921509242511, 31.7779604640615], [35.1921718730564, 31.7779284921978], [35.1920755555542, 31.7778824394248], [35.1920034064201, 31.7779826982225]]]}, "properties": {"OBJECTID": 57, "CateTitle": "building", "rel_height": 7.2420043945, "med_height": 761.116027832, "PID": "57817", "PARID": "-1", "CID": "32028", "bldg_ch": null, "mispar_komot": 2, "Shape__Area": 157.660888671875, "Shape__Length": 53.30657752428531}}, {"type": "Feature", "id": 58, "geometry": {"type": "Polygon", "coordinates": [[[35.1903330273753, 31.7752415694137], [35.1902983839466, 31.7752531713843], [35.1902835705689, 31.7752241782464], [35.1903370919758, 31.7751985844893], [35.190329884581, 31.7751856079985], [35.1902252149316, 31.7752231075979], [35.1902424102204, 31.7752572315834], [35.1902705197473, 31.7752469194392], [35.1902845244223, 31.7752761586917], [35.190293156221, 31.7752734568283], [35.1902974651351, 31.7752833640338], [35.1903098555113, 31.7752787398589], [35.1903161655776, 31.775291645006], [35.1903345272254, 31.7752854243271], [35.1903312986396, 31.7752801644313], [35.1903330375292, 31.7752791428367], [35.1903346677006, 31.7752779967761], [35.1903361775399, 31.7752767352665], [35.1903375533214, 31.7752753682265], [35.1903387876539, 31.775273904674], [35.1903398699786, 31.7752723563315], [35.190340792904, 31.7752707340205], [35.1903415490384, 31.7752690503658], [35.1903421331014, 31.7752673170909], [35.1903425408683, 31.7752655477228], [35.1903427691699, 31.7752637548871], [35.1903428158931, 31.7752619521112], [35.1903426820914, 31.7752601520208], [35.1903423667071, 31.7752583690454], [35.1903419752611, 31.7752569269577], [35.1903330273753, 31.7752415694137]]]}, "properties": {"OBJECTID": 58, "CateTitle": "building", "rel_height": 9.2639770508, "med_height": 767.674987793, "PID": "57824", "PARID": "-1", "CID": "32031", "bldg_ch": null, "mispar_komot": 3, "Shape__Area": 55.340850830078125, "Shape__Length": 47.97676768881779}}, {"type": "Feature", "id": 59, "geometry": {"type": "Polygon", "coordinates": [[[35.1903370919758, 31.7751985844893], [35.1902835705689, 31.7752241782464], [35.1902983839466, 31.7752531713843], [35.1903330273753, 31.7752415694137], [35.1903267929866, 31.7752308692782], [35.1903501380745, 31.7752209425784], [35.1903413189522, 31.775205807804], [35.1903411436957, 31.7752058790302], [35.1903370919758, 31.7751985844893]]]}, "properties": {"OBJECTID": 59, "CateTitle": "building", "rel_height": 9.9899902344, "med_height": 768.4010009766, "PID": "57825", "PARID": "-1", "CID": "32031", "bldg_ch": null, "mispar_komot": 3, "Shape__Area": 19.491973876953125, "Shape__Length": 19.42628399608392}}, {"type": "Feature", "id": 60, "geometry": {"type": "Polygon", "coordinates": [[[35.1903161655776, 31.775291645006], [35.1903098555113, 31.7752787398589], [35.1902974651351, 31.7752833640338], [35.190293156221, 31.7752734568283], [35.1902845244223, 31.7752761586917], [35.1902705197473, 31.7752469194392], [35.1902424102204, 31.7752572315834], [35.1902679757424, 31.7753079693166], [35.1903161655776, 31.775291645006]]]}, "properties": {"OBJECTID": 60, "CateTitle": "building", "rel_height": 12.9859619141, "med_height": 771.3969726562, "PID": "57826", "PARID": "-1", "CID": "32031", "bldg_ch": null, "mispar_komot": 4, "Shape__Area": 21.745574951171875, "Shape__Length": 22.310760989222423}}, {"type": "Feature", "id": 61, "geometry": {"type": "Polygon", "coordinates": [[[35.1903267929866, 31.7752308692782], [35.1903330273753, 31.7752415694137], [35.1903419752611, 31.7752569269577], [35.1903423667071, 31.7752583690454], [35.1903426820914, 31.7752601520208], [35.1903428158931, 31.7752619521112], [35.1903427691699, 31.7752637548871], [35.1903425408683, 31.7752655477228], [35.1903421331014, 31.7752673170909], [35.1903415490384, 31.7752690503658], [35.190340792904, 31.7752707340205], [35.1903398699786, 31.7752723563315], [35.1903387876539, 31.775273904674], [35.1903375533214, 31.7752753682265], [35.1903361775399, 31.7752767352665], [35.1903346677006, 31.7752779967761], [35.1903330375292, 31.7752791428367], [35.1903312986396, 31.7752801644313], [35.1903345272254, 31.7752854243271], [35.1903497633108, 31.7753047623905], [35.1903619119818, 31.7752788222586], [35.1903967770664, 31.7752043808819], [35.1903916101703, 31.7751854254097], [35.1903413189522, 31.775205807804], [35.1903501380745, 31.7752209425784], [35.1903267929866, 31.7752308692782]]]}, "properties": {"OBJECTID": 61, "CateTitle": "building", "rel_height": 9.2319946289, "med_height": 767.6430053711, "PID": "57827", "PARID": "-1", "CID": "32031", "bldg_ch": null, "mispar_komot": 3, "Shape__Area": 40.90888977050781, "Shape__Length": 33.198712959815616}}, {"type": "Feature", "id": 62, "geometry": {"type": "Polygon", "coordinates": [[[35.1931104288017, 31.7809342792096], [35.1931104857661, 31.7809433643577], [35.1931530764486, 31.7809420288886], [35.1931532035413, 31.7809474426495], [35.1931377259551, 31.7809483106576], [35.193139090839, 31.7809762705449], [35.1931285268522, 31.780976452685], [35.193129045739, 31.7809984080423], [35.1931248205655, 31.7809984816196], [35.1931250978654, 31.781010210984], [35.1931194705981, 31.7810106090998], [35.1931196060986, 31.7810163240761], [35.1931136199071, 31.781016427258], [35.1931158320328, 31.7810313520152], [35.1931768449841, 31.7810282848296], [35.1931701620975, 31.7809312768464], [35.1931104288017, 31.7809342792096]]]}, "properties": {"OBJECTID": 62, "CateTitle": "building", "rel_height": 16.5829467773, "med_height": 786.2329711914, "PID": "57879", "PARID": "-1", "CID": "32045", "bldg_ch": null, "mispar_komot": 6, "Shape__Area": 46.45408630371094, "Shape__Length": 40.98964113461872}}, {"type": "Feature", "id": 63, "geometry": {"type": "Polygon", "coordinates": [[[35.1931158320328, 31.7810313520152], [35.1931136199071, 31.781016427258], [35.1931196060986, 31.7810163240761], [35.1931194705981, 31.7810106090998], [35.1931250978654, 31.781010210984], [35.1931248205655, 31.7809984816196], [35.193129045739, 31.7809984080423], [35.1931285268522, 31.780976452685], [35.193139090839, 31.7809762705449], [35.1931377259551, 31.7809483106576], [35.1931532035413, 31.7809474426495], [35.1931530764486, 31.7809420288886], [35.1931104857661, 31.7809433643577], [35.1931104288017, 31.7809342792096], [35.1931090176206, 31.7809138054973], [35.1930093741604, 31.7809188135733], [35.1930104059173, 31.7809337968467], [35.1929857737696, 31.7809350346747], [35.1929929001508, 31.7810384818496], [35.1930108830851, 31.7810375780093], [35.193012160402, 31.7810561109492], [35.1931171747129, 31.7810508327944], [35.1931158320328, 31.7810313520152]]]}, "properties": {"OBJECTID": 63, "CateTitle": "building", "rel_height": 4.5899658203, "med_height": 774.2399902344, "PID": "57880", "PARID": "-1", "CID": "32045", "bldg_ch": null, "mispar_komot": 2, "Shape__Area": 186.34141540527344, "Shape__Length": 61.87082823089494}}, {"type": "Feature", "id": 64, "geometry": {"type": "Polygon", "coordinates": [[[35.1907038777443, 31.7765282308481], [35.1906605642914, 31.7765046268038], [35.1906757066582, 31.7764883736471], [35.1907167860119, 31.7765133933374], [35.1907462421875, 31.7764795386674], [35.1906979996244, 31.7764487969353], [35.1906851242497, 31.7764625495327], [35.1906234754825, 31.7764230187875], [35.1905875421178, 31.7764664836507], [35.1905661131259, 31.7764533216585], [35.1905352977806, 31.7764899339699], [35.1906665657012, 31.7765711138971], [35.1907038777443, 31.7765282308481]]]}, "properties": {"OBJECTID": 64, "CateTitle": "building", "rel_height": 7.383972168, "med_height": 780.6719970703, "PID": "57889", "PARID": "-1", "CID": "32048", "bldg_ch": null, "mispar_komot": 2, "Shape__Area": 153.06695556640625, "Shape__Length": 66.25689076981614}}, {"type": "Feature", "id": 65, "geometry": {"type": "Polygon", "coordinates": [[[35.1907756357968, 31.7819469470275], [35.190793567453, 31.7819298491444], [35.1908609932507, 31.7818655623077], [35.1908082791612, 31.7818249062347], [35.1907605045173, 31.7817880600427], [35.1907215484495, 31.7818252026809], [35.1906012166978, 31.7817331153969], [35.1906405888079, 31.7816955751281], [35.1905896589596, 31.781656294463], [35.1905427655887, 31.7816155072406], [35.1905397823221, 31.7816132243577], [35.1904968232421, 31.781654183984], [35.1905112328656, 31.7816652114579], [35.1902975287311, 31.7818689687887], [35.1902762972261, 31.7818892109545], [35.1902537315445, 31.7818725758068], [35.1902356571501, 31.7818904645124], [35.1899843769542, 31.7817052154244], [35.189925446532, 31.7816605297599], [35.1898342412485, 31.7817507954148], [35.1898927517283, 31.781793931711], [35.1899126676531, 31.7817746517231], [35.1902097892489, 31.7819968598802], [35.1901640250442, 31.7820421524231], [35.1903923649047, 31.7822104954315], [35.1904840486841, 31.7821180911718], [35.1905209162813, 31.7821470632108], [35.1904764954402, 31.7821971510971], [35.1907626900635, 31.7824138167498], [35.1907547684696, 31.7824215681228], [35.1907643961373, 31.7824286666376], [35.1907511526271, 31.7824417734714], [35.1908037556043, 31.782479175712], [35.1908669741237, 31.7824175632877], [35.1908105236159, 31.7823748614481], [35.1907972019205, 31.7823884588797], [35.1907028027095, 31.7823160481148], [35.1907475653612, 31.7822744897944], [35.1908935793066, 31.7823916354904], [35.1909421931764, 31.7823442561298], [35.1906132738644, 31.7821017512388], [35.1906728734053, 31.7820449263871], [35.1906302843857, 31.7820099835894], [35.1906720359983, 31.7819746007722], [35.1907116120648, 31.7820079902632], [35.1907756357968, 31.7819469470275]], [[35.190748283643, 31.7818477181929], [35.1907772391033, 31.7818200311783], [35.190796668995, 31.7818382098499], [35.1907819100818, 31.7818544414039], [35.1908060710244, 31.7818717782601], [35.1907773655603, 31.7819009298968], [35.1907564816698, 31.7818840434044], [35.1907729797149, 31.7818660074564], [35.190748283643, 31.7818477181929]], [[35.1907258227015, 31.7819655259214], [35.1906863916905, 31.7819365735057], [35.1907049030589, 31.781918946317], [35.1907443225045, 31.7819475596338], [35.1907258227015, 31.7819655259214]], [[35.1907401070221, 31.7818597776306], [35.1904941247492, 31.7820915925898], [35.1904764021094, 31.7821082954469], [35.1904247295396, 31.7820713756558], [35.190296783417, 31.78197995732], [35.1903186368426, 31.7819593626002], [35.1903327197103, 31.7819460908661], [35.1905667405454, 31.7817255488249], [35.1907401070221, 31.7818597776306]], [[35.1905024609489, 31.7821848140473], [35.190532501368, 31.7821537867909], [35.1905580018841, 31.782172724606], [35.1905272582533, 31.7822041982028], [35.1905024609489, 31.7821848140473]]]}, "properties": {"OBJECTID": 65, "CateTitle": "building", "rel_height": 15.0250244141, "med_height": 807.5640258789, "PID": "57932", "PARID": "-1", "CID": "32058", "bldg_ch": null, "mispar_komot": 5, "Shape__Area": 2285.496078491211, "Shape__Length": 630.6847526560761}}, {"type": "Feature", "id": 66, "geometry": {"type": "Polygon", "coordinates": [[[35.1903186368426, 31.7819593626002], [35.190365615041, 31.7819982244828], [35.1904247295396, 31.7820713756558], [35.1904764021094, 31.7821082954469], [35.1904941247492, 31.7820915925898], [35.1904461145022, 31.7820557644337], [35.1903877744988, 31.7819855100674], [35.1903327197103, 31.7819460908661], [35.1903186368426, 31.7819593626002]]]}, "properties": {"OBJECTID": 66, "CateTitle": "building", "rel_height": 13.8720092773, "med_height": 806.4110107422, "PID": "57952", "PARID": "-1", "CID": "32058", "bldg_ch": null, "mispar_komot": 5, "Shape__Area": 55.47019958496094, "Shape__Length": 49.3104249043969}}, {"type": "Feature", "id": 67, "geometry": {"type": "Polygon", "coordinates": [[[35.1923433412813, 31.7756557359477], [35.1923325772275, 31.7756484471487], [35.192356507007, 31.7756226594518], [35.1923322808214, 31.7756058513457], [35.1923453764552, 31.7755922546193], [35.1922942214505, 31.7755591494858], [35.1922324331077, 31.7756256120238], [35.1923182574449, 31.7756827671719], [35.1923433412813, 31.7756557359477]]]}, "properties": {"OBJECTID": 67, "CateTitle": "building", "rel_height": 5.7249755859, "med_height": 760.0859985352, "PID": "58023", "PARID": "-1", "CID": "32074", "bldg_ch": null, "mispar_komot": 2, "Shape__Area": 84.38334655761719, "Shape__Length": 39.48161180477381}}, {"type": "Feature", "id": 68, "geometry": {"type": "Polygon", "coordinates": [[[35.1904075095664, 31.7751814644643], [35.1903967770664, 31.7752043808819], [35.1903619119818, 31.7752788222586], [35.1903497633108, 31.7753047623905], [35.1903414638975, 31.7753224835624], [35.1904076432785, 31.7753453011201], [35.1904406902276, 31.775356695001], [35.1904706019197, 31.7753670081247], [35.1904963891983, 31.7753124269844], [35.1904536780704, 31.7752961467857], [35.1904607575525, 31.7752822691214], [35.1904198660246, 31.7752689417393], [35.1904236245005, 31.7752606479152], [35.1903868395837, 31.7752477764025], [35.1904022477002, 31.7752183492038], [35.1904365927676, 31.7752320357096], [35.1904437432639, 31.7752162596775], [35.1905268905709, 31.7752478665737], [35.1905353050264, 31.7752300570215], [35.1904075095664, 31.7751814644643]]]}, "properties": {"OBJECTID": 68, "CateTitle": "building", "rel_height": 14.9940185547, "med_height": 770.25, "PID": "58086", "PARID": "-1", "CID": "32088", "bldg_ch": null, "mispar_komot": 5, "Shape__Area": 147.07369995117188, "Shape__Length": 84.60653176618597}}, {"type": "Feature", "id": 69, "geometry": {"type": "Polygon", "coordinates": [[[35.1904365927676, 31.7752320357096], [35.1904022477002, 31.7752183492038], [35.1903868395837, 31.7752477764025], [35.1904236245005, 31.7752606479152], [35.1904365927676, 31.7752320357096]]]}, "properties": {"OBJECTID": 69, "CateTitle": "building", "rel_height": 17.4110107422, "med_height": 772.6669921875, "PID": "58092", "PARID": "-1", "CID": "32088", "bldg_ch": null, "mispar_komot": 6, "Shape__Area": 12.819305419921875, "Shape__Length": 14.331971595240418}}, {"type": "Feature", "id": 70, "geometry": {"type": "Polygon", "coordinates": [[[35.1885663839813, 31.7794868346098], [35.1884271005993, 31.7795228782402], [35.188464866465, 31.7796293669266], [35.1886706375327, 31.7795761162379], [35.1886375641123, 31.7794828590995], [35.1885710766323, 31.7795000651985], [35.1885663839813, 31.7794868346098]]]}, "properties": {"OBJECTID": 70, "CateTitle": "building", "rel_height": 6.7379760742, "med_height": 789.1149902344, "PID": "58094", "PARID": "-1", "CID": "32089", "bldg_ch": null, "mispar_komot": 2, "Shape__Area": 241.17665100097656, "Shape__Length": 65.40630474379307}}, {"type": "Feature", "id": 71, "geometry": {"type": "Polygon", "coordinates": [[[35.1913511957733, 31.7745825704163], [35.1913885302415, 31.7745676334225], [35.1914360790685, 31.774548609409], [35.191404869024, 31.7744930194211], [35.191338540565, 31.7745195051416], [35.1913455453649, 31.7745324229363], [35.1913861471389, 31.7745177324804], [35.1913974474132, 31.7745391613896], [35.1913414134119, 31.7745623871018], [35.1913511957733, 31.7745825704163]]]}, "properties": {"OBJECTID": 71, "CateTitle": "building", "rel_height": 10.4730224609, "med_height": 757.9400024414, "PID": "58095", "PARID": "-1", "CID": "32090", "bldg_ch": null, "mispar_komot": 3, "Shape__Area": 40.837188720703125, "Shape__Length": 39.33380276380825}}, {"type": "Feature", "id": 72, "geometry": {"type": "Polygon", "coordinates": [[[35.1914030960648, 31.7745945305299], [35.1913885302415, 31.7745676334225], [35.1913511957733, 31.7745825704163], [35.1913414134119, 31.7745623871018], [35.1913974474132, 31.7745391613896], [35.1913861471389, 31.7745177324804], [35.1913455453649, 31.7745324229363], [35.191338540565, 31.7745195051416], [35.191404869024, 31.7744930194211], [35.1914115424181, 31.7744902857175], [35.1913942576974, 31.7744594995923], [35.1912973366883, 31.7744992094776], [35.1913195001622, 31.7745344079255], [35.1913138497451, 31.7745370037476], [35.1913476807802, 31.7746094205859], [35.1913536425505, 31.7746073884452], [35.1913552551618, 31.7746108408598], [35.1914030960648, 31.7745945305299]]]}, "properties": {"OBJECTID": 72, "CateTitle": "building", "rel_height": 9.9370117188, "med_height": 757.4039916992, "PID": "58096", "PARID": "-1", "CID": "32090", "bldg_ch": null, "mispar_komot": 3, "Shape__Area": 81.99746704101562, "Shape__Length": 65.06396672631905}}, {"type": "Feature", "id": 73, "geometry": {"type": "Polygon", "coordinates": [[[35.1914030960648, 31.7745945305299], [35.191420980313, 31.7745884331973], [35.1914524192108, 31.7745777143994], [35.1914360790685, 31.774548609409], [35.1913885302415, 31.7745676334225], [35.1914030960648, 31.7745945305299]]]}, "properties": {"OBJECTID": 73, "CateTitle": "building", "rel_height": 10.8350219727, "med_height": 758.3020019531, "PID": "58097", "PARID": "-1", "CID": "32090", "bldg_ch": null, "mispar_komot": 4, "Shape__Area": 17.154067993164062, "Shape__Length": 16.869441279408832}}, {"type": "Feature", "id": 74, "geometry": {"type": "Polygon", "coordinates": [[[35.1902522854285, 31.7784003037037], [35.1902662843923, 31.7783798929864], [35.19028117881, 31.7783581755991], [35.1902690293207, 31.7783519560588], [35.1902721074494, 31.7783475680415], [35.190181706395, 31.7783040369444], [35.1901788784877, 31.7783083221776], [35.190134804902, 31.7782870996384], [35.1901159852582, 31.7783156200579], [35.1901383440278, 31.7783263869363], [35.1901165032213, 31.7783594856647], [35.190136486777, 31.7783691078409], [35.1901261265672, 31.7783848086356], [35.1902120179095, 31.7784261676364], [35.1902299486712, 31.7784250215873], [35.1902522854285, 31.7784003037037]]]}, "properties": {"OBJECTID": 74, "CateTitle": "building", "rel_height": 5.3969726562, "med_height": 779.4409790039, "PID": "58213", "PARID": "-1", "CID": "32127", "bldg_ch": null, "mispar_komot": 2, "Shape__Area": 140.18824768066406, "Shape__Length": 51.440959344014935}}, {"type": "Feature", "id": 75, "geometry": {"type": "Polygon", "coordinates": [[[35.190079267466, 31.778483187924], [35.1900385792967, 31.7785388882627], [35.190025004947, 31.7785574718724], [35.1900612264078, 31.7785765237362], [35.190106065406, 31.7785985048341], [35.1901126059955, 31.7785896467831], [35.1901475638038, 31.7786084820388], [35.1901942741876, 31.7785436818594], [35.190079267466, 31.778483187924]]]}, "properties": {"OBJECTID": 75, "CateTitle": "building", "rel_height": 6.0239868164, "med_height": 779.883972168, "PID": "58218", "PARID": "-1", "CID": "32128", "bldg_ch": null, "mispar_komot": 2, "Shape__Area": 119.04957580566406, "Shape__Length": 44.942535091223846}}, {"type": "Feature", "id": 76, "geometry": {"type": "Polygon", "coordinates": [[[35.1900598621696, 31.7786122391925], [35.1900510801587, 31.7786079724962], [35.1900489439472, 31.7786109366071], [35.1900101172084, 31.7785900158312], [35.1899538334624, 31.7786738608382], [35.1899618479791, 31.7786779678283], [35.1899571731976, 31.7786846282963], [35.1900370133273, 31.7787255168684], [35.1900713096492, 31.7786799119235], [35.1900738270679, 31.7786763941246], [35.1900758694383, 31.7786726589287], [35.1900774114157, 31.7786687514249], [35.1900784339894, 31.7786647221142], [35.190078923427, 31.7786606205963], [35.1900788733863, 31.7786564982755], [35.1900782870269, 31.7786524056551], [35.1900771685637, 31.7786483950425], [35.1900755338252, 31.7786445151388], [35.1900734028629, 31.7786408164493], [35.1900708020632, 31.7786373431673], [35.1900677641474, 31.7786341394864], [35.1900643271157, 31.7786312450922], [35.1900605331922, 31.7786286960627], [35.1900574126902, 31.7786270444407], [35.1900638201455, 31.7786189520403], [35.1900574429727, 31.7786155162105], [35.1900598621696, 31.7786122391925]]]}, "properties": {"OBJECTID": 76, "CateTitle": "building", "rel_height": 4.5020141602, "med_height": 778.4520263672, "PID": "58220", "PARID": "-1", "CID": "32129", "bldg_ch": null, "mispar_komot": 2, "Shape__Area": 105.67755126953125, "Shape__Length": 41.957701070194666}}, {"type": "Feature", "id": 77, "geometry": {"type": "Polygon", "coordinates": [[[35.1901980537441, 31.7803343306658], [35.1903648892876, 31.7803640043751], [35.1903758051674, 31.7803192219678], [35.1902089697008, 31.7802895482726], [35.1901980537441, 31.7803343306658]]]}, "properties": {"OBJECTID": 77, "CateTitle": "building", "rel_height": 1.562, "med_height": 781.1920166016, "PID": "58233", "PARID": "-1", "CID": "32134", "bldg_ch": null, "mispar_komot": 1, "Shape__Area": 81.87184143066406, "Shape__Length": 42.427119924145444}}, {"type": "Feature", "id": 78, "geometry": {"type": "Polygon", "coordinates": [[[35.1887067901405, 31.7793344498819], [35.1887101030058, 31.7793535828446], [35.188646404107, 31.77936306055], [35.1886422052313, 31.779345424532], [35.1886155796431, 31.7793499493806], [35.1885776369669, 31.779357761833], [35.1885782752261, 31.7793605026068], [35.1885814615556, 31.7793599609959], [35.1885993760862, 31.7794368884428], [35.1886632051286, 31.7794260417827], [35.1887666330033, 31.7794091927916], [35.1887649027482, 31.77940225111], [35.1887875565357, 31.7793982939035], [35.1887700881147, 31.7793232820473], [35.1887122484952, 31.7793335225596], [35.1887067901405, 31.7793344498819]]]}, "properties": {"OBJECTID": 78, "CateTitle": "building", "rel_height": 8.3280029297, "med_height": 789.9530029297, "PID": "58257", "PARID": "-1", "CID": "32144", "bldg_ch": null, "mispar_komot": 3, "Shape__Area": 153.7366180419922, "Shape__Length": 59.56511154767975}}, {"type": "Feature", "id": 79, "geometry": {"type": "Polygon", "coordinates": [[[35.1916582739192, 31.77969309941], [35.1916363562103, 31.7796881109392], [35.1916276279076, 31.7797143148549], [35.1916519232559, 31.7797186650616], [35.1916582739192, 31.77969309941]]]}, "properties": {"OBJECTID": 79, "CateTitle": "building", "rel_height": 10.9609985352, "med_height": 777.6129760742, "PID": "58496", "PARID": "-1", "CID": "32206", "bldg_ch": null, "mispar_komot": 4, "Shape__Area": 6.651611328125, "Shape__Length": 10.418596921637153}}, {"type": "Feature", "id": 80, "geometry": {"type": "Polygon", "coordinates": [[[35.1916276279076, 31.7797143148549], [35.1916363562103, 31.7796881109392], [35.1916582739192, 31.77969309941], [35.1916857818013, 31.779582354294], [35.1915910722062, 31.7795715723235], [35.1915813835784, 31.7796101466913], [35.1915681502066, 31.7796070791009], [35.1915544690449, 31.7796739320885], [35.191520003943, 31.7796677600194], [35.1915176311653, 31.7796790769806], [35.1914487544966, 31.7796689865189], [35.1914367835012, 31.7797210602989], [35.191434144123, 31.7797211060244], [35.1914244923756, 31.7797596091376], [35.1914737999483, 31.7797681978682], [35.1915300106176, 31.779780095229], [35.1915450304231, 31.7797214518375], [35.1915715259908, 31.7797255055758], [35.191576325067, 31.7797051271607], [35.1916276279076, 31.7797143148549]]]}, "properties": {"OBJECTID": 80, "CateTitle": "building", "rel_height": 8.0859985352, "med_height": 774.7379760742, "PID": "58498", "PARID": "-1", "CID": "32206", "bldg_ch": null, "mispar_komot": 3, "Shape__Area": 258.0744171142578, "Shape__Length": 88.42955149152094}}, {"type": "Feature", "id": 81, "geometry": {"type": "Polygon", "coordinates": [[[35.1915300106176, 31.779780095229], [35.1914737999483, 31.7797681978682], [35.1914702727474, 31.7797829741728], [35.1915267539821, 31.7797928126598], [35.1915300106176, 31.779780095229]]]}, "properties": {"OBJECTID": 81, "CateTitle": "building", "rel_height": 15.3489990234, "med_height": 782.0009765625, "PID": "58499", "PARID": "-1", "CID": "32206", "bldg_ch": null, "mispar_komot": 5, "Shape__Area": 8.52252197265625, "Shape__Length": 14.06089876268064}}, {"type": "Feature", "id": 82, "geometry": {"type": "Polygon", "coordinates": [[[35.1885407583201, 31.7786173359047], [35.1885268859051, 31.7785990186888], [35.1885646890338, 31.7785781286367], [35.1885206536651, 31.7785199823695], [35.1883309431791, 31.7786248201569], [35.1883888498207, 31.7787012828189], [35.1884161555446, 31.7787373391436], [35.1884771924528, 31.7787036089118], [35.188449886715, 31.7786675535019], [35.1885407583201, 31.7786173359047]]]}, "properties": {"OBJECTID": 82, "CateTitle": "building", "rel_height": 7.5670166016, "med_height": 794, "PID": "58532", "PARID": "-1", "CID": "32219", "bldg_ch": null, "mispar_komot": 3, "Shape__Area": 238.58921813964844, "Shape__Length": 72.52340370426812}}, {"type": "Feature", "id": 83, "geometry": {"type": "Polygon", "coordinates": [[[35.1902784647159, 31.777390272516], [35.190220941778, 31.777416651298], [35.1901968981242, 31.7774276772371], [35.1901762697885, 31.7774383076445], [35.1902006741369, 31.7774781032054], [35.1902463859214, 31.7774571413836], [35.1902871048301, 31.777521934168], [35.1902907124911, 31.7775272274732], [35.190393637066, 31.7774855133385], [35.1903288164746, 31.7773823662314], [35.1902858719864, 31.7774020594988], [35.1902784647159, 31.777390272516]]]}, "properties": {"OBJECTID": 83, "CateTitle": "building", "rel_height": 8.2889448242, "med_height": 788.4099731445, "PID": "58768", "PARID": "-1", "CID": "32273", "bldg_ch": null, "mispar_komot": 3, "Shape__Area": 171.25662231445312, "Shape__Length": 59.65266085292092}}, {"type": "Feature", "id": 84, "geometry": {"type": "Polygon", "coordinates": [[[35.1911277190936, 31.7754314183079], [35.191144943225, 31.7754361232031], [35.1911262033196, 31.7754891305925], [35.1912835197044, 31.7755334110576], [35.1912871315224, 31.7755240467075], [35.1913324372546, 31.7755367988885], [35.1913385794487, 31.7755208738997], [35.1913613954155, 31.7755272955427], [35.1913788461532, 31.7754820519405], [35.1913560301965, 31.7754756293987], [35.1913581001218, 31.775470262752], [35.1913092864653, 31.7754565227035], [35.1913159376913, 31.775439277472], [35.1912678946877, 31.7754257539286], [35.1912698611205, 31.7754206560214], [35.1911453843132, 31.775385619225], [35.1911277190936, 31.7754314183079]]]}, "properties": {"OBJECTID": 84, "CateTitle": "building", "rel_height": 7.0530395508, "med_height": 764.2470092773, "PID": "58785", "PARID": "-1", "CID": "32279", "bldg_ch": null, "mispar_komot": 2, "Shape__Area": 233.74720764160156, "Shape__Length": 71.50296539403084}}, {"type": "Feature", "id": 85, "geometry": {"type": "Polygon", "coordinates": [[[35.1898265986216, 31.777923027602], [35.1898530663844, 31.7779323493495], [35.1898373671759, 31.7779694294594], [35.1898432335437, 31.7779714583701], [35.1899550218368, 31.7780101276042], [35.1900026623188, 31.7779033180318], [35.1898564633035, 31.777860730927], [35.1898265986216, 31.777923027602]]]}, "properties": {"OBJECTID": 85, "CateTitle": "building", "rel_height": 4.950012207, "med_height": 786.9639892578, "PID": "58807", "PARID": "-1", "CID": "32288", "bldg_ch": null, "mispar_komot": 2, "Shape__Area": 168.78070068359375, "Shape__Length": 53.87721087832164}}, {"type": "Feature", "id": 86, "geometry": {"type": "Polygon", "coordinates": [[[35.1917792274754, 31.7824269972369], [35.1917708093533, 31.7824298849982], [35.1918469355992, 31.7825918026413], [35.1919339919435, 31.7825619386214], [35.1919197397998, 31.7825316245654], [35.1919383931346, 31.7825252251267], [35.1919158955934, 31.7824773739759], [35.1919293394594, 31.7824727623778], [35.1918899637947, 31.7823890100059], [35.1918765188831, 31.7823936215997], [35.1918470531556, 31.7823309498063], [35.1918213754334, 31.7823397582567], [35.1918170342655, 31.7823305247853], [35.1917569576728, 31.7823511340126], [35.1917693742665, 31.7823775420347], [35.1917578372321, 31.7823814999708], [35.1917792274754, 31.7824269972369]]]}, "properties": {"OBJECTID": 86, "CateTitle": "building", "rel_height": 11.8280029297, "med_height": 797.7249755859, "PID": "72361", "PARID": "-1", "CID": "38918", "bldg_ch": null, "mispar_komot": 4, "Shape__Area": 294.31170654296875, "Shape__Length": 80.20396740845015}}]}