{"type": "FeatureCollection", "crs": {"type": "name", "properties": {"name": "EPSG:4326"}}, "features": [{"type": "Feature", "id": 1, "geometry": {"type": "Point", "coordinates": [35.2169620544645, 31.7932662527569]}, "properties": {"OBJECTID": 1, "GlobalID": "c7c2c3d1-bc0e-433a-90b5-4ffeb61b3d6f"}}, {"type": "Feature", "id": 2, "geometry": {"type": "Point", "coordinates": [35.2192610194211, 31.7920386930167]}, "properties": {"OBJECTID": 2, "GlobalID": "00d12f85-e1d0-40c5-91fc-68dc095c0b0a"}}, {"type": "Feature", "id": 3, "geometry": {"type": "Point", "coordinates": [35.2201160229883, 31.792118366017]}, "properties": {"OBJECTID": 3, "GlobalID": "a065b3e6-8322-4838-a512-e11654227a37"}}, {"type": "Feature", "id": 4, "geometry": {"type": "Point", "coordinates": [35.2184778448416, 31.7918178658112]}, "properties": {"OBJECTID": 4, "GlobalID": "3ea74bec-2787-4619-92a0-7f955b5b3f94"}}, {"type": "Feature", "id": 5, "geometry": {"type": "Point", "coordinates": [35.2185208227331, 31.7909587428604]}, "properties": {"OBJECTID": 5, "GlobalID": "402e4cd1-784d-4b87-ab4e-99716e59013b"}}, {"type": "Feature", "id": 6, "geometry": {"type": "Point", "coordinates": [35.2209996509142, 31.7915536898283]}, "properties": {"OBJECTID": 6, "GlobalID": "34380adb-02f5-4054-8b0b-4f3d2a4d5154"}}, {"type": "Feature", "id": 7, "geometry": {"type": "Point", "coordinates": [35.2210787146585, 31.7917255032948]}, "properties": {"OBJECTID": 7, "GlobalID": "eac5809e-5288-4c26-9610-f881df69acb5"}}, {"type": "Feature", "id": 8, "geometry": {"type": "Point", "coordinates": [35.2209924030366, 31.7911977709121]}, "properties": {"OBJECTID": 8, "GlobalID": "3ba024fc-b057-4a64-9e15-3413b88e6e83"}}]}