{"type": "FeatureCollection", "crs": {"type": "name", "properties": {"name": "EPSG:4326"}}, "features": [{"type": "Feature", "id": 1, "geometry": {"type": "Polygon", "coordinates": [[[35.2299647240865, 31.7904278593714], [35.2299626196855, 31.7903241221186], [35.2298287066399, 31.7903268084679], [35.2298245826397, 31.7904278874431], [35.2299647240865, 31.7904278593714]]]}, "properties": {"OBJECTID": 1, "darga": "מבנה לשימור דרגה 1", "Shape__Area": 147.35311889648438, "Shape__Length": 48.678303013400836}}, {"type": "Feature", "id": 2, "geometry": {"type": "Polygon", "coordinates": [[[35.2294358330699, 31.7899374270275], [35.2294350577479, 31.7898657616109], [35.2292581745032, 31.7898632134127], [35.2292574070969, 31.7898206016509], [35.229274038348, 31.7898218898357], [35.229270241928, 31.7897605546758], [35.2294516599083, 31.7897631019648], [35.229454691042, 31.7897895721585], [35.2295506908136, 31.7897921360926], [35.2295514204035, 31.7896946444023], [35.2293873892465, 31.7896953224281], [35.2293873770842, 31.7896501276496], [35.2293201016393, 31.7896494951226], [35.2293193577717, 31.7896946900491], [35.2291545688943, 31.789688911655], [35.2291553906472, 31.7899355456339], [35.2292037694864, 31.78993618103], [35.2292015083873, 31.7899620074452], [35.2292173822625, 31.7899620043509], [35.229219653022, 31.7899723344782], [35.2292551806003, 31.7899716818281], [35.2292551783535, 31.7899632884094], [35.2292657602332, 31.7899632863425], [35.2292680207959, 31.7899355236772], [35.2294358330699, 31.7899374270275]]]}, "properties": {"OBJECTID": 2, "darga": "מבנה לשימור דרגה 1", "Shape__Area": 698.2138977050781, "Shape__Length": 187.16112839931824}}, {"type": "Feature", "id": 3, "geometry": {"type": "Polygon", "coordinates": [[[35.2304634479371, 31.7899514310273], [35.230484563551, 31.7898890518823], [35.2304439234917, 31.7898783165919], [35.2304560095903, 31.7898506294526], [35.2304366576162, 31.7898465011847], [35.2304777979853, 31.7897100624968], [35.2300308130054, 31.7895820821749], [35.2299847283695, 31.7897717356516], [35.2302211964813, 31.7898332609837], [35.2302067923544, 31.789882521471], [35.2304634479371, 31.7899514310273]]]}, "properties": {"OBJECTID": 3, "darga": "מבנה לשימור דרגה 1", "Shape__Area": 1074.7464599609375, "Shape__Length": 152.66605723746477}}, {"type": "Feature", "id": 4, "geometry": {"type": "Polygon", "coordinates": [[[35.229751091008, 31.7895156392623], [35.2297770100076, 31.7893949517451], [35.2295953363432, 31.7893580439843], [35.2295694201764, 31.7894861202353], [35.229751091008, 31.7895156392623]]]}, "properties": {"OBJECTID": 4, "darga": "מבנה לשימור דרגה 1", "Shape__Area": 246.34706115722656, "Shape__Length": 63.218664204293454}}, {"type": "Feature", "id": 5, "geometry": {"type": "Polygon", "coordinates": [[[35.229413710986, 31.7894960026261], [35.2294309740019, 31.7894400851862], [35.2294994822317, 31.7894552036588], [35.2295584653748, 31.789192901923], [35.2293186917243, 31.7891485614541], [35.2292962797774, 31.7892575170689], [35.2294309313058, 31.7892817023435], [35.2294191343487, 31.7893331537033], [35.2293907855595, 31.7893250887112], [35.2293531537258, 31.7894861628189], [35.229413710986, 31.7894960026261]]]}, "properties": {"OBJECTID": 5, "darga": "מבנה לשימור דרגה 1", "Shape__Area": 527.1294097900391, "Shape__Length": 123.95835512690722}}, {"type": "Feature", "id": 6, "geometry": {"type": "Polygon", "coordinates": [[[35.2290198865307, 31.7891919989859], [35.2291403543778, 31.7891758345028], [35.2290978044798, 31.7890648732195], [35.2290541087771, 31.789080014558], [35.2290092315579, 31.7890951552081], [35.2290116138278, 31.7891718237309], [35.2290198865307, 31.7891919989859]]]}, "properties": {"OBJECTID": 6, "darga": "מבנה לשימור דרגה 1", "Shape__Area": 123.52145385742188, "Shape__Length": 44.407058815213276}}, {"type": "Feature", "id": 7, "geometry": {"type": "Polygon", "coordinates": [[[35.2287233402106, 31.7888430080359], [35.2286760631302, 31.7887128798109], [35.2286300058458, 31.7887330654438], [35.2286181911488, 31.7887179357264], [35.228581579771, 31.7887270215064], [35.2285874890874, 31.7887421523495], [35.2285402479109, 31.7887532584542], [35.2285969739153, 31.7888803574575], [35.2287233402106, 31.7888430080359]]]}, "properties": {"OBJECTID": 7, "darga": "מבנה לשימור דרגה 1", "Shape__Area": 201.0142364501953, "Shape__Length": 59.794637537353054}}, {"type": "Feature", "id": 8, "geometry": {"type": "Polygon", "coordinates": [[[35.2288713870381, 31.7886685692982], [35.2292751345677, 31.7888729128053], [35.2295345155395, 31.7883704280832], [35.2292102225312, 31.7882710512665], [35.2291866911744, 31.7882681465166], [35.2291634706631, 31.7882707961322], [35.2291464424748, 31.788272650019], [35.2291269380463, 31.788277414621], [35.2291040316785, 31.7882940796542], [35.2288713870381, 31.7886685692982]]]}, "properties": {"OBJECTID": 8, "darga": "מבנה לשימור דרגה 1", "Shape__Area": 2387.141876220703, "Shape__Length": 195.84837850086404}}, {"type": "Feature", "id": 9, "geometry": {"type": "Polygon", "coordinates": [[[35.2305280179147, 31.7890569860531], [35.2305404634073, 31.7890161978058], [35.2305591508589, 31.7890232869342], [35.2305736666439, 31.788962992371], [35.2303587728121, 31.7889133838011], [35.2303764037228, 31.7888539751322], [35.2305539260655, 31.7889018174392], [35.2305860855997, 31.7888282189171], [35.2304293280708, 31.7887927853292], [35.2304625173553, 31.7886899273438], [35.2304978127678, 31.7886952400633], [35.2305133666911, 31.7886358308974], [35.2304251254573, 31.7886145700661], [35.2304012671548, 31.7886775269512], [35.2302652711299, 31.7886420889174], [35.2301874794434, 31.7888708599117], [35.2302518436996, 31.7888841462826], [35.2302456191728, 31.7888983343844], [35.2302871458479, 31.7889133983892], [35.2302995981043, 31.7888965494936], [35.2303515056876, 31.7889107257583], [35.2303224654111, 31.7890011699471], [35.2305280179147, 31.7890569860531]]]}, "properties": {"OBJECTID": 9, "darga": "מבנה לשימור דרגה 1", "Shape__Area": 920.9039001464844, "Shape__Length": 211.31393241206155}}, {"type": "Feature", "id": 10, "geometry": {"type": "Polygon", "coordinates": [[[35.2313594094409, 31.7895982779896], [35.2313837287736, 31.7895608672421], [35.2314113065999, 31.78957471545], [35.231463185159, 31.7894874253109], [35.2314356081575, 31.7894763475647], [35.2314664162412, 31.7894444772257], [35.2313625953694, 31.7893960109608], [35.2313836740216, 31.7893724549564], [35.2313236500475, 31.7893378325227], [35.2313058161886, 31.7893655444095], [35.2312409300587, 31.7893420065716], [35.2312247231755, 31.7893877278379], [35.2311874135861, 31.7893738816377], [35.2311598558152, 31.7894293027636], [35.2311809445157, 31.789440381935], [35.2311582531788, 31.789495802036], [35.2312052950733, 31.7895110314206], [35.2311809740835, 31.7895429003313], [35.2312474855995, 31.7895747501103], [35.231262076314, 31.7895484250442], [35.2313594094409, 31.7895982779896]]]}, "properties": {"OBJECTID": 10, "darga": "מבנה לשימור דרגה 1", "Shape__Area": 541.0432891845703, "Shape__Length": 112.4988696586428}}, {"type": "Feature", "id": 11, "geometry": {"type": "Polygon", "coordinates": [[[35.2309971696601, 31.788860053388], [35.2310189593867, 31.7888272426161], [35.2310646380588, 31.7888396459743], [35.2310822825164, 31.7888290023739], [35.2310968055788, 31.7887953066033], [35.2310988767949, 31.7887793472163], [35.2310916068559, 31.7887669349197], [35.2310614983462, 31.7887527552939], [35.2310853641194, 31.7887172845503], [35.231011653627, 31.7886898137167], [35.230979488133, 31.7887412460347], [35.230918235594, 31.7887173194799], [35.2309618092288, 31.7886277586277], [35.2309026305452, 31.788596738664], [35.2308901807147, 31.7886215670954], [35.2308621509078, 31.7886135934494], [35.2308113153579, 31.7887191147276], [35.2308102812391, 31.7887324143701], [35.2308217065755, 31.7887545783133], [35.2308050989957, 31.7887616756296], [35.2308445481287, 31.7887705334242], [35.2308331354047, 31.788792702109], [35.2309971696601, 31.788860053388]]]}, "properties": {"OBJECTID": 11, "darga": "מבנה לשימור דרגה 1", "Shape__Area": 424.40740966796875, "Shape__Length": 111.80750778162846}}, {"type": "Feature", "id": 12, "geometry": {"type": "Polygon", "coordinates": [[[35.2329227099224, 31.7886155950749], [35.2329326650938, 31.7885832483677], [35.2329466101094, 31.7885605468409], [35.2328157165058, 31.7885157465859], [35.2327685806368, 31.7886241410812], [35.2328529614323, 31.7886462533899], [35.2328728772169, 31.7885991503653], [35.2329227099224, 31.7886155950749]]]}, "properties": {"OBJECTID": 12, "darga": "מבנה לשימור דרגה 1", "Shape__Area": 135.52493286132812, "Shape__Length": 51.700373372817474}}, {"type": "Feature", "id": 13, "geometry": {"type": "Polygon", "coordinates": [[[35.2319098177536, 31.7885527009727], [35.2319326121242, 31.7885052087793], [35.2319468710798, 31.7885149464635], [35.2319611166953, 31.7884832852029], [35.2319197716839, 31.7884686825437], [35.2319468407386, 31.7884126661369], [35.2318926633025, 31.7883919779261], [35.2318655909799, 31.7884370360695], [35.2318327987287, 31.7884236490196], [35.2318128583521, 31.7884820997358], [35.2318385204298, 31.7884881816236], [35.2318214247224, 31.7885259318035], [35.2319098177536, 31.7885527009727]]]}, "properties": {"OBJECTID": 13, "darga": "מבנה לשימור דרגה 1", "Shape__Area": 146.83660888671875, "Shape__Length": 59.46098000062732}}, {"type": "Feature", "id": 14, "geometry": {"type": "Polygon", "coordinates": [[[35.2313665837031, 31.7882301462283], [35.2314221448633, 31.7881083716653], [35.2312924062508, 31.7880621293576], [35.2312411228795, 31.7881899912823], [35.2313665837031, 31.7882301462283]]]}, "properties": {"OBJECTID": 14, "darga": "מבנה לשימור דרגה 1", "Shape__Area": 191.49859619140625, "Shape__Length": 55.48279677879771}}, {"type": "Feature", "id": 15, "geometry": {"type": "Polygon", "coordinates": [[[35.2312996220766, 31.7883653163947], [35.2313095924173, 31.7883360919785], [35.2312283295419, 31.7883154092081], [35.2312382991957, 31.7882837489286], [35.2313209877909, 31.7883056488746], [35.2313437838111, 31.7882593742678], [35.2312083420552, 31.7882119146975], [35.231192671534, 31.7882496644944], [35.2311727121859, 31.7882435812768], [35.2311584677385, 31.7882837657364], [35.2311798531889, 31.7882922845249], [35.2311556299353, 31.7883288186326], [35.2312155073363, 31.7883446351208], [35.2312140851076, 31.7883555936734], [35.2312340448346, 31.7883628952697], [35.2312368942137, 31.7883543713829], [35.2312996220766, 31.7883653163947]]]}, "properties": {"OBJECTID": 15, "darga": "מבנה לשימור דרגה 1", "Shape__Area": 164.62005615234375, "Shape__Length": 76.92920025861315}}, {"type": "Feature", "id": 16, "geometry": {"type": "Polygon", "coordinates": [[[35.2308462633366, 31.7882606960958], [35.2308662153793, 31.7882412095074], [35.2309717209498, 31.788289893178], [35.2310258653029, 31.7881961239106], [35.2309075309405, 31.7881498788253], [35.2308662073976, 31.7882132046832], [35.2308319896479, 31.7881949468356], [35.2308091954662, 31.7882485271537], [35.2308462633366, 31.7882606960958]]]}, "properties": {"OBJECTID": 16, "darga": "מבנה לשימור דרגה 1", "Shape__Area": 163.91818237304688, "Shape__Length": 60.08875363262761}}, {"type": "Feature", "id": 17, "geometry": {"type": "Polygon", "coordinates": [[[35.2308305576563, 31.7881754655932], [35.2308576283234, 31.7881231018653], [35.2308946961637, 31.7881316174413], [35.2309146380861, 31.7880768202176], [35.2308690175862, 31.7880670880408], [35.2308989410609, 31.7880220304149], [35.2308105498646, 31.7879989138935], [35.2308304949273, 31.7879550749349], [35.2307962779721, 31.7879392529457], [35.2307806097507, 31.7879855259798], [35.230733562196, 31.7879697066324], [35.2307178956637, 31.7880220679777], [35.2306808285944, 31.7880123339646], [35.2306608879253, 31.788072001988], [35.2306936764144, 31.7880768660548], [35.2306609047983, 31.7881316658916], [35.2308305576563, 31.7881754655932]]]}, "properties": {"OBJECTID": 17, "darga": "מבנה לשימור דרגה 1", "Shape__Area": 363.5734100341797, "Shape__Length": 97.63589292054829}}, {"type": "Feature", "id": 18, "geometry": {"type": "Polygon", "coordinates": [[[35.2308732590398, 31.7879453252776], [35.2309302575535, 31.7878600787389], [35.2307392036505, 31.7877578380736], [35.2306807844851, 31.7878564780425], [35.2307748839737, 31.7879039458485], [35.2307891337192, 31.7878820254854], [35.230827628213, 31.787899064974], [35.2308133798762, 31.7879222028246], [35.2308732590398, 31.7879453252776]]]}, "properties": {"OBJECTID": 18, "darga": "מבנה לשימור דרגה 1", "Shape__Area": 236.46200561523438, "Shape__Length": 70.85572285022451}}, {"type": "Feature", "id": 19, "geometry": {"type": "Polygon", "coordinates": [[[35.2301063236331, 31.7879905338807], [35.2303557119544, 31.7876897296556], [35.2303115130089, 31.7876653862835], [35.2303300410138, 31.7876507709034], [35.2302758620067, 31.7876215587152], [35.2302601844242, 31.7876349560248], [35.2301062002647, 31.787544882607], [35.2300634483702, 31.7875984668263], [35.2300163987823, 31.7875741239261], [35.2299893241097, 31.7876130933572], [35.2300349483282, 31.7876374365543], [35.2299366178265, 31.7877555666588], [35.2298938440084, 31.7877300044706], [35.229865343521, 31.7877677566764], [35.2299095413951, 31.7877884477525], [35.2298639398403, 31.78784690331], [35.2301063236331, 31.7879905338807]]]}, "properties": {"OBJECTID": 19, "darga": "מבנה לשימור דרגה 1", "Shape__Area": 1210.0787506103516, "Shape__Length": 163.10487705767449}}, {"type": "Feature", "id": 20, "geometry": {"type": "Polygon", "coordinates": [[[35.2306324283044, 31.7873491842399], [35.2306711107985, 31.787303876851], [35.2306824640607, 31.787310877293], [35.2307280612892, 31.7872510785991], [35.2307137648109, 31.7872419251763], [35.2307472325172, 31.7871856614883], [35.2304200333677, 31.7870103380928], [35.2302982649722, 31.7871679170435], [35.2306324283044, 31.7873491842399]]]}, "properties": {"OBJECTID": 20, "darga": "מבנה לשימור דרגה 2", "Shape__Area": 798.6136627197266, "Shape__Length": 119.15828155581256}}, {"type": "Feature", "id": 21, "geometry": {"type": "Polygon", "coordinates": [[[35.2307542480409, 31.7870834833925], [35.2308191655908, 31.7869636533033], [35.2305525626616, 31.7868500548993], [35.2304578716659, 31.786951783814], [35.2304641947256, 31.7869845301263], [35.2305453970463, 31.7870311304736], [35.2306013115327, 31.7869741001547], [35.2306401057386, 31.786988346643], [35.2306207216496, 31.7870291886492], [35.2307542480409, 31.7870834833925]]]}, "properties": {"OBJECTID": 21, "darga": "מבנה לשימור דרגה 2", "Shape__Area": 451.06201171875, "Shape__Length": 101.35645646049745}}, {"type": "Feature", "id": 22, "geometry": {"type": "Polygon", "coordinates": [[[35.230642912929, 31.7861504917419], [35.2306647431715, 31.7860872799844], [35.2307028034789, 31.7860987092593], [35.2306365945877, 31.7862353715116], [35.230705668561, 31.7862612427659], [35.2307402018752, 31.7862630411079], [35.2307719113872, 31.7862443736708], [35.2308930661481, 31.7860228205534], [35.2307929801597, 31.7859837132161], [35.2307732588539, 31.786025855775], [35.2306830396858, 31.7859909597026], [35.2306485265159, 31.7860638057307], [35.2306252674027, 31.7860547813036], [35.2305949854826, 31.786133646226], [35.230642912929, 31.7861504917419]]]}, "properties": {"OBJECTID": 22, "darga": "מבנה לשימור דרגה 2", "Shape__Area": 482.70399475097656, "Shape__Length": 118.79343795201783}}, {"type": "Feature", "id": 23, "geometry": {"type": "Polygon", "coordinates": [[[35.2316858636583, 31.7856058803625], [35.2317026500839, 31.7855520558539], [35.2315724258969, 31.7855377318375], [35.231610206225, 31.7854516097699], [35.231715226963, 31.7854659400607], [35.2317320154583, 31.7854192914876], [35.2314883665568, 31.7853798745425], [35.2314506122615, 31.7855592856053], [35.2316858636583, 31.7856058803625]]]}, "properties": {"OBJECTID": 23, "darga": "מבנה לשימור דרגה 1", "Shape__Area": 367.8716583251953, "Shape__Length": 110.86731417972389}}, {"type": "Feature", "id": 24, "geometry": {"type": "Polygon", "coordinates": [[[35.2284385681833, 31.7849104516078], [35.228497349794, 31.7848027986611], [35.2283881283203, 31.7847848789864], [35.2281948861546, 31.7847310943417], [35.2281571037326, 31.7848243913488], [35.2284385681833, 31.7849104516078]]]}, "properties": {"OBJECTID": 24, "darga": "מבנה לשימור דרגה 1", "Shape__Area": 335.4225769042969, "Shape__Length": 82.21725398244071}}, {"type": "Feature", "id": 25, "geometry": {"type": "Polygon", "coordinates": [[[35.2275089044089, 31.7835367153326], [35.2275314772678, 31.7836215897353], [35.2276343712321, 31.783628193208], [35.2276526675419, 31.7835204361849], [35.2276202443356, 31.7834999748382], [35.2275089044089, 31.7835367153326]]]}, "properties": {"OBJECTID": 25, "darga": "מבנה לשימור דרגה 1", "Shape__Area": 143.080810546875, "Shape__Length": 46.62113726972133}}, {"type": "Feature", "id": 26, "geometry": {"type": "Polygon", "coordinates": [[[35.2283265042658, 31.7834291614026], [35.2283832727165, 31.7833909388431], [35.2283368077931, 31.7833556757127], [35.2283505535557, 31.7832836593731], [35.2283832476679, 31.7832939405098], [35.2283884034311, 31.7832748340508], [35.228360872512, 31.7832660210415], [35.2283660316096, 31.7832557327775], [35.2283436635862, 31.7832513278897], [35.2283849474327, 31.7832160482396], [35.2283298795765, 31.7831749076292], [35.2281664586082, 31.783295451172], [35.2283265042658, 31.7834291614026]]]}, "properties": {"OBJECTID": 26, "darga": "מבנה לשימור דרגה 1", "Shape__Area": 293.0165710449219, "Shape__Length": 86.61393919606364}}, {"type": "Feature", "id": 27, "geometry": {"type": "Polygon", "coordinates": [[[35.2298899457265, 31.78254420302], [35.2299667230541, 31.7824057334703], [35.2300209478063, 31.7822600437685], [35.2298856185471, 31.7821842225433], [35.2298243267644, 31.7822546658358], [35.2298821231664, 31.7822853547323], [35.2298454929511, 31.782343151997], [35.2298708669394, 31.7823563904494], [35.2298123988368, 31.7824485043953], [35.2297489676162, 31.7824292537308], [35.2297193845006, 31.7824828361558], [35.2298899457265, 31.78254420302]]]}, "properties": {"OBJECTID": 27, "darga": "מבנה לשימור דרגה 1", "Shape__Area": 490.4954833984375, "Shape__Length": 117.64492007967515}}, {"type": "Feature", "id": 28, "geometry": {"type": "Polygon", "coordinates": [[[35.2305613474864, 31.7828820044416], [35.2306404515746, 31.7827379606413], [35.2305389302293, 31.7827027087466], [35.2305303125995, 31.7826527422441], [35.2305630094006, 31.782676250115], [35.2305716046875, 31.7826468546635], [35.2305113767357, 31.7826174742491], [35.2305062045087, 31.7825763243314], [35.2304425354216, 31.78254547459], [35.2304339370394, 31.7825601727404], [35.2304098448704, 31.7825440112739], [35.2304304851283, 31.7825204924674], [35.2303926271172, 31.7824984547139], [35.2303479062027, 31.7825469630127], [35.2304029752236, 31.7825866327542], [35.2304167377969, 31.7825807517462], [35.2304511519385, 31.7825954410995], [35.23046664492, 31.7826233616128], [35.2304408470514, 31.7826615787733], [35.2302670571582, 31.7826057668377], [35.2302911349791, 31.7825704891598], [35.2301414337909, 31.7825176121498], [35.2300485880189, 31.7827454294688], [35.2304753192218, 31.7828790820934], [35.2304839151504, 31.782855565746], [35.2305613474864, 31.7828820044416]]]}, "properties": {"OBJECTID": 28, "darga": "מבנה לשימור דרגה 1", "Shape__Area": 1297.7095642089844, "Shape__Length": 216.41780864912408}}, {"type": "Feature", "id": 29, "geometry": {"type": "Polygon", "coordinates": [[[35.2305004908182, 31.7852068500924], [35.2305100692614, 31.7850645909744], [35.2299969205992, 31.7850571711483], [35.2299946468946, 31.7847985094367], [35.2300210698535, 31.7847806332573], [35.2300254707837, 31.7847665230827], [35.2300111535722, 31.7847571206736], [35.2300353738456, 31.7847383034132], [35.2300386644783, 31.7846912735915], [35.2300111297085, 31.7846705864129], [35.2300136742748, 31.7846555504222], [35.2300229034315, 31.7846454001577], [35.2300168454822, 31.7846310242415], [35.2299671857751, 31.7846312362381], [35.2299673045535, 31.78463315533], [35.2299648223015, 31.7846329538164], [35.2299644640482, 31.7846202280222], [35.229618866448, 31.7846160023999], [35.2296098100442, 31.784434249133], [35.2295460150391, 31.7844332751387], [35.2295431968238, 31.7843971461746], [35.2293961763322, 31.7844007626509], [35.2293961869553, 31.7844402316838], [35.2293373777116, 31.7844402432189], [35.2293458886943, 31.7848456917421], [35.2296189307542, 31.7848528138797], [35.229610517036, 31.7848061714741], [35.2298121475614, 31.7848061313795], [35.2298325416285, 31.7850609846116], [35.2298149057532, 31.7850623183482], [35.2298176338662, 31.7852046912948], [35.2305004908182, 31.7852068500924]]]}, "properties": {"OBJECTID": 29, "darga": "מבנה לשימור דרגה 1", "Shape__Area": 3551.4031372070312, "Shape__Length": 415.2609478689111}}, {"type": "Feature", "id": 30, "geometry": {"type": "Polygon", "coordinates": [[[35.230653012925, 31.7845706354692], [35.2306873806427, 31.7844148436062], [35.2305600471353, 31.7843751888714], [35.2304413238213, 31.7843619859256], [35.2304344561151, 31.7844119555888], [35.2305480180892, 31.7844266296006], [35.2305239642757, 31.7845486165372], [35.230653012925, 31.7845706354692]]]}, "properties": {"OBJECTID": 30, "darga": "מבנה לשימור דרגה 1", "Shape__Area": 297.4640808105469, "Shape__Length": 84.39407603927094}}, {"type": "Feature", "id": 31, "geometry": {"type": "Polygon", "coordinates": [[[35.2348665242797, 31.7839106977788], [35.2349872422967, 31.7838316955832], [35.2349207461242, 31.7837575965087], [35.2347698236182, 31.7838581868885], [35.2347865739254, 31.7838746531994], [35.234795704849, 31.7838661989728], [35.2348010353736, 31.7838752999734], [35.2348192522983, 31.78386630698], [35.2348665242797, 31.7839106977788]]]}, "properties": {"OBJECTID": 31, "darga": "מבנה לשימור דרגה 1", "Shape__Area": 161.38011169433594, "Shape__Length": 56.35744099325995}}, {"type": "Feature", "id": 32, "geometry": {"type": "Polygon", "coordinates": [[[35.2348857531357, 31.7840414780431], [35.234725404776, 31.7838761783682], [35.2345742204858, 31.783991176376], [35.2347300292663, 31.7841448516981], [35.2348857531357, 31.7840414780431]]]}, "properties": {"OBJECTID": 32, "darga": "מבנה לשימור דרגה 1", "Shape__Area": 438.30787658691406, "Shape__Length": 84.19978677521105}}, {"type": "Feature", "id": 33, "geometry": {"type": "Polygon", "coordinates": [[[35.2349796555298, 31.7844832174202], [35.2350809664761, 31.7844586503654], [35.2350522006174, 31.7843579046152], [35.2349508912539, 31.7843837630823], [35.2349796555298, 31.7844832174202]]]}, "properties": {"OBJECTID": 33, "darga": "מבנה לשימור דרגה 1", "Shape__Area": 114.12309265136719, "Shape__Length": 42.84760552975692}}, {"type": "Feature", "id": 34, "geometry": {"type": "Polygon", "coordinates": [[[35.2350900251039, 31.7844134389351], [35.2352019226975, 31.7843927444382], [35.2351761922973, 31.7843242910731], [35.2350718583581, 31.7843540246731], [35.2350900251039, 31.7844134389351]]]}, "properties": {"OBJECTID": 34, "darga": "מבנה לשימור דרגה 1", "Shape__Area": 78.4073486328125, "Shape__Length": 36.04253693079362}}, {"type": "Feature", "id": 35, "geometry": {"type": "Polygon", "coordinates": [[[35.2354696609388, 31.7846187274074], [35.2355709740707, 31.7846006189416], [35.235643635337, 31.7848227739483], [35.2356965585687, 31.7848098438924], [35.2356375227592, 31.784632894818], [35.2358915564293, 31.7845759973618], [35.2359369868582, 31.784763282975], [35.2357525084146, 31.784802079711], [35.2357691605305, 31.7848550352661], [35.2358659379352, 31.7848395114557], [35.2358795605986, 31.7848756754825], [35.2359990170088, 31.7848485203402], [35.2360368299411, 31.7848678860809], [35.2360761431766, 31.784856250684], [35.2362938086101, 31.7845771895537], [35.2362590232781, 31.784565572643], [35.2362817014556, 31.7845487747023], [35.2360593645204, 31.7844325766848], [35.23604573217, 31.784367995694], [35.2361077305802, 31.7843576460803], [35.2360668469043, 31.7842000687062], [35.2359867043236, 31.7842155894459], [35.2359776075059, 31.784147131211], [35.2361060848944, 31.7839688442486], [35.2360894455263, 31.7839533484641], [35.2361106071009, 31.7839262176445], [35.2359608763936, 31.7838616695667], [35.235904923188, 31.7838578082191], [35.2358262872749, 31.7838539524484], [35.2357567290523, 31.7838655952234], [35.235670538923, 31.7838837001247], [35.235669040069, 31.7839224516654], [35.2356887046539, 31.7839392390985], [35.2357280720003, 31.7840890665593], [35.2354478632063, 31.7841588059712], [35.2354646507758, 31.784216713543], [35.2354473046729, 31.7842061364839], [35.2354243827201, 31.7841950314013], [35.2353537756132, 31.784209333738], [35.2353931507467, 31.7843394759272], [35.2354816612834, 31.7843223743963], [35.2355400653486, 31.7843107381086], [35.2355401330335, 31.784311077184], [35.2358377638913, 31.7842535703384], [35.2358803418878, 31.7843928210722], [35.2355708330429, 31.7844635374722], [35.2355401330335, 31.784311077184], [35.2354816612834, 31.7843223743963], [35.2353931667607, 31.7843400062053], [35.2354696609388, 31.7846187274074]]]}, "properties": {"OBJECTID": 35, "darga": "מבנה לשימור דרגה 1", "Shape__Area": 4893.789077758789, "Shape__Length": 589.5029805840845}}, {"type": "Feature", "id": 36, "geometry": {"type": "Polygon", "coordinates": [[[35.2333019933996, 31.7856778178729], [35.2334442051406, 31.7856664322407], [35.2334415181857, 31.7855722041028], [35.2332966466327, 31.7855790486698], [35.2333019933996, 31.7856778178729]]]}, "properties": {"OBJECTID": 36, "darga": "מבנה לשימור דרגה 1", "Shape__Area": 145.85728454589844, "Shape__Length": 48.685872335396965}}, {"type": "Feature", "id": 37, "geometry": {"type": "Polygon", "coordinates": [[[35.2338468919225, 31.7855516761808], [35.2338176234399, 31.7854642657931], [35.2337551612554, 31.7854835804907], [35.2337405266924, 31.7854370371964], [35.2336740738383, 31.7854472694415], [35.233712657844, 31.7855721419547], [35.2338468919225, 31.7855516761808]]]}, "properties": {"OBJECTID": 37, "darga": "מבנה לשימור דרגה 1", "Shape__Area": 152.33799743652344, "Shape__Length": 55.34737980673455}}, {"type": "Feature", "id": 38, "geometry": {"type": "Polygon", "coordinates": [[[35.2336461426845, 31.7853848351648], [35.2336474587251, 31.7853428298597], [35.2336580932434, 31.7853473681804], [35.2336381152333, 31.7852168151928], [35.2335145136007, 31.7852338729682], [35.2335344896726, 31.7853621551422], [35.2335637304063, 31.7853621484463], [35.2335677267682, 31.7853893948232], [35.2336461426845, 31.7853848351648]]]}, "properties": {"OBJECTID": 38, "darga": "מבנה לשימור דרגה 1", "Shape__Area": 200.18077087402344, "Shape__Length": 59.851731150956184}}, {"type": "Feature", "id": 39, "geometry": {"type": "Polygon", "coordinates": [[[35.2344457306913, 31.7861866137383], [35.2345112168279, 31.7861437302065], [35.2344771567456, 31.786038384418], [35.2344278233071, 31.7860507476645], [35.2344184605194, 31.7860318590319], [35.2343419067344, 31.7860435017784], [35.2343504221497, 31.7860703836232], [35.234296834895, 31.7860798411897], [35.2343547385045, 31.7862672858232], [35.2344193718683, 31.7862185901816], [35.2343887215779, 31.7861343132524], [35.2344312497113, 31.7861234044909], [35.2344457306913, 31.7861866137383]]]}, "properties": {"OBJECTID": 39, "darga": "מבנה לשימור דרגה 1", "Shape__Area": 281.17906188964844, "Shape__Length": 93.50486184284618}}, {"type": "Feature", "id": 40, "geometry": {"type": "Polygon", "coordinates": [[[35.2342424809216, 31.7863515963422], [35.2342986127795, 31.7863188869654], [35.2342237210653, 31.786207010553], [35.2341123045405, 31.7862637100309], [35.2341591129846, 31.7863349038648], [35.2342152455616, 31.7863043742715], [35.2342424809216, 31.7863515963422]]]}, "properties": {"OBJECTID": 40, "darga": "מבנה לשימור דרגה 1", "Shape__Area": 144.7943572998047, "Shape__Length": 54.20317783409002}}, {"type": "Feature", "id": 41, "geometry": {"type": "Polygon", "coordinates": [[[35.233508573828, 31.7864371831457], [35.2336267114304, 31.7864380858726], [35.2336272654557, 31.7864673811116], [35.2336833412169, 31.7864701585164], [35.2336577154941, 31.7863501917488], [35.2336206964868, 31.786351130049], [35.2336234353748, 31.7864050711689], [35.2335700828847, 31.7864064776507], [35.2335733300321, 31.786344165182], [35.2335118102308, 31.786340459177], [35.233508573828, 31.7864371831457]]]}, "properties": {"OBJECTID": 41, "darga": "מבנה לשימור דרגה 1", "Shape__Area": 136.88790893554688, "Shape__Length": 71.31764118908825}}, {"type": "Feature", "id": 42, "geometry": {"type": "Polygon", "coordinates": [[[35.2328503417726, 31.7864885122808], [35.2330683232727, 31.7865020865668], [35.2330829268112, 31.7864487250194], [35.2330337475459, 31.7864419244951], [35.2330563064696, 31.7863261204725], [35.2328755389636, 31.7863057253475], [35.2328503417726, 31.7864885122808]]]}, "properties": {"OBJECTID": 42, "darga": "מבנה לשימור דרגה 1", "Shape__Area": 362.91522216796875, "Shape__Length": 82.19076744363812}}, {"type": "Feature", "id": 43, "geometry": {"type": "Polygon", "coordinates": [[[35.2325632931732, 31.7866304869289], [35.2327639935612, 31.7866383884759], [35.2327706014968, 31.786512371117], [35.2327174340205, 31.786504435943], [35.2327134402826, 31.7864851365565], [35.2326363516401, 31.7864862890965], [35.2326297100499, 31.7865021845954], [35.232583188647, 31.7864965187241], [35.2325632931732, 31.7866304869289]]]}, "properties": {"OBJECTID": 43, "darga": "מבנה לשימור דרגה 1", "Shape__Area": 283.14031982421875, "Shape__Length": 68.90006984169649}}, {"type": "Feature", "id": 44, "geometry": {"type": "Polygon", "coordinates": [[[35.2324487143832, 31.7871359853253], [35.2326503211586, 31.7871453866104], [35.232663887896, 31.78700079343], [35.2326468755063, 31.7870015240892], [35.232629006153, 31.7869826372152], [35.232616246654, 31.7869833660253], [35.2325975327084, 31.786985549919], [35.232583075793, 31.7869979056204], [35.2325345877499, 31.7869942828344], [35.2325235236921, 31.7869768473051], [35.2325124638175, 31.7869732171376], [35.2324963024315, 31.7869739475887], [35.2324784419012, 31.7869841233809], [35.2324282525277, 31.7869826815783], [35.2324180703998, 31.7870676939441], [35.2324563504715, 31.7870705912401], [35.2324487143832, 31.7871359853253]]]}, "properties": {"OBJECTID": 44, "darga": "מבנה לשימור דרגה 1", "Shape__Area": 356.7057342529297, "Shape__Length": 81.10688337365974}}, {"type": "Feature", "id": 45, "geometry": {"type": "Polygon", "coordinates": [[[35.2329463270696, 31.7870799281689], [35.2329582163627, 31.787016712846], [35.2329343989148, 31.7870167181874], [35.2329369336679, 31.7869607710857], [35.2327940219546, 31.7869513571747], [35.2327914895593, 31.7870152972792], [35.2327634170567, 31.787011670025], [35.2327625826995, 31.7870661638801], [35.2329463270696, 31.7870799281689]]]}, "properties": {"OBJECTID": 45, "darga": "מבנה לשימור דרגה 1", "Shape__Area": 204.57899475097656, "Shape__Length": 62.43494909543183}}, {"type": "Feature", "id": 46, "geometry": {"type": "Polygon", "coordinates": [[[35.2313935748438, 31.7863469187282], [35.2314374101013, 31.7862583577653], [35.2312898590435, 31.7861970837481], [35.2312460236742, 31.7862856446611], [35.231156963542, 31.7862550107771], [35.2310413920238, 31.7864718743034], [35.2311450733255, 31.7865059114451], [35.2310999080604, 31.7865933371667], [35.2312514438012, 31.7866455290322], [35.2312859803928, 31.7865705923778], [35.2311424203138, 31.7865252113756], [35.2312579881216, 31.7862924537339], [35.2313935748438, 31.7863469187282]]]}, "properties": {"OBJECTID": 46, "darga": "מבנה לשימור דרגה 1", "Shape__Area": 584.7021484375, "Shape__Length": 174.62163932297918}}, {"type": "Feature", "id": 47, "geometry": {"type": "Polygon", "coordinates": [[[35.2278874592525, 31.788147606817], [35.2281428987751, 31.7881191776266], [35.2281345791513, 31.7880712842781], [35.228111732958, 31.7880677406992], [35.2281158771323, 31.7880304885381], [35.2279891969087, 31.7880464764455], [35.2279683960537, 31.7879187608634], [35.228105459101, 31.7878939014498], [35.2280492896898, 31.7875178492505], [35.2278146190616, 31.7875462744363], [35.2278770512519, 31.7880535928554], [35.227796058239, 31.7880607034439], [35.2278874592525, 31.788147606817]]]}, "properties": {"OBJECTID": 47, "darga": "מבנה לשימור דרגה 1", "Shape__Area": 1399.6832427978516, "Shape__Length": 217.52511145873635}}, {"type": "Feature", "id": 48, "geometry": {"type": "Polygon", "coordinates": [[[35.2286351371434, 31.7882592208096], [35.2286870549802, 31.7882503422223], [35.2286579467942, 31.7881226283422], [35.2288614667603, 31.7881013023676], [35.2288905762751, 31.7882290162013], [35.2288760392756, 31.7882325668348], [35.2288885083158, 31.7882627201498], [35.2287867765272, 31.7883833643387], [35.2288428588605, 31.788415283212], [35.2290089520226, 31.7882236716131], [35.2289507358007, 31.7879717918271], [35.2289964229208, 31.7879629134132], [35.2289881033408, 31.7879167940381], [35.2291480112443, 31.7878954769244], [35.2291500956494, 31.7879238583155], [35.2292248564939, 31.7879114272274], [35.2292206923811, 31.7878724027311], [35.2293743682051, 31.7878457638904], [35.2293535841845, 31.7877836826173], [35.2292933597957, 31.7877943370203], [35.2292871183468, 31.7877535390132], [35.2292497377575, 31.7877588680727], [35.2292559748109, 31.7877872495537], [35.2290960695898, 31.7878138885587], [35.2290898310562, 31.7877837340535], [35.2290275288579, 31.7877908408965], [35.2290192120998, 31.7877553650337], [35.2289278371221, 31.7877695740247], [35.2289028885106, 31.7876649194307], [35.2288509714889, 31.7876755729271], [35.2288301718662, 31.7875567270721], [35.2287782548966, 31.7875673805389], [35.2287699401157, 31.7875389994314], [35.2287159449229, 31.7875443315145], [35.2287013956169, 31.7874964393887], [35.2284667252433, 31.7875248666781], [35.2285977313511, 31.7881687607856], [35.2286351371434, 31.7882592208096]]]}, "properties": {"OBJECTID": 48, "darga": "מבנה לשימור דרגה 1", "Shape__Area": 3331.687255859375, "Shape__Length": 407.18488574429915}}, {"type": "Feature", "id": 49, "geometry": {"type": "Polygon", "coordinates": [[[35.2280616478505, 31.7871184401599], [35.2280696172446, 31.7870934622251], [35.2281134792162, 31.7870957239914], [35.2281121136856, 31.7869538143417], [35.227937998919, 31.7869629290891], [35.2279446641812, 31.7870412625637], [35.2279659310345, 31.7870423931424], [35.227967273869, 31.7870957511472], [35.2280297435426, 31.7870968749811], [35.2280310780362, 31.787117310423], [35.2280616478505, 31.7871184401599]]]}, "properties": {"OBJECTID": 49, "darga": "מבנה לשימור דרגה 1", "Shape__Area": 241.20089721679688, "Shape__Length": 67.02072493944378}}, {"type": "Feature", "id": 50, "geometry": {"type": "Polygon", "coordinates": [[[35.2278263330847, 31.7868914265785], [35.2280602594453, 31.7868823008792], [35.2280602368827, 31.7867937492306], [35.227904731206, 31.7868062658192], [35.2278980616853, 31.7867109028984], [35.2278223027437, 31.7867188638752], [35.2278263330847, 31.7868914265785]]]}, "properties": {"OBJECTID": 50, "darga": "מבנה לשימור דרגה 1", "Shape__Area": 284.21876525878906, "Shape__Length": 83.75217109006007}}, {"type": "Feature", "id": 51, "geometry": {"type": "Polygon", "coordinates": [[[35.2360352540404, 31.7874232345042], [35.2360259438265, 31.7874050719619], [35.2360604989092, 31.7873948464299], [35.2360365527857, 31.7873335471224], [35.2359687732898, 31.7873517279037], [35.2359727535628, 31.7873324275463], [35.2358358591729, 31.7873540316294], [35.2358305372785, 31.7873370035039], [35.2357919930559, 31.7873404192638], [35.2357946666164, 31.787384694426], [35.2357640970999, 31.7873881082104], [35.2357840593836, 31.7874618963255], [35.2360352540404, 31.7874232345042]]]}, "properties": {"OBJECTID": 51, "darga": "מבנה לשימור דרגה 1", "Shape__Area": 276.3338165283203, "Shape__Length": 80.94642573515934}}, {"type": "Feature", "id": 52, "geometry": {"type": "Polygon", "coordinates": [[[35.2285058221891, 31.7861270409104], [35.228728055511, 31.7862068231849], [35.228779953098, 31.7861252147787], [35.2287571070188, 31.7861163495569], [35.2287778683807, 31.7860950585525], [35.2287508701048, 31.7860915158822], [35.2287612474651, 31.7860702277684], [35.2286636307278, 31.786034768933], [35.2287217516972, 31.7859265505739], [35.2286116715776, 31.7858804505635], [35.2285058221891, 31.7861270409104]]]}, "properties": {"OBJECTID": 52, "darga": "מבנה לשימור דרגה 1", "Shape__Area": 498.29840087890625, "Shape__Length": 107.7067866953772}}, {"type": "Feature", "id": 53, "geometry": {"type": "Polygon", "coordinates": [[[35.2287695188194, 31.7859336371141], [35.2288317913239, 31.7858183231331], [35.2287985622787, 31.7858130077494], [35.2288172458375, 31.7857881701992], [35.2287881689926, 31.7857775322584], [35.228831765656, 31.7857207593836], [35.2288816122785, 31.7857384889984], [35.228906524422, 31.7857030067211], [35.2287486765636, 31.7856462724998], [35.2286843203204, 31.785734978954], [35.2287341697113, 31.7857633512396], [35.2287237927173, 31.7857899620116], [35.2286594094737, 31.7857757829451], [35.2286448845567, 31.7858201327916], [35.2286926548664, 31.785839635893], [35.2286573633915, 31.7858893114598], [35.2287695188194, 31.7859336371141]]]}, "properties": {"OBJECTID": 53, "darga": "מבנה לשימור דרגה 1", "Shape__Area": 360.67950439453125, "Shape__Length": 111.92483558465312}}, {"type": "Feature", "id": 54, "geometry": {"type": "Polygon", "coordinates": [[[35.2276088978881, 31.7837455931098], [35.2278242227762, 31.7837909658322], [35.2278667103334, 31.7836206653108], [35.2277098681594, 31.7835832289789], [35.2276806316841, 31.7835979938479], [35.2276500610431, 31.7835889170021], [35.2276088978881, 31.7837455931098]]]}, "properties": {"OBJECTID": 54, "darga": "מבנה לשימור דרגה 2", "Shape__Area": 400.47315979003906, "Shape__Length": 79.82556736685143}}, {"type": "Feature", "id": 55, "geometry": {"type": "Polygon", "coordinates": [[[35.2276686418791, 31.7834833315556], [35.2278161960627, 31.7835877511303], [35.2279424301958, 31.7834685225941], [35.2277802529941, 31.7833584296675], [35.2276686418791, 31.7834833315556]]]}, "properties": {"OBJECTID": 55, "darga": "מבנה לשימור דרגה 2", "Shape__Area": 332.4973449707031, "Shape__Length": 73.01806907477473}}, {"type": "Feature", "id": 56, "geometry": {"type": "Polygon", "coordinates": [[[35.2278068310971, 31.7833402608168], [35.2279490716037, 31.7834537627489], [35.2280646787022, 31.7833629187734], [35.2280806109667, 31.7832982042576], [35.2279330629876, 31.7832176269366], [35.2278068310971, 31.7833402608168]]]}, "properties": {"OBJECTID": 56, "darga": "מבנה לשימור דרגה 2", "Shape__Area": 374.71156311035156, "Shape__Length": 75.34176130205034}}, {"type": "Feature", "id": 57, "geometry": {"type": "Polygon", "coordinates": [[[35.2280315371519, 31.7836978341478], [35.2280807027312, 31.7836580899277], [35.2281152574001, 31.7836524064097], [35.228099291493, 31.7835854279017], [35.2280713776665, 31.7835740807303], [35.2281378161616, 31.7835104922238], [35.2280128599873, 31.7834230982811], [35.2279610384213, 31.7834764661678], [35.2279929407948, 31.7834912188751], [35.2279743522568, 31.7835650163036], [35.2279903010562, 31.7835650133487], [35.2279770337989, 31.7836558383386], [35.2280275404646, 31.7836626405729], [35.2280315371519, 31.7836978341478]]]}, "properties": {"OBJECTID": 57, "darga": "מבנה לשימור דרגה 2", "Shape__Area": 281.95985412597656, "Shape__Length": 84.91685983784667}}, {"type": "Feature", "id": 58, "geometry": {"type": "Polygon", "coordinates": [[[35.2283252501325, 31.7836387439125], [35.2283558157618, 31.7836239795474], [35.2283770897518, 31.783655763608], [35.2284515117326, 31.7836319085177], [35.2284448624556, 31.7836160157407], [35.2284913750971, 31.7835944367298], [35.2284794056072, 31.7835660571789], [35.2285166154597, 31.7835478852672], [35.228464754868, 31.7834457192817], [35.2284155832255, 31.783465028853], [35.2284009572298, 31.7834400551443], [35.2282468001536, 31.7835059301848], [35.2283252501325, 31.7836387439125]]]}, "properties": {"OBJECTID": 58, "darga": "מבנה לשימור דרגה 2", "Shape__Area": 376.1706237792969, "Shape__Length": 82.59534053425925}}, {"type": "Feature", "id": 59, "geometry": {"type": "Polygon", "coordinates": [[[35.2282020525981, 31.7829459254688], [35.228288837912, 31.7830352788865], [35.2284351164995, 31.7829349829329], [35.2283661828894, 31.7828027581721], [35.2282981438107, 31.7828390998013], [35.2282020525981, 31.7829459254688]]]}, "properties": {"OBJECTID": 59, "darga": "מבנה לשימור דרגה 2", "Shape__Area": 299.9635925292969, "Shape__Length": 69.22852146451399}}, {"type": "Feature", "id": 60, "geometry": {"type": "Polygon", "coordinates": [[[35.2284436223966, 31.7829328015783], [35.2287327896206, 31.7827808911362], [35.2286757656812, 31.7826515699925], [35.2283704358917, 31.7827998507397], [35.2284436223966, 31.7829328015783]]]}, "properties": {"OBJECTID": 60, "darga": "מבנה לשימור דרגה 2", "Shape__Area": 512.0209045410156, "Shape__Length": 97.03482398464874}}, {"type": "Feature", "id": 61, "geometry": {"type": "Polygon", "coordinates": [[[35.229179987533, 31.7824552666239], [35.2292039698753, 31.7825631455175], [35.2293128376831, 31.7825273175843], [35.2293046666069, 31.7825101138714], [35.2293454921233, 31.7824966206571], [35.2293482170475, 31.7825082457482], [35.2293982966495, 31.782491495059], [35.2293552606394, 31.7823803660974], [35.229179987533, 31.7824552666239]]]}, "properties": {"OBJECTID": 61, "darga": "מבנה לשימור דרגה 2", "Shape__Area": 234.1197052001953, "Shape__Length": 67.3818815036441}}, {"type": "Feature", "id": 62, "geometry": {"type": "Polygon", "coordinates": [[[35.2293819332668, 31.782374314927], [35.2294189813512, 31.782483121014], [35.2294505528758, 31.7824733496764], [35.2294609013708, 31.7824919480986], [35.2296149462586, 31.7824305357111], [35.2296045960992, 31.7824058922651], [35.2296432438779, 31.7823900744417], [35.2295817005001, 31.7822891788001], [35.2293819332668, 31.782374314927]]]}, "properties": {"OBJECTID": 62, "darga": "מבנה לשימור דרגה 2", "Shape__Area": 324.6053466796875, "Shape__Length": 74.85332629865033}}, {"type": "Feature", "id": 63, "geometry": {"type": "Polygon", "coordinates": [[[35.2297990402829, 31.7827620535294], [35.2298545328437, 31.7826332334805], [35.2297750452957, 31.7826067442607], [35.2297239104072, 31.7827453276348], [35.2297990402829, 31.7827620535294]]]}, "properties": {"OBJECTID": 63, "darga": "מבנה לשימור דרגה 2", "Shape__Area": 120.6566162109375, "Shape__Length": 46.767597282730826}}, {"type": "Feature", "id": 64, "geometry": {"type": "Polygon", "coordinates": [[[35.2294126412262, 31.7834429825361], [35.229452073942, 31.7833489588305], [35.2293814615868, 31.783333007429], [35.2295578965171, 31.7830243178223], [35.2293896683087, 31.7829604907415], [35.2292485188527, 31.7832035400008], [35.2291882903187, 31.7831875873662], [35.2291281052568, 31.7833348308198], [35.2294126412262, 31.7834429825361]]]}, "properties": {"OBJECTID": 64, "darga": "מבנה לשימור דרגה 2", "Shape__Area": 1007.3897399902344, "Shape__Length": 156.36608999353052}}, {"type": "Feature", "id": 65, "geometry": {"type": "Polygon", "coordinates": [[[35.2296929350895, 31.7832194177493], [35.2299068569843, 31.783304521416], [35.2299504465165, 31.7832246880807], [35.2297240637893, 31.7831413608858], [35.2296929350895, 31.7832194177493]]]}, "properties": {"OBJECTID": 65, "darga": "מבנה לשימור דרגה 2", "Shape__Area": 215.5763702392578, "Shape__Length": 64.61103832291232}}, {"type": "Feature", "id": 66, "geometry": {"type": "Polygon", "coordinates": [[[35.2299961766722, 31.783380780239], [35.2302329418903, 31.7834605570005], [35.2302889846627, 31.7833594348865], [35.2302578325908, 31.7833558933787], [35.2304218028309, 31.7830383346067], [35.2305381086808, 31.7830773361157], [35.2305899959288, 31.7829708929565], [35.2303781533231, 31.7828982074487], [35.230338716351, 31.7829691704882], [35.2302743333338, 31.7829496704712], [35.2301062151636, 31.7832885160328], [35.2300480632406, 31.7832690155458], [35.2299961766722, 31.783380780239]]]}, "properties": {"OBJECTID": 66, "darga": "מבנה לשימור דרגה 2", "Shape__Area": 1236.5265655517578, "Shape__Length": 199.45446871459603}}, {"type": "Feature", "id": 67, "geometry": {"type": "Polygon", "coordinates": [[[35.2313992692663, 31.7836824490451], [35.231430844373, 31.7836843019387], [35.2314302918696, 31.7836577969705], [35.231517937984, 31.7836521977415], [35.2315174033471, 31.7836833537311], [35.2315484331233, 31.7836833471171], [35.2315479035255, 31.7837317084142], [35.2315647790684, 31.7837307750167], [35.2315560945994, 31.7838191292575], [35.2315686161946, 31.783818661236], [35.2315675296064, 31.7838288919437], [35.2315871286073, 31.7838298175566], [35.2316007138066, 31.7837442525605], [35.2316328325362, 31.78374564084], [35.2316333700995, 31.7837209952344], [35.2316834554065, 31.7837228441039], [35.2316872456843, 31.7836544865048], [35.2317732592905, 31.7836516786456], [35.2317737943489, 31.7836186621581], [35.2316093885541, 31.7836228828471], [35.2316099243858, 31.7835959113954], [35.2315963156266, 31.7835973094505], [35.2315848799976, 31.7835889419136], [35.2315963127672, 31.7835875443246], [35.2315952181514, 31.7835703392495], [35.2315832390649, 31.7835629016259], [35.2315690856572, 31.7835647642422], [35.2315353315377, 31.7835596562039], [35.2315222741202, 31.7835870947718], [35.2315271826103, 31.7836163900073], [35.2313622364735, 31.7836359553046], [35.2313998074575, 31.7836633831259], [35.2313992692663, 31.7836824490451]]]}, "properties": {"OBJECTID": 67, "darga": "מבנה לשימור דרגה 2", "Shape__Area": 341.82240295410156, "Shape__Length": 140.58120128619274}}, {"type": "Feature", "id": 68, "geometry": {"type": "Polygon", "coordinates": [[[35.2328883271595, 31.7846641022193], [35.2330212371479, 31.7846640724049], [35.2330185380518, 31.7845323800027], [35.2328789851144, 31.7845392228993], [35.2328883271595, 31.7846641022193]]]}, "properties": {"OBJECTID": 68, "darga": "מבנה לשימור דרגה 2", "Shape__Area": 183.76260375976562, "Shape__Length": 54.30824285754791}}, {"type": "Feature", "id": 69, "geometry": {"type": "Polygon", "coordinates": [[[35.2332378925363, 31.7847014877495], [35.2332325427228, 31.7845925015823], [35.2331434948016, 31.7846016041526], [35.2331568193616, 31.7847083176887], [35.2332378925363, 31.7847014877495]]]}, "properties": {"OBJECTID": 69, "darga": "מבנה לשימור דרגה 2", "Shape__Area": 97.12739562988281, "Shape__Length": 40.20583007126172}}, {"type": "Feature", "id": 70, "geometry": {"type": "Polygon", "coordinates": [[[35.2330532209339, 31.7849422098323], [35.2330465494158, 31.7848570650037], [35.2328976904792, 31.7848582338329], [35.2328910737768, 31.7849547340072], [35.2330532209339, 31.7849422098323]]]}, "properties": {"OBJECTID": 70, "darga": "מבנה לשימור דרגה 2", "Shape__Area": 148.3282470703125, "Shape__Length": 49.70101587592142}}, {"type": "Feature", "id": 71, "geometry": {"type": "Polygon", "coordinates": [[[35.2338599970608, 31.7849670012349], [35.2338570705396, 31.7849509230054], [35.233857615189, 31.7849504575299], [35.2338674141436, 31.7849504552619], [35.2338603295395, 31.7849267412131], [35.2338481015511, 31.784931264065], [35.2338439143824, 31.7848818306693], [35.2338501704572, 31.7848864727967], [35.2338460235131, 31.7848406945493], [35.2338333138314, 31.7848410780652], [35.233826833859, 31.7847995579433], [35.2338054197267, 31.7847753728347], [35.2337973948446, 31.7847829934334], [35.2337961362465, 31.7847660706945], [35.2335529137907, 31.7847774798942], [35.233558247582, 31.784830836944], [35.233588818494, 31.784837641536], [35.2336008254027, 31.7849795496327], [35.2337496816337, 31.7849658922026], [35.2337603179292, 31.784979512946], [35.2338599970608, 31.7849670012349]]]}, "properties": {"OBJECTID": 71, "darga": "מבנה לשימור דרגה 2", "Shape__Area": 548.4317321777344, "Shape__Length": 103.69722002866162}}, {"type": "Feature", "id": 72, "geometry": {"type": "Polygon", "coordinates": [[[35.2325620374329, 31.7852818396848], [35.2326496844448, 31.7852743800834], [35.2326485838806, 31.7852348544824], [35.232664917717, 31.785243220834], [35.2326567465541, 31.7852250875467], [35.2326447671693, 31.785217650025], [35.2326463862248, 31.7851706836396], [35.2325445842673, 31.7851753560762], [35.2325478703943, 31.78523952668], [35.2325614772646, 31.785231153693], [35.2325620374329, 31.7852818396848]]]}, "properties": {"OBJECTID": 72, "darga": "מבנה לשימור דרגה 2", "Shape__Area": 106.73184204101562, "Shape__Length": 47.28484400838592}}, {"type": "Feature", "id": 73, "geometry": {"type": "Polygon", "coordinates": [[[35.2338642082954, 31.7860008029045], [35.2338641824043, 31.785919193611], [35.2336988235877, 31.785933879463], [35.2336780257225, 31.7860165405839], [35.2338642082954, 31.7860008029045]]]}, "properties": {"OBJECTID": 73, "darga": "מבנה לשימור דרגה 2", "Shape__Area": 149.9608154296875, "Shape__Length": 51.890466959130464}}, {"type": "Feature", "id": 74, "geometry": {"type": "Polygon", "coordinates": [[[35.2308885956632, 31.7850043546225], [35.2309878145139, 31.7850127039145], [35.2309792259176, 31.7849624840376], [35.2310392260954, 31.7848913244282], [35.2309228444455, 31.7848358963871], [35.2308959024621, 31.784854735125], [35.2308885956632, 31.7850043546225]]]}, "properties": {"OBJECTID": 74, "darga": "מבנה לשימור דרגה 2", "Shape__Area": 179.8271942138672, "Shape__Length": 57.317879246546966}}, {"type": "Feature", "id": 75, "geometry": {"type": "Polygon", "coordinates": [[[35.2313479924189, 31.7852030508006], [35.231459410884, 31.7850356222004], [35.2312229728022, 31.7849289520946], [35.231192338682, 31.7848892000238], [35.2311249653568, 31.7848777049035], [35.231046578873, 31.7849028321725], [35.2310061692711, 31.7849446923185], [35.230992701041, 31.7849656205285], [35.2309927127249, 31.7850064251825], [35.2309988419661, 31.7850221177229], [35.230981693518, 31.7850221213052], [35.2309964002798, 31.7850493213372], [35.2310503045791, 31.7850786063376], [35.2310956252034, 31.7850785968409], [35.2313479924189, 31.7852030508006]]]}, "properties": {"OBJECTID": 75, "darga": "מבנה לשימור דרגה 2", "Shape__Area": 873.6969909667969, "Shape__Length": 124.30804420963734}}, {"type": "Feature", "id": 76, "geometry": {"type": "Polygon", "coordinates": [[[35.2285650169713, 31.7852674327824], [35.2285797080815, 31.7852370875839], [35.2286568841658, 31.7852632298685], [35.2287021799652, 31.7851680094641], [35.2285539562644, 31.7851293261931], [35.2285062163121, 31.7852496569409], [35.2285650169713, 31.7852674327824]]]}, "properties": {"OBJECTID": 76, "darga": "מבנה לשימור דרגה 2", "Shape__Area": 177.47946166992188, "Shape__Length": 57.576785089024185}}, {"type": "Feature", "id": 77, "geometry": {"type": "Polygon", "coordinates": [[[35.2288501599763, 31.7851428306088], [35.2288732642085, 31.785082485853], [35.2287518794418, 31.7850526131354], [35.2287249224877, 31.7851129586058], [35.2288501599763, 31.7851428306088]]]}, "properties": {"OBJECTID": 77, "darga": "מבנה לשימור דרגה 2", "Shape__Area": 86.00286865234375, "Shape__Length": 38.48201684690585}}, {"type": "Feature", "id": 78, "geometry": {"type": "Polygon", "coordinates": [[[35.2287717032032, 31.7849717151873], [35.2287959813487, 31.7848786334234], [35.2286039079015, 31.7848465285106], [35.2285796292327, 31.7849342524065], [35.2287717032032, 31.7849717151873]]]}, "properties": {"OBJECTID": 78, "darga": "מבנה לשימור דרגה 2", "Shape__Area": 191.23171997070312, "Shape__Length": 57.76720177842169}}, {"type": "Feature", "id": 79, "geometry": {"type": "Polygon", "coordinates": [[[35.2280692149819, 31.7840861099564], [35.2281516817789, 31.7841128377645], [35.2281803271418, 31.7840446569026], [35.228215606356, 31.7840559503646], [35.2282041469491, 31.7840774217166], [35.2282213469713, 31.7840857055085], [35.2281962228735, 31.7841297786302], [35.2282354737627, 31.7841482283479], [35.2283112836031, 31.7840099791583], [35.2282310210662, 31.7839821219365], [35.2282195628312, 31.7840081133132], [35.2281146052252, 31.783971973627], [35.2280692149819, 31.7840861099564]]]}, "properties": {"OBJECTID": 79, "darga": "מבנה לשימור דרגה 2", "Shape__Area": 228.09262084960938, "Shape__Length": 86.4184848027918}}, {"type": "Feature", "id": 80, "geometry": {"type": "Polygon", "coordinates": [[[35.2283029587934, 31.7842197812222], [35.2283130976056, 31.7842073492544], [35.2283792489144, 31.7842325730037], [35.2284286162687, 31.7841519581182], [35.2283121907003, 31.7841090407254], [35.2282623862898, 31.7842024617791], [35.2283029587934, 31.7842197812222]]]}, "properties": {"OBJECTID": 80, "darga": "מבנה לשימור דרגה 2", "Shape__Area": 124.16806030273438, "Shape__Length": 46.31817311014353}}, {"type": "Feature", "id": 81, "geometry": {"type": "Polygon", "coordinates": [[[35.2284454190811, 31.7843304922489], [35.2284542369189, 31.7843255935906], [35.2284859936282, 31.7843553438022], [35.2285865099216, 31.7842653030545], [35.2284630164013, 31.784172667791], [35.2284414226328, 31.7842235212294], [35.2284277496028, 31.7842137307285], [35.2284074751205, 31.7842506468735], [35.2284233548084, 31.7842687239696], [35.2283938161859, 31.7842913287545], [35.2284454190811, 31.7843304922489]]]}, "properties": {"OBJECTID": 81, "darga": "מבנה לשימור דרגה 2", "Shape__Area": 186.6874542236328, "Shape__Length": 59.83294648110982}}, {"type": "Feature", "id": 82, "geometry": {"type": "Polygon", "coordinates": [[[35.2284472291304, 31.7845196240239], [35.2286222594414, 31.784597697408], [35.2286918692954, 31.7844792310454], [35.2285107836068, 31.784403227724], [35.2284472291304, 31.7845196240239]]]}, "properties": {"OBJECTID": 82, "darga": "מבנה לשימור דרגה 2", "Shape__Area": 273.4710388183594, "Shape__Length": 66.75140778848086}}, {"type": "Feature", "id": 83, "geometry": {"type": "Polygon", "coordinates": [[[35.2279203368073, 31.7843443695757], [35.2280450957996, 31.78438676271], [35.2280765689965, 31.7843236505928], [35.22806506235, 31.7843215830094], [35.2281050121346, 31.7842486419556], [35.2279899431623, 31.7842093512174], [35.2279203368073, 31.7843443695757]]]}, "properties": {"OBJECTID": 83, "darga": "מבנה לשימור דרגה 2", "Shape__Area": 197.90142822265625, "Shape__Length": 58.462875637540954}}, {"type": "Feature", "id": 84, "geometry": {"type": "Polygon", "coordinates": [[[35.2279005875514, 31.7845218274122], [35.2280604998422, 31.7845355373217], [35.2280642696573, 31.7844757283851], [35.2279062482394, 31.7844571680346], [35.2279005875514, 31.7845218274122]]]}, "properties": {"OBJECTID": 84, "darga": "מבנה לשימור דרגה 2", "Shape__Area": 104.70082092285156, "Shape__Length": 44.161130885624196}}, {"type": "Feature", "id": 85, "geometry": {"type": "Polygon", "coordinates": [[[35.2281272014435, 31.7859659622751], [35.2283326733877, 31.7861049794087], [35.2283628964052, 31.7860645812134], [35.2283776302641, 31.7860804706621], [35.2284101826509, 31.7860533155361], [35.2283853713264, 31.7860387518916], [35.2284295480447, 31.7859943784449], [35.228386129225, 31.7859685624475], [35.2284031797723, 31.7859526670096], [35.2283481282592, 31.7859116229191], [35.2283372783652, 31.7859268543314], [35.2282930815314, 31.7858930923365], [35.2282310828221, 31.7859672667686], [35.2281605254854, 31.7859215900419], [35.2281272014435, 31.7859659622751]]]}, "properties": {"OBJECTID": 85, "darga": "מבנה לשימור דרגה 2", "Shape__Area": 331.1700744628906, "Shape__Length": 92.26105711891505}}, {"type": "Feature", "id": 86, "geometry": {"type": "Polygon", "coordinates": [[[35.2280297064554, 31.7866897321855], [35.2280506299791, 31.7866572819051], [35.2280839670983, 31.7866672085703], [35.2280847485362, 31.786688398054], [35.2281126599393, 31.7866989876716], [35.2281289373818, 31.7866897137244], [35.2281700081429, 31.7866241513218], [35.2282149763517, 31.7866426838415], [35.228232024163, 31.7866155316635], [35.2281824038215, 31.7865963380686], [35.2281940281168, 31.7865784569207], [35.2281893732991, 31.786563228421], [35.2281637882522, 31.7865539622865], [35.2281490592658, 31.7865572756898], [35.2280319854286, 31.7865049862589], [35.2279978906829, 31.7865672366709], [35.2279746343295, 31.7865685657833], [35.2279606882548, 31.7865990280071], [35.2279699970275, 31.7866222017644], [35.2279971313552, 31.7866288189467], [35.2279669064825, 31.7866632567925], [35.2280297064554, 31.7866897321855]]]}, "properties": {"OBJECTID": 86, "darga": "מבנה לשימור דרגה 2", "Shape__Area": 304.42181396484375, "Shape__Length": 86.94807206729772}}, {"type": "Feature", "id": 87, "geometry": {"type": "Polygon", "coordinates": [[[35.2272564142745, 31.7873991640932], [35.2273958140854, 31.7873220091379], [35.2273432054457, 31.7872554835996], [35.2272777224968, 31.7872936368964], [35.2272509210828, 31.7872588911192], [35.2271745253681, 31.7873072163687], [35.2272564142745, 31.7873991640932]]]}, "properties": {"OBJECTID": 87, "darga": "מבנה לשימור דרגה 2", "Shape__Area": 178.43153381347656, "Shape__Length": 58.569475738826725}}, {"type": "Feature", "id": 88, "geometry": {"type": "Polygon", "coordinates": [[[35.2276180922889, 31.7873287497167], [35.2276275187808, 31.7873245102517], [35.2275813608062, 31.7872609497855], [35.2275416729444, 31.7872817227703], [35.2275372052856, 31.7872715526336], [35.2275099199856, 31.7872825762691], [35.2275188535055, 31.7872957117466], [35.2274573394885, 31.7873296266694], [35.2275278156332, 31.7874194569626], [35.2276429087835, 31.7873630719139], [35.2276180922889, 31.7873287497167]]]}, "properties": {"OBJECTID": 88, "darga": "מבנה לשימור דרגה 2", "Shape__Area": 170.09185791015625, "Shape__Length": 55.423205819122444}}, {"type": "Feature", "id": 89, "geometry": {"type": "Polygon", "coordinates": [[[35.2298654984989, 31.7887602329537], [35.2299102739923, 31.788598819957], [35.2295989435, 31.7885305964859], [35.2295577905234, 31.7886506223395], [35.2295965537361, 31.7886537188035], [35.2295868690366, 31.7886754478392], [35.2296244234486, 31.7886868216174], [35.2296207953253, 31.7887054462252], [35.2298654984989, 31.7887602329537]]]}, "properties": {"OBJECTID": 89, "darga": "מבנה לשימור דרגה 2", "Shape__Area": 541.2262725830078, "Shape__Length": 98.79456301875241}}, {"type": "Feature", "id": 90, "geometry": {"type": "Polygon", "coordinates": [[[35.2291386989249, 31.7887562377525], [35.2291701820947, 31.7887158806219], [35.2290635712106, 31.7886621002825], [35.229035722293, 31.7887065952253], [35.2291386989249, 31.7887562377525]]]}, "properties": {"OBJECTID": 90, "darga": "מבנה לשימור דרגה 2", "Shape__Area": 62.802001953125, "Shape__Length": 33.89776905730953}}, {"type": "Feature", "id": 91, "geometry": {"type": "Polygon", "coordinates": [[[35.2287912725401, 31.7896181612477], [35.2289535861662, 31.7895953676108], [35.2289208429331, 31.7894556979317], [35.2287548977164, 31.7894878028128], [35.2287912725401, 31.7896181612477]]]}, "properties": {"OBJECTID": 91, "darga": "מבנה לשימור דרגה 2", "Shape__Area": 242.6800994873047, "Shape__Length": 62.347969984301216}}, {"type": "Feature", "id": 92, "geometry": {"type": "Polygon", "coordinates": [[[35.2291051678068, 31.7903617502433], [35.2291080811015, 31.7901956669451], [35.2290452367439, 31.7901950478422], [35.2290445409984, 31.7903623941865], [35.2291051678068, 31.7903617502433]]]}, "properties": {"OBJECTID": 92, "darga": "מבנה לשימור דרגה 2", "Shape__Area": 108.08607482910156, "Shape__Length": 48.669001900046446}}, {"type": "Feature", "id": 93, "geometry": {"type": "Polygon", "coordinates": [[[35.2307475856403, 31.7900377678362], [35.2308396006593, 31.7898912837273], [35.2307132330804, 31.7898404326454], [35.2306915848801, 31.7898820642218], [35.2306681171748, 31.7898743601441], [35.2306374471527, 31.7899329526624], [35.2306554995237, 31.7899375744739], [35.2306248261742, 31.7899807491432], [35.2307475856403, 31.7900377678362]]]}, "properties": {"OBJECTID": 93, "darga": "מבנה לשימור דרגה 2", "Shape__Area": 249.1466064453125, "Shape__Length": 66.83099666758656}}, {"type": "Feature", "id": 94, "geometry": {"type": "Polygon", "coordinates": [[[35.2306663754122, 31.7883118433017], [35.2305878146049, 31.7882911379207], [35.2305474089315, 31.7883829111134], [35.2306109505991, 31.7884006579716], [35.2305774710955, 31.788480588592], [35.2307380631138, 31.7885387719132], [35.2307472994236, 31.7885229823979], [35.2307935136893, 31.7885407336519], [35.2308142966309, 31.7885022478456], [35.2307727035479, 31.7884835090291], [35.2308073391705, 31.7884114719196], [35.2307541952253, 31.7883966819428], [35.2307599670039, 31.788379906531], [35.2306528024149, 31.7883413930731], [35.2306525207981, 31.7883424338541], [35.2306502100478, 31.7883404611056], [35.2306528024149, 31.7883413930731], [35.2306568484204, 31.7883264604801], [35.2306663754122, 31.7883118433017]]]}, "properties": {"OBJECTID": 94, "darga": "מבנה לשימור דרגה 2", "Shape__Area": 383.51141357421875, "Shape__Length": 97.96272767862942}}, {"type": "Feature", "id": 95, "geometry": {"type": "Polygon", "coordinates": [[[35.2317387544348, 31.7880113950735], [35.2319204754151, 31.7880857207086], [35.2319327718747, 31.7880647015783], [35.2318613030079, 31.7880008604575], [35.2318778612499, 31.7879883285275], [35.2318362131492, 31.787958429803], [35.231823439845, 31.7879665157445], [35.2317841567385, 31.787936212469], [35.2317387544348, 31.7880113950735]]]}, "properties": {"OBJECTID": 95, "darga": "מבנה לשימור דרגה 2", "Shape__Area": 126.07093811035156, "Shape__Length": 54.6297609789046}}, {"type": "Feature", "id": 96, "geometry": {"type": "Polygon", "coordinates": [[[35.2316352012924, 31.7884388017755], [35.2316875031092, 31.7882892421197], [35.2316586162171, 31.7882676636799], [35.2316694396889, 31.788246077634], [35.2315430784013, 31.788210644309], [35.2314835659585, 31.7883925823854], [35.2316352012924, 31.7884388017755]]]}, "properties": {"OBJECTID": 96, "darga": "מבנה לשימור דרגה 2", "Shape__Area": 315.09498596191406, "Shape__Length": 72.33772954550992}}, {"type": "Feature", "id": 97, "geometry": {"type": "Polygon", "coordinates": [[[35.2317645470058, 31.7888298071593], [35.2317815632948, 31.7887659460457], [35.2316873908511, 31.7887336344198], [35.2317044120479, 31.7886863437145], [35.2317957431379, 31.7887150197225], [35.2318146592236, 31.7886774287808], [35.2316428823077, 31.7886322005313], [35.2315861481313, 31.7887902374974], [35.2317394700711, 31.7888354706894], [35.2317460922113, 31.7888241529843], [35.2317645470058, 31.7888298071593]]]}, "properties": {"OBJECTID": 97, "darga": "מבנה לשימור דרגה 2", "Shape__Area": 260.1197967529297, "Shape__Length": 90.08947443684077}}, {"type": "Feature", "id": 98, "geometry": {"type": "Polygon", "coordinates": [[[35.2322308592486, 31.7880278588283], [35.2322568733627, 31.7879935002618], [35.2322715449746, 31.7880027923113], [35.2323259445072, 31.787951452184], [35.2322682057486, 31.7879126658925], [35.2322809764585, 31.7878960926938], [35.2322393281484, 31.7878657900766], [35.2322199363554, 31.7878932769784], [35.2322128346312, 31.787878729151], [35.2321366755365, 31.787952302518], [35.2322308592486, 31.7880278588283]]]}, "properties": {"OBJECTID": 98, "darga": "מבנה לשימור דרגה 2", "Shape__Area": 160.80641174316406, "Shape__Length": 56.717510094346736}}, {"type": "Feature", "id": 99, "geometry": {"type": "Polygon", "coordinates": [[[35.2324386221786, 31.7881587603474], [35.2325521355074, 31.7880003055151], [35.2325038622177, 31.7879683874515], [35.2324740647165, 31.788008405947], [35.2324026038087, 31.7879720477895], [35.2323983477894, 31.7879793229644], [35.2323846231375, 31.787969626697], [35.2323264440204, 31.7880395582011], [35.2323401684337, 31.7880484473281], [35.2323094230996, 31.7880828069489], [35.2324386221786, 31.7881587603474]]]}, "properties": {"OBJECTID": 99, "darga": "מבנה לשימור דרגה 2", "Shape__Area": 264.7107391357422, "Shape__Length": 72.89977351959598}}, {"type": "Feature", "id": 100, "geometry": {"type": "Polygon", "coordinates": [[[35.2325162354988, 31.7882015833149], [35.2325796494915, 31.7882326899732], [35.2325924210486, 31.7882189458148], [35.2326354870408, 31.7882403558617], [35.2326553609018, 31.7882427764983], [35.2326861155169, 31.7882391325485], [35.2327074055487, 31.7882286195803], [35.2327225412632, 31.788208408693], [35.2327570642292, 31.7881461605448], [35.2327012219228, 31.7881227323575], [35.2327106824963, 31.7881130300665], [35.2326799211546, 31.7880944454805], [35.2326737739924, 31.7881081881767], [35.2326089388391, 31.7880734456621], [35.2325162354988, 31.7882015833149]]]}, "properties": {"OBJECTID": 100, "darga": "מבנה לשימור דרגה 2", "Shape__Area": 255.4005889892578, "Shape__Length": 67.5039569578975}}, {"type": "Feature", "id": 101, "geometry": {"type": "Polygon", "coordinates": [[[35.2330173746381, 31.7883599014039], [35.2330140346755, 31.7882697750102], [35.2329993653722, 31.7882649282135], [35.2330050387955, 31.7882523985828], [35.2329951004904, 31.788246742674], [35.2330059797886, 31.7882325948752], [35.232959602647, 31.7882148219139], [35.232936902533, 31.7882544339974], [35.2329160820042, 31.7882499934961], [35.2328810824922, 31.7883005205836], [35.2329014298878, 31.7883045580742], [35.2328810912932, 31.788329216216], [35.232892923849, 31.7883385088287], [35.2329071215037, 31.7883478009105], [35.2330173746381, 31.7883599014039]]]}, "properties": {"OBJECTID": 101, "darga": "מבנה לשימור דרגה 2", "Shape__Area": 142.6331329345703, "Shape__Length": 53.30023653889391}}, {"type": "Feature", "id": 102, "geometry": {"type": "Polygon", "coordinates": [[[35.2324247484045, 31.7887850891909], [35.2324663407623, 31.7887998801153], [35.2324709586465, 31.7887880388456], [35.2325402785612, 31.7888126915561], [35.2325772274869, 31.7887515070968], [35.2325899370532, 31.7887593980842], [35.2326245740681, 31.7886962408977], [35.2324905552413, 31.7886518684743], [35.2324247484045, 31.7887850891909]]]}, "properties": {"OBJECTID": 102, "darga": "מבנה לשימור דרגה 2", "Shape__Area": 191.14332580566406, "Shape__Length": 59.26426435223316}}, {"type": "Feature", "id": 103, "geometry": {"type": "Polygon", "coordinates": [[[35.2325032258278, 31.7885275398782], [35.2326360910266, 31.7885807929594], [35.232683428925, 31.7884939524334], [35.2325563396095, 31.7884416847358], [35.2325032258278, 31.7885275398782]]]}, "properties": {"OBJECTID": 103, "darga": "מבנה לשימור דרגה 2", "Shape__Area": 145.6952667236328, "Shape__Length": 48.64884603417425}}, {"type": "Feature", "id": 104, "geometry": {"type": "Polygon", "coordinates": [[[35.2312734611514, 31.7903857814041], [35.2313185382882, 31.790465695584], [35.2313254792359, 31.7904972693136], [35.2313566727296, 31.7905041689962], [35.2313786164462, 31.7904844302992], [35.2313855405878, 31.7904617349471], [35.2314929708269, 31.7904350708896], [35.2315172270472, 31.790423224574], [35.23152877327, 31.7904025014534], [35.2315149075828, 31.7903916507719], [35.2315391672499, 31.7903916456014], [35.2315091101769, 31.7903206087125], [35.2314224759971, 31.7903492415949], [35.2314224794429, 31.7903610818427], [35.2313681880475, 31.7903768809567], [35.2313658717869, 31.7903561607873], [35.2312734611514, 31.7903857814041]]]}, "properties": {"OBJECTID": 104, "darga": "מבנה לשימור דרגה 2", "Shape__Area": 259.7777557373047, "Shape__Length": 77.50847294360389}}, {"type": "Feature", "id": 105, "geometry": {"type": "Polygon", "coordinates": [[[35.231733386482, 31.7897688713377], [35.2317799420367, 31.7896880303672], [35.2316949097181, 31.7896608942455], [35.2317059938614, 31.7896419469273], [35.2316416639305, 31.7896185949543], [35.2316202310742, 31.7896476486894], [35.2315995281896, 31.7896419697231], [35.2315655307706, 31.7896861815446], [35.2315988066592, 31.789701962039], [35.2315840259663, 31.7897246987646], [35.2316054693977, 31.7897316401501], [35.2315966038295, 31.789755007802], [35.2316335741566, 31.7897669979685], [35.2316535277168, 31.7897341559211], [35.231733386482, 31.7897688713377]]]}, "properties": {"OBJECTID": 105, "darga": "מבנה לשימור דרגה 2", "Shape__Area": 193.70118713378906, "Shape__Length": 67.00680949328444}}, {"type": "Feature", "id": 106, "geometry": {"type": "Polygon", "coordinates": [[[35.2316941309497, 31.7895295433034], [35.2316749166786, 31.7895592278599], [35.2318582973922, 31.7896374933454], [35.2319174164948, 31.7895389672462], [35.2318723123711, 31.7895250841529], [35.2318619653882, 31.7895408739869], [35.2317510498408, 31.7894922724905], [35.2317636120953, 31.7894695362217], [35.2317177681836, 31.7894531271802], [35.2316749062911, 31.7895238640324], [35.2316941309497, 31.7895295433034]]]}, "properties": {"OBJECTID": 106, "darga": "מבנה לשימור דרגה 2", "Shape__Area": 223.8570556640625, "Shape__Length": 72.06024692618438}}, {"type": "Feature", "id": 107, "geometry": {"type": "Polygon", "coordinates": [[[35.2321274574556, 31.7897643652854], [35.2322316645836, 31.7896298340956], [35.2321658533027, 31.7895963794042], [35.2321798966974, 31.7895837469807], [35.2321251781856, 31.7895603931536], [35.2321163088061, 31.7895704992942], [35.2320970839249, 31.7895641887994], [35.2320379604139, 31.7896437700418], [35.2320172578803, 31.7896393537186], [35.231988436496, 31.7896835645298], [35.2321274574556, 31.7897643652854]]]}, "properties": {"OBJECTID": 107, "darga": "מבנה לשימור דרגה 2", "Shape__Area": 272.4755401611328, "Shape__Length": 70.22491037193647}}, {"type": "Feature", "id": 108, "geometry": {"type": "Polygon", "coordinates": [[[35.2327409746078, 31.7893063969398], [35.2327483431378, 31.7892224060871], [35.2327483375472, 31.7892040933359], [35.2327594231569, 31.7891908293169], [35.2327786429879, 31.7891807208236], [35.2327786375843, 31.7891630393599], [35.2327631075578, 31.7891510438471], [35.2326625525489, 31.789135279514], [35.2326625560085, 31.7891466462981], [35.232612278846, 31.789141605347], [35.232596785375, 31.7892464367979], [35.2327002967941, 31.7892584118977], [35.2326958729757, 31.7893007235818], [35.2327409746078, 31.7893063969398]]]}, "properties": {"OBJECTID": 108, "darga": "מבנה לשימור דרגה 2", "Shape__Area": 201.66168212890625, "Shape__Length": 65.63347266428056}}, {"type": "Feature", "id": 109, "geometry": {"type": "Polygon", "coordinates": [[[35.2338815648645, 31.788624754831], [35.2338808205037, 31.7886114934527], [35.2339140865656, 31.7885963303298], [35.2339185280107, 31.7886146429559], [35.233965843502, 31.7886070538167], [35.2339613959664, 31.7885729535903], [35.2340279320062, 31.7885584139943], [35.2339887123253, 31.7884485429833], [35.2337965016653, 31.7885022650102], [35.2338120453172, 31.7885572014862], [35.2338320057981, 31.7885527760549], [35.2338423672978, 31.7885875062059], [35.2338105791284, 31.7885950908107], [35.2338298159331, 31.7886392909323], [35.2338815648645, 31.788624754831]]]}, "properties": {"OBJECTID": 109, "darga": "מבנה לשימור דרגה 2", "Shape__Area": 274.248779296875, "Shape__Length": 79.58509360391916}}, {"type": "Feature", "id": 110, "geometry": {"type": "Polygon", "coordinates": [[[35.2337607271106, 31.7883443737811], [35.23387285232, 31.7882897865726], [35.2338472843142, 31.7882376562405], [35.2337275911618, 31.788299924335], [35.2337607271106, 31.7883443737811]]]}, "properties": {"OBJECTID": 110, "darga": "מבנה לשימור דרגה 2", "Shape__Area": 76.79248046875, "Shape__Length": 37.60702153881405}}, {"type": "Feature", "id": 111, "geometry": {"type": "Polygon", "coordinates": [[[35.2330926566286, 31.7880014419849], [35.233125468219, 31.7880158044973], [35.2332322983439, 31.7880121883165], [35.2332827473357, 31.7879367343849], [35.2332743167377, 31.7878799745092], [35.2332903011819, 31.7878835638115], [35.2332894478295, 31.7878454829234], [35.2332726258469, 31.7878512350662], [35.2332709333935, 31.7878174660636], [35.2332322323128, 31.787799511993], [35.2330926566286, 31.7880014419849]]]}, "properties": {"OBJECTID": 111, "darga": "מבנה לשימור דרגה 2", "Shape__Area": 248.0789794921875, "Shape__Length": 71.02293442213036}}, {"type": "Feature", "id": 112, "geometry": {"type": "Polygon", "coordinates": [[[35.2344121643595, 31.7881218913325], [35.2344699873832, 31.7880949334234], [35.2344581544049, 31.7880814645377], [35.2345251805581, 31.7880623630604], [35.2344594329888, 31.7879736889877], [35.2343411540216, 31.7880152555983], [35.2344121643595, 31.7881218913325]]]}, "properties": {"OBJECTID": 112, "darga": "מבנה לשימור דרגה 2", "Shape__Area": 151.05259704589844, "Shape__Length": 52.1536212812697}}, {"type": "Feature", "id": 113, "geometry": {"type": "Polygon", "coordinates": [[[35.234003288727, 31.7877874352314], [35.234057174911, 31.7877818087359], [35.2340650491274, 31.7877413918576], [35.2341163076552, 31.7877368887398], [35.234118940289, 31.7877481151274], [35.2341833419116, 31.7877436089134], [35.2341885434562, 31.7875673503426], [35.2340636922915, 31.7876089182359], [35.2339874729644, 31.7876538421811], [35.234003288727, 31.7877874352314]]]}, "properties": {"OBJECTID": 113, "darga": "מבנה לשימור דרגה 2", "Shape__Area": 308.8468933105469, "Shape__Length": 77.85640160335322}}, {"type": "Feature", "id": 114, "geometry": {"type": "Polygon", "coordinates": [[[35.2338862255883, 31.7875213926369], [35.233879624491, 31.7874315808499], [35.2339059102194, 31.7874270844996], [35.2338980088451, 31.7873788117518], [35.2338717217049, 31.7873788178409], [35.2338611902547, 31.7873271782298], [35.2337192445273, 31.7873429282668], [35.2337179424097, 31.7873788533527], [35.2336219961708, 31.7873878568372], [35.2336469903655, 31.7874563331985], [35.2337376778981, 31.7874450862284], [35.2337468887448, 31.7874776405192], [35.2337797445901, 31.7874652840486], [35.2337968539383, 31.7875371296688], [35.2338862255883, 31.7875213926369]]]}, "properties": {"OBJECTID": 114, "darga": "מבנה לשימור דרגה 2", "Shape__Area": 351.9195556640625, "Shape__Length": 93.42695750086054}}, {"type": "Feature", "id": 115, "geometry": {"type": "Polygon", "coordinates": [[[35.2339782259012, 31.7875078987087], [35.2340912541735, 31.7874842965005], [35.2340951945145, 31.7874775597404], [35.2341398806487, 31.7874708134671], [35.2341240927498, 31.7874214206875], [35.2340807243833, 31.7874382699586], [35.2340570522964, 31.7873978604304], [35.2340504818492, 31.7874012294306], [35.2340294384381, 31.7873563281229], [35.2339926391015, 31.7873653181053], [35.2339729149054, 31.7873383793253], [35.2339150911518, 31.7873653361101], [35.2339321870199, 31.7873945210898], [35.2339177301736, 31.787396770024], [35.2339782259012, 31.7875078987087]]]}, "properties": {"OBJECTID": 115, "darga": "מבנה לשימור דרגה 2", "Shape__Area": 215.8826904296875, "Shape__Length": 69.42945216778202}}, {"type": "Feature", "id": 116, "geometry": {"type": "Polygon", "coordinates": [[[35.2333119991896, 31.7873288760616], [35.23337844919, 31.7873152089011], [35.233378442464, 31.7872936540308], [35.2334213402201, 31.7872843039033], [35.2334533346089, 31.7873769831844], [35.233568569058, 31.7873518090293], [35.2335340566828, 31.7872735002678], [35.2335525604891, 31.7872677486066], [35.2335390918485, 31.787236137698], [35.2334802133843, 31.7872533952407], [35.2334440100322, 31.7871492202717], [35.2333228859148, 31.7871729590223], [35.2333321488632, 31.7872038521439], [35.2332724308307, 31.7872239839448], [35.2332741127741, 31.7872239835632], [35.2332816915329, 31.7872476921129], [35.2333119991896, 31.7873288760616]]]}, "properties": {"OBJECTID": 116, "darga": "מבנה לשימור דרגה 2", "Shape__Area": 376.4796447753906, "Shape__Length": 101.5743700390605}}, {"type": "Feature", "id": 117, "geometry": {"type": "Polygon", "coordinates": [[[35.2332656529294, 31.7870695075441], [35.233377524289, 31.7870479272532], [35.2333640526026, 31.7870062572045], [35.2333825576461, 31.787001223432], [35.2333572976409, 31.7869257866746], [35.2333144004915, 31.7869365743135], [35.2333219763282, 31.7869509425078], [35.2332319771181, 31.7869775473584], [35.2332656529294, 31.7870695075441]]]}, "properties": {"OBJECTID": 117, "darga": "מבנה לשימור דרגה 2", "Shape__Area": 144.20651245117188, "Shape__Length": 51.88231485029569}}, {"type": "Feature", "id": 118, "geometry": {"type": "Polygon", "coordinates": [[[35.2333892871322, 31.7870033772967], [35.2334069511252, 31.7869997812448], [35.23342884385, 31.7870709070633], [35.2334784715967, 31.7870622741476], [35.2334801596118, 31.7870816732375], [35.2335676381209, 31.7870636903778], [35.2335221760357, 31.7869422743722], [35.2335078736128, 31.7869350926859], [35.2334902096363, 31.7869386896537], [35.2334801220389, 31.7869616834625], [35.2334061040171, 31.7869818185928], [35.2333960010736, 31.7869523622977], [35.2333716072236, 31.7869559607819], [35.2333892871322, 31.7870033772967]]]}, "properties": {"OBJECTID": 118, "darga": "מבנה לשימור דרגה 2", "Shape__Area": 169.36512756347656, "Shape__Length": 64.12265838849781}}, {"type": "Feature", "id": 119, "geometry": {"type": "Polygon", "coordinates": [[[35.2338401028207, 31.7871430671116], [35.2339807276314, 31.7871082325132], [35.2339478337033, 31.7869970965166], [35.2337927526213, 31.7870386711613], [35.2338401028207, 31.7871430671116]]]}, "properties": {"OBJECTID": 119, "darga": "מבנה לשימור דרגה 2", "Shape__Area": 183.43333435058594, "Shape__Length": 54.38734422281599}}, {"type": "Feature", "id": 120, "geometry": {"type": "Polygon", "coordinates": [[[35.234188439025, 31.7872417799115], [35.2342436375646, 31.7872271725093], [35.2342502170137, 31.7872518696519], [35.234309356949, 31.7872338929255], [35.2342988332238, 31.7872069520332], [35.2343606043195, 31.787195710506], [35.2343027257934, 31.7870486565952], [35.2341831280454, 31.7870767507901], [35.2341962811055, 31.7871048138675], [35.2341384554055, 31.7871250358158], [35.2341410844291, 31.7871250352015], [35.2341581850004, 31.7871688146238], [35.2341621285376, 31.7871688137018], [35.234188439025, 31.7872417799115]]]}, "properties": {"OBJECTID": 120, "darga": "מבנה לשימור דרגה 2", "Shape__Area": 292.85328674316406, "Shape__Length": 75.78446928250787}}, {"type": "Feature", "id": 121, "geometry": {"type": "Polygon", "coordinates": [[[35.2339214706571, 31.7867579771033], [35.2339122334204, 31.7866423453421], [35.2338399462292, 31.7866490979229], [35.2338359906155, 31.7866109284664], [35.2339253606539, 31.7865929449224], [35.2339135215241, 31.7865592684588], [35.2337452929122, 31.7865873735105], [35.2337755798033, 31.7867658694869], [35.2339214706571, 31.7867579771033]]]}, "properties": {"OBJECTID": 121, "darga": "מבנה לשימור דרגה 2", "Shape__Area": 278.71473693847656, "Shape__Length": 86.6627717362603}}, {"type": "Feature", "id": 122, "geometry": {"type": "Polygon", "coordinates": [[[35.233385157848, 31.7865739843415], [35.2335993973665, 31.7865761809586], [35.233594111823, 31.7864886144227], [35.2335283968904, 31.7864942425286], [35.2335297156191, 31.7865077148125], [35.2333785681679, 31.7865156079443], [35.233385157848, 31.7865739843415]]]}, "properties": {"OBJECTID": 122, "darga": "מבנה לשימור דרגה 2", "Shape__Area": 157.6541290283203, "Shape__Length": 58.61496006964414}}, {"type": "Feature", "id": 123, "geometry": {"type": "Polygon", "coordinates": [[[35.2324395063762, 31.7866496242433], [35.2324685293596, 31.7865356631668], [35.2323624570365, 31.786511766112], [35.232355860056, 31.786574300235], [35.232336453264, 31.7865684659845], [35.2323470744975, 31.7865917581765], [35.2323080527277, 31.7865865036005], [35.2322936918736, 31.7866338695735], [35.23237995085, 31.7866513923287], [35.2323840543184, 31.7866391119753], [35.2324395063762, 31.7866496242433]]]}, "properties": {"OBJECTID": 123, "darga": "מבנה לשימור דרגה 2", "Shape__Area": 159.6256561279297, "Shape__Length": 59.364930240311296}}, {"type": "Feature", "id": 124, "geometry": {"type": "Polygon", "coordinates": [[[35.2321273619287, 31.7865165152237], [35.2321517125729, 31.7863720910834], [35.232082736433, 31.7863749802666], [35.2320768605207, 31.7864166546634], [35.2320314364013, 31.7864152269992], [35.2320280830305, 31.7864540266822], [35.2320625722013, 31.786456174589], [35.2320558564795, 31.7865000045641], [35.2321273619287, 31.7865165152237]]]}, "properties": {"OBJECTID": 124, "darga": "מבנה לשימור דרגה 2", "Shape__Area": 117.68399047851562, "Shape__Length": 51.18624748541218}}, {"type": "Feature", "id": 125, "geometry": {"type": "Polygon", "coordinates": [[[35.2325142414837, 31.7863059093703], [35.2325116932717, 31.7862240012263], [35.2325150483898, 31.786191667721], [35.232529347357, 31.7861880716317], [35.2325251281237, 31.786145681579], [35.2323266145304, 31.786159376437], [35.2323384121333, 31.7862290680363], [35.2323030830611, 31.7862319499494], [35.232312351623, 31.7862829613931], [35.23233926878, 31.7862829554878], [35.232347691742, 31.7863167239353], [35.2325142414837, 31.7863059093703]]]}, "properties": {"OBJECTID": 125, "darga": "מבנה לשימור דרגה 2", "Shape__Area": 318.0011291503906, "Shape__Length": 76.76830024947382}}, {"type": "Feature", "id": 126, "geometry": {"type": "Polygon", "coordinates": [[[35.2323159579489, 31.7859831836027], [35.2323231459171, 31.7858776586359], [35.2321851644176, 31.7858715220479], [35.2321691515468, 31.7859763635342], [35.2323159579489, 31.7859831836027]]]}, "properties": {"OBJECTID": 126, "darga": "מבנה לשימור דרגה 2", "Shape__Area": 158.0857391357422, "Shape__Length": 50.456085085181314}}, {"type": "Feature", "id": 127, "geometry": {"type": "Polygon", "coordinates": [[[35.235170927591, 31.7865949874911], [35.235293332441, 31.786584502814], [35.2353055823931, 31.7866106387663], [35.2353912601753, 31.7865870925419], [35.2353330618241, 31.7864250451741], [35.2352596202012, 31.7864329053989], [35.2352443148463, 31.7864198396451], [35.2351372068961, 31.7864172511192], [35.235170927591, 31.7865949874911]]]}, "properties": {"OBJECTID": 127, "darga": "מבנה לשימור דרגה 2", "Shape__Area": 373.57965087890625, "Shape__Length": 81.26610096650856}}, {"type": "Feature", "id": 128, "geometry": {"type": "Polygon", "coordinates": [[[35.2352757953724, 31.7861182928285], [35.235262066076, 31.7860597451033], [35.2352209381937, 31.7860614279809], [35.2352130784732, 31.7859844767849], [35.2350583576822, 31.7859912057948], [35.2350583979955, 31.786113326634], [35.2352229117313, 31.7861065952533], [35.2352268354913, 31.7861266692595], [35.2352757953724, 31.7861182928285]]]}, "properties": {"OBJECTID": 128, "darga": "מבנה לשימור דרגה 2", "Shape__Area": 236.6495819091797, "Shape__Length": 69.88567091928284}}, {"type": "Feature", "id": 129, "geometry": {"type": "Polygon", "coordinates": [[[35.2359914505723, 31.7853032750655], [35.2360467626497, 31.7851860897608], [35.2360371305214, 31.7851675909066], [35.2360146646543, 31.7851573182171], [35.2359472889779, 31.7851847436545], [35.2359312395282, 31.7851689879762], [35.2358237637659, 31.7852265726889], [35.235859877164, 31.7852683622508], [35.2359914505723, 31.7853032750655]]]}, "properties": {"OBJECTID": 129, "darga": "מבנה לשימור דרגה 2", "Shape__Area": 200.6502685546875, "Shape__Length": 58.87874930464967}}, {"type": "Feature", "id": 130, "geometry": {"type": "Polygon", "coordinates": [[[35.2366725383528, 31.7863675188499], [35.2366786820162, 31.7863184012891], [35.2366232272434, 31.7863008736512], [35.2366094120295, 31.7864355083123], [35.2367059393679, 31.7864495173819], [35.2367141401069, 31.7864104854749], [35.2367778049985, 31.7864157315334], [35.2367767756791, 31.7864069605007], [35.2368065547675, 31.7864087070017], [35.2368091184166, 31.7863999359564], [35.2368486533387, 31.7864047498263], [35.236863540584, 31.7863990455008], [35.2368655869575, 31.7863784334288], [35.2368553137197, 31.7863661565968], [35.2368363164135, 31.7863635307721], [35.2368388742214, 31.7863350247657], [35.2368532495685, 31.7863358985918], [35.236860932507, 31.7862837098648], [35.2367813526969, 31.7862828535444], [35.2367823700739, 31.7862543479307], [35.2367156231812, 31.7862455944996], [35.2367007766743, 31.7863683891779], [35.2366725383528, 31.7863675188499]]]}, "properties": {"OBJECTID": 130, "darga": "מבנה לשימור דרגה 2", "Shape__Area": 328.41639709472656, "Shape__Length": 105.54496812435129}}, {"type": "Feature", "id": 131, "geometry": {"type": "Polygon", "coordinates": [[[35.2368462289586, 31.7865371342218], [35.236852632861, 31.7864987602058], [35.2367130426667, 31.7864850913575], [35.2366994394643, 31.7865823961144], [35.2367403538355, 31.7865885525072], [35.2367387602943, 31.7866180169213], [35.236838238144, 31.7866268990828], [35.2368462452368, 31.7865837286749], [35.2368783348769, 31.7865864611829], [35.2368911534442, 31.7865405488528], [35.2368462289586, 31.7865371342218]]]}, "properties": {"OBJECTID": 131, "darga": "מבנה לשימור דרגה 2", "Shape__Area": 198.9150848388672, "Shape__Length": 62.55684276270549}}, {"type": "Feature", "id": 132, "geometry": {"type": "Polygon", "coordinates": [[[35.237179208993, 31.7867104086831], [35.237188021178, 31.7866782008119], [35.2372257258394, 31.7866781910947], [35.2372369433533, 31.7866405012171], [35.2371896117627, 31.7866377727265], [35.2371952134319, 31.7865973436075], [35.2371005494854, 31.7865925719761], [35.2370989553344, 31.7866199802], [35.2370716799149, 31.7866193027069], [35.2370660779495, 31.7866590464221], [35.2370909461856, 31.7866569847452], [35.2370861483434, 31.7867015242387], [35.237179208993, 31.7867104086831]]]}, "properties": {"OBJECTID": 132, "darga": "מבנה לשימור דרגה 2", "Shape__Area": 139.96165466308594, "Shape__Length": 55.800598588886544}}, {"type": "Feature", "id": 133, "geometry": {"type": "Polygon", "coordinates": [[[35.2372312385875, 31.7873808355856], [35.2373151669273, 31.7872287817695], [35.2372023379021, 31.7871795614253], [35.2371058722856, 31.7873251945857], [35.2372312385875, 31.7873808355856]]]}, "properties": {"OBJECTID": 133, "darga": "מבנה לשימור דרגה 2", "Shape__Area": 235.8344268798828, "Shape__Length": 62.574398987996275}}, {"type": "Feature", "id": 134, "geometry": {"type": "Polygon", "coordinates": [[[35.2346508770341, 31.7874866989052], [35.2347856427643, 31.7874633695813], [35.2347487025361, 31.7873448360708], [35.2346203565666, 31.7873750160103], [35.2346508770341, 31.7874866989052]]]}, "properties": {"OBJECTID": 134, "darga": "מבנה לשימור דרגה 2", "Shape__Area": 168.51171875, "Shape__Length": 51.949476253637734}}, {"type": "Feature", "id": 135, "geometry": {"type": "Polygon", "coordinates": [[[35.2352645793554, 31.7874906630671], [35.2353239380814, 31.7874735182152], [35.2353127006164, 31.7874570758974], [35.2353367684952, 31.7874604952376], [35.2353006287163, 31.7873412771965], [35.235201162065, 31.7873680246183], [35.2352413105757, 31.7874803904397], [35.2352621661267, 31.7874728478086], [35.2352645793554, 31.7874906630671]]]}, "properties": {"OBJECTID": 135, "darga": "מבנה לשימור דרגה 2", "Shape__Area": 134.42294311523438, "Shape__Length": 51.04910684386951}}, {"type": "Feature", "id": 136, "geometry": {"type": "Polygon", "coordinates": [[[35.2352462067525, 31.7877291220531], [35.2354314953744, 31.787654388459], [35.2353608521387, 31.7875111962219], [35.2353079111464, 31.7875262833382], [35.23531273232, 31.7875523200835], [35.2351763686799, 31.7875934661946], [35.2352462067525, 31.7877291220531]]]}, "properties": {"OBJECTID": 136, "darga": "מבנה לשימור דרגה 2", "Shape__Area": 317.1951446533203, "Shape__Length": 74.9754191371863}}, {"type": "Feature", "id": 137, "geometry": {"type": "Polygon", "coordinates": [[[35.2349478314802, 31.7878888493901], [35.2350176160526, 31.7878593686203], [35.2349333338933, 31.7877127524395], [35.2348619464829, 31.78774497514], [35.2349478314802, 31.7878888493901]]]}, "properties": {"OBJECTID": 137, "darga": "מבנה לשימור דרגה 2", "Shape__Area": 135.23703002929688, "Shape__Length": 51.03976849646506}}, {"type": "Feature", "id": 138, "geometry": {"type": "Polygon", "coordinates": [[[35.2354620216318, 31.7877770348177], [35.2355005473982, 31.7878345835239], [35.2355759490141, 31.7878119532532], [35.2355783398615, 31.7877660427155], [35.2356770006013, 31.7877249054446], [35.2356625476582, 31.7876885928129], [35.2356320687702, 31.7877043599432], [35.2356256470975, 31.7876947686499], [35.2354620216318, 31.7877770348177]]]}, "properties": {"OBJECTID": 138, "darga": "מבנה לשימור דרגה 2", "Shape__Area": 128.21395874023438, "Shape__Length": 57.24969696961351}}, {"type": "Feature", "id": 139, "geometry": {"type": "Polygon", "coordinates": [[[35.2357066962228, 31.7877660112119], [35.235760440318, 31.7877495529361], [35.2357516107507, 31.7877351653572], [35.2359224700246, 31.7876919548008], [35.2358911550508, 31.7876083665216], [35.2356577290138, 31.7876735197459], [35.2357066962228, 31.7877660112119]]]}, "properties": {"OBJECTID": 139, "darga": "מבנה לשימור דרגה 2", "Shape__Area": 224.3471221923828, "Shape__Length": 68.33136407741688}}]}