{"type": "FeatureCollection", "crs": {"type": "name", "properties": {"name": "EPSG:4326"}}, "features": [{"type": "Feature", "id": 1, "geometry": {"type": "Point", "coordinates": [35.2100218431338, 31.7821648970904]}, "properties": {"OBJECTID": 1, "מסשימור": "3", "הגדרה": "מבנה לשימור ומימוד זכויות הבניה באזור"}}, {"type": "Feature", "id": 2, "geometry": {"type": "Point", "coordinates": [35.21008862194, 31.7821285932339]}, "properties": {"OBJECTID": 2, "מסשימור": "3", "הגדרה": "מבנה לשימור ומימוד זכויות הבניה באזור"}}, {"type": "Feature", "id": 3, "geometry": {"type": "Point", "coordinates": [35.2101711855321, 31.7820912515098]}, "properties": {"OBJECTID": 3, "מסשימור": "3", "הגדרה": "מבנה לשימור ומימוד זכויות הבניה באזור"}}, {"type": "Feature", "id": 4, "geometry": {"type": "Point", "coordinates": [35.2102246075487, 31.7820539110709]}, "properties": {"OBJECTID": 4, "מסשימור": "3", "הגדרה": "מבנה לשימור ומימוד זכויות הבניה באזור"}}, {"type": "Feature", "id": 5, "geometry": {"type": "Point", "coordinates": [35.2103241697856, 31.7820124200005]}, "properties": {"OBJECTID": 5, "מסשימור": "3", "הגדרה": "מבנה לשימור ומימוד זכויות הבניה באזור"}}, {"type": "Feature", "id": 6, "geometry": {"type": "Point", "coordinates": [35.2104431566943, 31.7819481095604]}, "properties": {"OBJECTID": 6, "מסשימור": "3", "הגדרה": "מבנה לשימור ומימוד זכויות הבניה באזור"}}, {"type": "Feature", "id": 7, "geometry": {"type": "Point", "coordinates": [35.2104990080591, 31.7819138802399]}, "properties": {"OBJECTID": 7, "מסשימור": "3", "הגדרה": "מבנה לשימור ומימוד זכויות הבניה באזור"}}, {"type": "Feature", "id": 8, "geometry": {"type": "Point", "coordinates": [35.2105682145011, 31.7818734275475]}, "properties": {"OBJECTID": 8, "מסשימור": "3", "הגדרה": "מבנה לשימור ומימוד זכויות הבניה באזור"}}, {"type": "Feature", "id": 9, "geometry": {"type": "Point", "coordinates": [35.2106471357465, 31.7818433455067]}, "properties": {"OBJECTID": 9, "מסשימור": "3", "הגדרה": "מבנה לשימור ומימוד זכויות הבניה באזור"}}, {"type": "Feature", "id": 10, "geometry": {"type": "Point", "coordinates": [35.2107175558565, 31.7817977070897]}, "properties": {"OBJECTID": 10, "מסשימור": "3", "הגדרה": "מבנה לשימור ומימוד זכויות הבניה באזור"}}, {"type": "Feature", "id": 11, "geometry": {"type": "Point", "coordinates": [35.2107831198465, 31.7817593286941]}, "properties": {"OBJECTID": 11, "מסשימור": "3", "הגדרה": "מבנה לשימור ומימוד זכויות הבניה באזור"}}, {"type": "Feature", "id": 12, "geometry": {"type": "Point", "coordinates": [35.2108911795349, 31.781704353333]}, "properties": {"OBJECTID": 12, "מסשימור": "3", "הגדרה": "מבנה לשימור ומימוד זכויות הבניה באזור"}}, {"type": "Feature", "id": 13, "geometry": {"type": "Point", "coordinates": [35.2110210931976, 31.7816296706245]}, "properties": {"OBJECTID": 13, "מסשימור": "3", "הגדרה": "מבנה לשימור ומימוד זכויות הבניה באזור"}}, {"type": "Feature", "id": 14, "geometry": {"type": "Point", "coordinates": [35.2111560161808, 31.7815681462728]}, "properties": {"OBJECTID": 14, "מסשימור": "3", "הגדרה": "מבנה לשימור ומימוד זכויות הבניה באזור"}}, {"type": "Feature", "id": 15, "geometry": {"type": "Point", "coordinates": [35.2112964025854, 31.7815065565488]}, "properties": {"OBJECTID": 15, "מסשימור": "3", "הגדרה": "מבנה לשימור ומימוד זכויות הבניה באזור"}}, {"type": "Feature", "id": 16, "geometry": {"type": "Point", "coordinates": [35.2114823216102, 31.7814401032203]}, "properties": {"OBJECTID": 16, "מסשימור": "3", "הגדרה": "מבנה לשימור ומימוד זכויות הבניה באזור"}}, {"type": "Feature", "id": 17, "geometry": {"type": "Point", "coordinates": [35.2117023866191, 31.7813412355108]}, "properties": {"OBJECTID": 17, "מסשימור": "3", "הגדרה": "מבנה לשימור ומימוד זכויות הבניה באזור"}}, {"type": "Feature", "id": 18, "geometry": {"type": "Point", "coordinates": [35.2113495080656, 31.781299120392]}, "properties": {"OBJECTID": 18, "מסשימור": "3", "הגדרה": "מבנה לשימור ומימוד זכויות הבניה באזור"}}, {"type": "Feature", "id": 19, "geometry": {"type": "Point", "coordinates": [35.2113001761654, 31.7812261975387]}, "properties": {"OBJECTID": 19, "מסשימור": "3", "הגדרה": "מבנה לשימור ומימוד זכויות הבניה באזור"}}, {"type": "Feature", "id": 20, "geometry": {"type": "Point", "coordinates": [35.211239460467, 31.7811305867707]}, "properties": {"OBJECTID": 20, "מסשימור": "3", "הגדרה": "מבנה לשימור ומימוד זכויות הבניה באזור"}}, {"type": "Feature", "id": 21, "geometry": {"type": "Point", "coordinates": [35.2111901299289, 31.7810738690478]}, "properties": {"OBJECTID": 21, "מסשימור": "3", "הגדרה": "מבנה לשימור ומימוד זכויות הבניה באזור"}}, {"type": "Feature", "id": 22, "geometry": {"type": "Point", "coordinates": [35.2110914911243, 31.7812813084522]}, "properties": {"OBJECTID": 22, "מסשימור": "3", "הגדרה": "מבנה לשימור ומימוד זכויות הבניה באזור"}}, {"type": "Feature", "id": 23, "geometry": {"type": "Point", "coordinates": [35.2108714257585, 31.7813672102461]}, "properties": {"OBJECTID": 23, "מסשימור": "3", "הגדרה": "מבנה לשימור ומימוד זכויות הבניה באזור"}}, {"type": "Feature", "id": 24, "geometry": {"type": "Point", "coordinates": [35.2107955407068, 31.7814028665524]}, "properties": {"OBJECTID": 24, "מסשימור": "3", "הגדרה": "מבנה לשימור ומימוד זכויות הבניה באזור"}}, {"type": "Feature", "id": 25, "geometry": {"type": "Point", "coordinates": [35.2104431341892, 31.7816027325775]}, "properties": {"OBJECTID": 25, "מסשימור": "3", "הגדרה": "מבנה לשימור ומימוד זכויות הבניה באזור"}}, {"type": "Feature", "id": 26, "geometry": {"type": "Point", "coordinates": [35.2104042823365, 31.7816265899063]}, "properties": {"OBJECTID": 26, "מסשימור": "3", "הגדרה": "מבנה לשימור ומימוד זכויות הבניה באזור"}}, {"type": "Feature", "id": 27, "geometry": {"type": "Point", "coordinates": [35.2103059348174, 31.7816701552187]}, "properties": {"OBJECTID": 27, "מסשימור": "3", "הגדרה": "מבנה לשימור ומימוד זכויות הבניה באזור"}}, {"type": "Feature", "id": 28, "geometry": {"type": "Point", "coordinates": [35.2102258001231, 31.7817106082713]}, "properties": {"OBJECTID": 28, "מסשימור": "3", "הגדרה": "מבנה לשימור ומימוד זכויות הבניה באזור"}}, {"type": "Feature", "id": 29, "geometry": {"type": "Point", "coordinates": [35.2096086865676, 31.7817409720792]}, "properties": {"OBJECTID": 29, "מסשימור": "3", "הגדרה": "מבנה לשימור ומימוד זכויות הבניה באזור"}}, {"type": "Feature", "id": 30, "geometry": {"type": "Point", "coordinates": [35.2098864293216, 31.7816489122275]}, "properties": {"OBJECTID": 30, "מסשימור": "3", "הגדרה": "מבנה לשימור ומימוד זכויות הבניה באזור"}}, {"type": "Feature", "id": 31, "geometry": {"type": "Point", "coordinates": [35.2098560710569, 31.781602240578]}, "properties": {"OBJECTID": 31, "מסשימור": "3", "הגדרה": "מבנה לשימור ומימוד זכויות הבניה באזור"}}, {"type": "Feature", "id": 32, "geometry": {"type": "Point", "coordinates": [35.2095236887804, 31.7816696706073]}, "properties": {"OBJECTID": 32, "מסשימור": "3", "הגדרה": "מבנה לשימור ומימוד זכויות הבניה באזור"}}, {"type": "Feature", "id": 33, "geometry": {"type": "Point", "coordinates": [35.2098166057495, 31.7815374197673]}, "properties": {"OBJECTID": 33, "מסשימור": "3", "הגדרה": "מבנה לשימור ומימוד זכויות הבניה באזור"}}, {"type": "Feature", "id": 34, "geometry": {"type": "Point", "coordinates": [35.2097725880977, 31.7814738950811]}, "properties": {"OBJECTID": 34, "מסשימור": "3", "הגדרה": "מבנה לשימור ומימוד זכויות הבניה באזור"}}, {"type": "Feature", "id": 35, "geometry": {"type": "Point", "coordinates": [35.210068552027, 31.7815477799457]}, "properties": {"OBJECTID": 35, "מסשימור": "3", "הגדרה": "מבנה לשימור ומימוד זכויות הבניה באזור"}}, {"type": "Feature", "id": 36, "geometry": {"type": "Point", "coordinates": [35.2102977217678, 31.7814012700182]}, "properties": {"OBJECTID": 36, "מסשימור": "3", "הגדרה": "מבנה לשימור ומימוד זכויות הבניה באזור"}}, {"type": "Feature", "id": 37, "geometry": {"type": "Point", "coordinates": [35.2104449393451, 31.7813403293374]}, "properties": {"OBJECTID": 37, "מסשימור": "3", "הגדרה": "מבנה לשימור ומימוד זכויות הבניה באזור"}}, {"type": "Feature", "id": 38, "geometry": {"type": "Point", "coordinates": [35.2100260470903, 31.7814142471959]}, "properties": {"OBJECTID": 38, "מסשימור": "3", "הגדרה": "מבנה לשימור ומימוד זכויות הבניה באזור"}}, {"type": "Feature", "id": 39, "geometry": {"type": "Point", "coordinates": [35.209383098711, 31.7815042155034]}, "properties": {"OBJECTID": 39, "מסשימור": "3", "הגדרה": "מבנה לשימור ומימוד זכויות הבניה באזור"}}, {"type": "Feature", "id": 40, "geometry": {"type": "Point", "coordinates": [35.209323807805, 31.7814252147729]}, "properties": {"OBJECTID": 40, "מסשימור": "3", "הגדרה": "מבנה לשימור ומימוד זכויות הבניה באזור"}}, {"type": "Feature", "id": 41, "geometry": {"type": "Point", "coordinates": [35.209845517782, 31.7811922363227]}, "properties": {"OBJECTID": 41, "מסשימור": "3", "הגדרה": "מבנה לשימור ומימוד זכויות הבניה באזור"}}, {"type": "Feature", "id": 42, "geometry": {"type": "Point", "coordinates": [35.2098929508306, 31.7812570567839]}, "properties": {"OBJECTID": 42, "מסשימור": "3", "הגדרה": "מבנה לשימור ומימוד זכויות הבניה באזור"}}, {"type": "Feature", "id": 43, "geometry": {"type": "Point", "coordinates": [35.2099380134188, 31.7813340323383]}, "properties": {"OBJECTID": 43, "מסשימור": "3", "הגדרה": "מבנה לשימור ומימוד זכויות הבניה באזור"}}, {"type": "Feature", "id": 44, "geometry": {"type": "Point", "coordinates": [35.209926144871, 31.781145641048]}, "properties": {"OBJECTID": 44, "מסשימור": "3", "הגדרה": "מבנה לשימור ומימוד זכויות הבניה באזור"}}, {"type": "Feature", "id": 45, "geometry": {"type": "Point", "coordinates": [35.2103126881124, 31.7810666206058]}, "properties": {"OBJECTID": 45, "מסשימור": "3", "הגדרה": "מבנה לשימור ומימוד זכויות הבניה באזור"}}, {"type": "Feature", "id": 46, "geometry": {"type": "Point", "coordinates": [35.2105602833978, 31.7812832796733]}, "properties": {"OBJECTID": 46, "מסשימור": "3", "הגדרה": "מבנה לשימור ומימוד זכויות הבניה באזור"}}, {"type": "Feature", "id": 47, "geometry": {"type": "Point", "coordinates": [35.2106058137921, 31.7812586445831]}, "properties": {"OBJECTID": 47, "מסשימור": "3", "הגדרה": "מבנה לשימור ומימוד זכויות הבניה באזור"}}, {"type": "Feature", "id": 48, "geometry": {"type": "Point", "coordinates": [35.2107317839379, 31.78123270955]}, "properties": {"OBJECTID": 48, "מסשימור": "3", "הגדרה": "מבנה לשימור ומימוד זכויות הבניה באזור"}}, {"type": "Feature", "id": 49, "geometry": {"type": "Point", "coordinates": [35.2106209812265, 31.7811056619048]}, "properties": {"OBJECTID": 49, "מסשימור": "3", "הגדרה": "מבנה לשימור ומימוד זכויות הבניה באזור"}}, {"type": "Feature", "id": 50, "geometry": {"type": "Point", "coordinates": [35.2105739227104, 31.7809799070254]}, "properties": {"OBJECTID": 50, "מסשימור": "3", "הגדרה": "מבנה לשימור ומימוד זכויות הבניה באזור"}}, {"type": "Feature", "id": 51, "geometry": {"type": "Point", "coordinates": [35.2106816790866, 31.7809319328395]}, "properties": {"OBJECTID": 51, "מסשימור": "3", "הגדרה": "מבנה לשימור ומימוד זכויות הבניה באזור"}}, {"type": "Feature", "id": 52, "geometry": {"type": "Point", "coordinates": [35.210024502315, 31.7810108277849]}, "properties": {"OBJECTID": 52, "מסשימור": "3", "הגדרה": "מבנה לשימור ומימוד זכויות הבניה באזור"}}, {"type": "Feature", "id": 53, "geometry": {"type": "Point", "coordinates": [35.2103908515845, 31.7808538393581]}, "properties": {"OBJECTID": 53, "מסשימור": "3", "הגדרה": "מבנה לשימור ומימוד זכויות הבניה באזור"}}, {"type": "Feature", "id": 54, "geometry": {"type": "Point", "coordinates": [35.2105283759107, 31.780754325501]}, "properties": {"OBJECTID": 54, "מסשימור": "3", "הגדרה": "מבנה לשימור ומימוד זכויות הבניה באזור"}}, {"type": "Feature", "id": 55, "geometry": {"type": "Point", "coordinates": [35.2105814944269, 31.780723208522]}, "properties": {"OBJECTID": 55, "מסשימור": "3", "הגדרה": "מבנה לשימור ומימוד זכויות הבניה באזור"}}, {"type": "Feature", "id": 56, "geometry": {"type": "Point", "coordinates": [35.2106133640778, 31.7806830164361]}, "properties": {"OBJECTID": 56, "מסשימור": "3", "הגדרה": "מבנה לשימור ומימוד זכויות הבניה באזור"}}, {"type": "Feature", "id": 57, "geometry": {"type": "Point", "coordinates": [35.2106588950389, 31.7806713461869]}, "properties": {"OBJECTID": 57, "מסשימור": "3", "הגדרה": "מבנה לשימור ומימוד זכויות הבניה באזור"}}, {"type": "Feature", "id": 58, "geometry": {"type": "Point", "coordinates": [35.2110125312882, 31.7807465228614]}, "properties": {"OBJECTID": 58, "מסשימור": "3", "הגדרה": "מבנה לשימור ומימוד זכויות הבניה באזור"}}, {"type": "Feature", "id": 59, "geometry": {"type": "Point", "coordinates": [35.2110201248128, 31.7808126418203]}, "properties": {"OBJECTID": 59, "מסשימור": "3", "הגדרה": "מבנה לשימור ומימוד זכויות הבניה באזור"}}, {"type": "Feature", "id": 60, "geometry": {"type": "Point", "coordinates": [35.2112068160228, 31.7809552427374]}, "properties": {"OBJECTID": 60, "מסשימור": "3", "הגדרה": "מבנה לשימור ומימוד זכויות הבניה באזור"}}, {"type": "Feature", "id": 61, "geometry": {"type": "Point", "coordinates": [35.2112963483955, 31.7807776230908]}, "properties": {"OBJECTID": 61, "מסשימור": "3", "הגדרה": "מבנה לשימור ומימוד זכויות הבניה באזור"}}, {"type": "Feature", "id": 62, "geometry": {"type": "Point", "coordinates": [35.211209829927, 31.7806635385898]}, "properties": {"OBJECTID": 62, "מסשימור": "3", "הגדרה": "מבנה לשימור ומימוד זכויות הבניה באזור"}}, {"type": "Feature", "id": 63, "geometry": {"type": "Point", "coordinates": [35.2119501139616, 31.7806279218737]}, "properties": {"OBJECTID": 63, "מסשימור": "3", "הגדרה": "מבנה לשימור ומימוד זכויות הבניה באזור"}}, {"type": "Feature", "id": 64, "geometry": {"type": "Point", "coordinates": [35.2122026670605, 31.7806619258636]}, "properties": {"OBJECTID": 64, "מסשימור": "3", "הגדרה": "מבנה לשימור ומימוד זכויות הבניה באזור"}}, {"type": "Feature", "id": 65, "geometry": {"type": "Point", "coordinates": [35.2122929949338, 31.7805781176401]}, "properties": {"OBJECTID": 65, "מסשימור": "3", "הגדרה": "מבנה לשימור ומימוד זכויות הבניה באזור"}}, {"type": "Feature", "id": 66, "geometry": {"type": "Point", "coordinates": [35.2122667551896, 31.7804171506112]}, "properties": {"OBJECTID": 66, "מסשימור": "3", "הגדרה": "מבנה לשימור ומימוד זכויות הבניה באזור"}}, {"type": "Feature", "id": 67, "geometry": {"type": "Point", "coordinates": [35.2123862434465, 31.78056234674]}, "properties": {"OBJECTID": 67, "מסשימור": "3", "הגדרה": "מבנה לשימור ומימוד זכויות הבניה באזור"}}, {"type": "Feature", "id": 68, "geometry": {"type": "Point", "coordinates": [35.2124901747826, 31.780542426625]}, "properties": {"OBJECTID": 68, "מסשימור": "3", "הגדרה": "מבנה לשימור ומימוד זכויות הבניה באזור"}}, {"type": "Feature", "id": 69, "geometry": {"type": "Point", "coordinates": [35.2126000133825, 31.7805263884687]}, "properties": {"OBJECTID": 69, "מסשימור": "3", "הגדרה": "מבנה לשימור ומימוד זכויות הבניה באזור"}}, {"type": "Feature", "id": 70, "geometry": {"type": "Point", "coordinates": [35.2113235623496, 31.7801782420091]}, "properties": {"OBJECTID": 70, "מסשימור": "3", "הגדרה": "מבנה לשימור ומימוד זכויות הבניה באזור"}}, {"type": "Feature", "id": 71, "geometry": {"type": "Point", "coordinates": [35.2114031956147, 31.779952550179]}, "properties": {"OBJECTID": 71, "מסשימור": "3", "הגדרה": "מבנה לשימור ומימוד זכויות הבניה באזור"}}, {"type": "Feature", "id": 72, "geometry": {"type": "Point", "coordinates": [35.2112992613045, 31.7799409392497]}, "properties": {"OBJECTID": 72, "מסשימור": "3", "הגדרה": "מבנה לשימור ומימוד זכויות הבניה באזור"}}, {"type": "Feature", "id": 73, "geometry": {"type": "Point", "coordinates": [35.2114848080117, 31.7802105929776]}, "properties": {"OBJECTID": 73, "מסשימור": "3", "הגדרה": "מבנה לשימור ומימוד זכויות הבניה באזור"}}, {"type": "Feature", "id": 74, "geometry": {"type": "Point", "coordinates": [35.2115557175596, 31.7802354807144]}, "properties": {"OBJECTID": 74, "מסשימור": "3", "הגדרה": "מבנה לשימור ומימוד זכויות הבניה באזור"}}, {"type": "Feature", "id": 75, "geometry": {"type": "Point", "coordinates": [35.2116033159235, 31.7802719863456]}, "properties": {"OBJECTID": 75, "מסשימור": "3", "הגדרה": "מבנה לשימור ומימוד זכויות הבניה באזור"}}, {"type": "Feature", "id": 76, "geometry": {"type": "Point", "coordinates": [35.2116897634122, 31.780247089711]}, "properties": {"OBJECTID": 76, "מסשימור": "3", "הגדרה": "מבנה לשימור ומימוד זכויות הבניה באזור"}}, {"type": "Feature", "id": 77, "geometry": {"type": "Point", "coordinates": [35.2119218964853, 31.7800263668859]}, "properties": {"OBJECTID": 77, "מסשימור": "3", "הגדרה": "מבנה לשימור ומימוד זכויות הבניה באזור"}}, {"type": "Feature", "id": 78, "geometry": {"type": "Point", "coordinates": [35.2117878497989, 31.7800006524408]}, "properties": {"OBJECTID": 78, "מסשימור": "3", "הגדרה": "מבנה לשימור ומימוד זכויות הבניה באזור"}}, {"type": "Feature", "id": 79, "geometry": {"type": "Point", "coordinates": [35.2117276252302, 31.7799840611527]}, "properties": {"OBJECTID": 79, "מסשימור": "3", "הגדרה": "מבנה לשימור ומימוד זכויות הבניה באזור"}}, {"type": "Feature", "id": 80, "geometry": {"type": "Point", "coordinates": [35.2116625454599, 31.7799832351931]}, "properties": {"OBJECTID": 80, "מסשימור": "3", "הגדרה": "מבנה לשימור ומימוד זכויות הבניה באזור"}}, {"type": "Feature", "id": 81, "geometry": {"type": "Point", "coordinates": [35.2115887225233, 31.7799624961474]}, "properties": {"OBJECTID": 81, "מסשימור": "3", "הגדרה": "מבנה לשימור ומימוד זכויות הבניה באזור"}}, {"type": "Feature", "id": 82, "geometry": {"type": "Point", "coordinates": [35.2115022736844, 31.7799666503754]}, "properties": {"OBJECTID": 82, "מסשימור": "3", "הגדרה": "מבנה לשימור ומימוד זכויות הבניה באזור"}}, {"type": "Feature", "id": 83, "geometry": {"type": "Point", "coordinates": [35.2110367766177, 31.7802123802541]}, "properties": {"OBJECTID": 83, "מסשימור": "3", "הגדרה": "מבנה לשימור ומימוד זכויות הבניה באזור"}}, {"type": "Feature", "id": 84, "geometry": {"type": "Point", "coordinates": [35.2110777500939, 31.7801488515405]}, "properties": {"OBJECTID": 84, "מסשימור": "3", "הגדרה": "מבנה לשימור ומימוד זכויות הבניה באזור"}}, {"type": "Feature", "id": 85, "geometry": {"type": "Point", "coordinates": [35.211267467581, 31.7801721774666]}, "properties": {"OBJECTID": 85, "מסשימור": "3", "הגדרה": "מבנה לשימור ומימוד זכויות הבניה באזור"}}, {"type": "Feature", "id": 86, "geometry": {"type": "Point", "coordinates": [35.2109821315393, 31.7801190380627]}, "properties": {"OBJECTID": 86, "מסשימור": "3", "הגדרה": "מבנה לשימור ומימוד זכויות הבניה באזור"}}, {"type": "Feature", "id": 87, "geometry": {"type": "Point", "coordinates": [35.2109168706052, 31.7801255238567]}, "properties": {"OBJECTID": 87, "מסשימור": "3", "הגדרה": "מבנה לשימור ומימוד זכויות הבניה באזור"}}, {"type": "Feature", "id": 88, "geometry": {"type": "Point", "coordinates": [35.2107939355163, 31.7801255300995]}, "properties": {"OBJECTID": 88, "מסשימור": "3", "הגדרה": "מבנה לשימור ומימוד זכויות הבניה באזור"}}, {"type": "Feature", "id": 89, "geometry": {"type": "Point", "coordinates": [35.2107256370682, 31.7801151614453]}, "properties": {"OBJECTID": 89, "מסשימור": "3", "הגדרה": "מבנה לשימור ומימוד זכויות הבניה באזור"}}, {"type": "Feature", "id": 90, "geometry": {"type": "Point", "coordinates": [35.2111050522135, 31.7799051158967]}, "properties": {"OBJECTID": 90, "מסשימור": "3", "הגדרה": "מבנה לשימור ומימוד זכויות הבניה באזור"}}, {"type": "Feature", "id": 91, "geometry": {"type": "Point", "coordinates": [35.2110246114256, 31.7798908584028]}, "properties": {"OBJECTID": 91, "מסשימור": "3", "הגדרה": "מבנה לשימור ומימוד זכויות הבניה באזור"}}, {"type": "Feature", "id": 92, "geometry": {"type": "Point", "coordinates": [35.2109487252618, 31.7798778983724]}, "properties": {"OBJECTID": 92, "מסשימור": "3", "הגדרה": "מבנה לשימור ומימוד זכויות הבניה באזור"}}, {"type": "Feature", "id": 93, "geometry": {"type": "Point", "coordinates": [35.2108652507466, 31.779870123366]}, "properties": {"OBJECTID": 93, "מסשימור": "3", "הגדרה": "מבנה לשימור ומימוד זכויות הבניה באזור"}}, {"type": "Feature", "id": 94, "geometry": {"type": "Point", "coordinates": [35.2107954341305, 31.7798571629355]}, "properties": {"OBJECTID": 94, "מסשימור": "3", "הגדרה": "מבנה לשימור ומימוד זכויות הבניה באזור"}}, {"type": "Feature", "id": 95, "geometry": {"type": "Point", "coordinates": [35.2107271365815, 31.7798416086967]}, "properties": {"OBJECTID": 95, "מסשימור": "3", "הגדרה": "מבנה לשימור ומימוד זכויות הבניה באזור"}}, {"type": "Feature", "id": 96, "geometry": {"type": "Point", "coordinates": [35.2108708789646, 31.779628151961]}, "properties": {"OBJECTID": 96, "מסשימור": "3", "הגדרה": "מבנה לשימור ומימוד זכויות הבניה באזור"}}, {"type": "Feature", "id": 97, "geometry": {"type": "Point", "coordinates": [35.2109884124899, 31.7796472297789]}, "properties": {"OBJECTID": 97, "מסשימור": "3", "הגדרה": "מבנה לשימור ומימוד זכויות הבניה באזור"}}, {"type": "Feature", "id": 98, "geometry": {"type": "Point", "coordinates": [35.2110632059132, 31.7796621612676]}, "properties": {"OBJECTID": 98, "מסשימור": "3", "הגדרה": "מבנה לשימור ומימוד זכויות הבניה באזור"}}, {"type": "Feature", "id": 99, "geometry": {"type": "Point", "coordinates": [35.2111467408654, 31.7796613271683]}, "properties": {"OBJECTID": 99, "מסשימור": "3", "הגדרה": "מבנה לשימור ומימוד זכויות הבניה באזור"}}, {"type": "Feature", "id": 100, "geometry": {"type": "Point", "coordinates": [35.2113186700528, 31.7796978262504]}, "properties": {"OBJECTID": 100, "מסשימור": "3", "הגדרה": "מבנה לשימור ומימוד זכויות הבניה באזור"}}, {"type": "Feature", "id": 101, "geometry": {"type": "Point", "coordinates": [35.2113915199918, 31.7796994816524]}, "properties": {"OBJECTID": 101, "מסשימור": "3", "הגדרה": "מבנה לשימור ומימוד זכויות הבניה באזור"}}, {"type": "Feature", "id": 102, "geometry": {"type": "Point", "coordinates": [35.211461700865, 31.779713220025]}, "properties": {"OBJECTID": 102, "מסשימור": "3", "הגדרה": "מבנה לשימור ומימוד זכויות הבניה באזור"}}, {"type": "Feature", "id": 103, "geometry": {"type": "Point", "coordinates": [35.2115163385673, 31.7797209962579]}, "properties": {"OBJECTID": 103, "מסשימור": "3", "הגדרה": "מבנה לשימור ומימוד זכויות הבניה באזור"}}, {"type": "Feature", "id": 104, "geometry": {"type": "Point", "coordinates": [35.2115664244905, 31.7797365511015]}, "properties": {"OBJECTID": 104, "מסשימור": "3", "הגדרה": "מבנה לשימור ומימוד זכויות הבניה באזור"}}, {"type": "Feature", "id": 105, "geometry": {"type": "Point", "coordinates": [35.2116301686011, 31.779737843438]}, "properties": {"OBJECTID": 105, "מסשימור": "3", "הגדרה": "מבנה לשימור ומימוד זכויות הבניה באזור"}}, {"type": "Feature", "id": 106, "geometry": {"type": "Point", "coordinates": [35.2115072130695, 31.7794642976804]}, "properties": {"OBJECTID": 106, "מסשימור": "3", "הגדרה": "מבנה לשימור ומימוד זכויות הבניה באזור"}}, {"type": "Feature", "id": 107, "geometry": {"type": "Point", "coordinates": [35.2116271141349, 31.7794915165967]}, "properties": {"OBJECTID": 107, "מסשימור": "3", "הגדרה": "מבנה לשימור ומימוד זכויות הבניה באזור"}}, {"type": "Feature", "id": 108, "geometry": {"type": "Point", "coordinates": [35.2117606729755, 31.7794992873129]}, "properties": {"OBJECTID": 108, "מסשימור": "3", "הגדרה": "מבנה לשימור ומימוד זכויות הבניה באזור"}}, {"type": "Feature", "id": 109, "geometry": {"type": "Point", "coordinates": [35.2116832894241, 31.779748212478]}, "properties": {"OBJECTID": 109, "מסשימור": "3", "הגדרה": "מבנה לשימור ומימוד זכויות הבניה באזור"}}, {"type": "Feature", "id": 110, "geometry": {"type": "Point", "coordinates": [35.211743998471, 31.7797520977239]}, "properties": {"OBJECTID": 110, "מסשימור": "3", "הגדרה": "מבנה לשימור ומימוד זכויות הבניה באזור"}}, {"type": "Feature", "id": 111, "geometry": {"type": "Point", "coordinates": [35.2117986361163, 31.7797585769885]}, "properties": {"OBJECTID": 111, "מסשימור": "3", "הגדרה": "מבנה לשימור ומימוד זכויות הבניה באזור"}}, {"type": "Feature", "id": 112, "geometry": {"type": "Point", "coordinates": [35.2118775385755, 31.7795226165291]}, "properties": {"OBJECTID": 112, "מסשימור": "3", "הגדרה": "מבנה לשימור ומימוד זכויות הבניה באזור"}}, {"type": "Feature", "id": 113, "geometry": {"type": "Point", "coordinates": [35.2117333387052, 31.7792996339399]}, "properties": {"OBJECTID": 113, "מסשימור": "3", "הגדרה": "מבנה לשימור ומימוד זכויות הבניה באזור"}}, {"type": "Feature", "id": 114, "geometry": {"type": "Point", "coordinates": [35.2118152964015, 31.7793164836918]}, "properties": {"OBJECTID": 114, "מסשימור": "3", "הגדרה": "מבנה לשימור ומימוד זכויות הבניה באזור"}}, {"type": "Feature", "id": 115, "geometry": {"type": "Point", "coordinates": [35.2119048406087, 31.7793190712309]}, "properties": {"OBJECTID": 115, "מסשימור": "3", "הגדרה": "מבנה לשימור ומימוד זכויות הבניה באזור"}}, {"type": "Feature", "id": 116, "geometry": {"type": "Point", "coordinates": [35.2118805940201, 31.7797728330028]}, "properties": {"OBJECTID": 116, "מסשימור": "3", "הגדרה": "מבנה לשימור ומימוד זכויות הבניה באזור"}}, {"type": "Feature", "id": 117, "geometry": {"type": "Point", "coordinates": [35.2119200354298, 31.7795342829422]}, "properties": {"OBJECTID": 117, "מסשימור": "3", "הגדרה": "מבנה לשימור ומימוד זכויות הבניה באזור"}}, {"type": "Feature", "id": 118, "geometry": {"type": "Point", "coordinates": [35.2119731551105, 31.7795316860952]}, "properties": {"OBJECTID": 118, "מסשימור": "3", "הגדרה": "מבנה לשימור ומימוד זכויות הבניה באזור"}}, {"type": "Feature", "id": 119, "geometry": {"type": "Point", "coordinates": [35.2120976100509, 31.7795614979913]}, "properties": {"OBJECTID": 119, "מסשימור": "3", "הגדרה": "מבנה לשימור ומימוד זכויות הבניה באזור"}}, {"type": "Feature", "id": 120, "geometry": {"type": "Point", "coordinates": [35.2119913897521, 31.7798000521101]}, "properties": {"OBJECTID": 120, "מסשימור": "3", "הגדרה": "מבנה לשימור ומימוד זכויות הבניה באזור"}}, {"type": "Feature", "id": 121, "geometry": {"type": "Point", "coordinates": [35.2120247408574, 31.7793372145483]}, "properties": {"OBJECTID": 121, "מסשימור": "3", "הגדרה": "מבנה לשימור ומימוד זכויות הבניה באזור"}}, {"type": "Feature", "id": 122, "geometry": {"type": "Point", "coordinates": [35.2114293665258, 31.7792265307475]}, "properties": {"OBJECTID": 122, "מסשימור": "3", "הגדרה": "מבנה לשימור ומימוד זכויות הבניה באזור"}}, {"type": "Feature", "id": 123, "geometry": {"type": "Point", "coordinates": [35.2112310183491, 31.7791919920327]}, "properties": {"OBJECTID": 123, "מסשימור": "3", "הגדרה": "מבנה לשימור ומימוד זכויות הבניה באזור"}}, {"type": "Feature", "id": 124, "geometry": {"type": "Point", "coordinates": [35.2111408784151, 31.7791834996987]}, "properties": {"OBJECTID": 124, "מסשימור": "3", "הגדרה": "מבנה לשימור ומימוד זכויות הבניה באזור"}}, {"type": "Feature", "id": 125, "geometry": {"type": "Point", "coordinates": [35.2110283579941, 31.7791627957396]}, "properties": {"OBJECTID": 125, "מסשימור": "3", "הגדרה": "מבנה לשימור ומימוד זכויות הבניה באזור"}}, {"type": "Feature", "id": 126, "geometry": {"type": "Point", "coordinates": [35.2108090447878, 31.7791531843425]}, "properties": {"OBJECTID": 126, "מסשימור": "3", "הגדרה": "מבנה לשימור ומימוד זכויות הבניה באזור"}}, {"type": "Feature", "id": 127, "geometry": {"type": "Point", "coordinates": [35.2109243905144, 31.7791466960422]}, "properties": {"OBJECTID": 127, "מסשימור": "3", "הגדרה": "מבנה לשימור ומימוד זכויות הבניה באזור"}}, {"type": "Feature", "id": 128, "geometry": {"type": "Point", "coordinates": [35.2110989101877, 31.7789301783981]}, "properties": {"OBJECTID": 128, "מסשימור": "3", "הגדרה": "מבנה לשימור ומימוד זכויות הבניה באזור"}}, {"type": "Feature", "id": 129, "geometry": {"type": "Point", "coordinates": [35.2111307737325, 31.7788173843646]}, "properties": {"OBJECTID": 129, "מסשימור": "3", "הגדרה": "מבנה לשימור ומימוד זכויות הבניה באזור"}}, {"type": "Feature", "id": 130, "geometry": {"type": "Point", "coordinates": [35.2112582602993, 31.7788147847585]}, "properties": {"OBJECTID": 130, "מסשימור": "3", "הגדרה": "מבנה לשימור ומימוד זכויות הבניה באזור"}}, {"type": "Feature", "id": 131, "geometry": {"type": "Point", "coordinates": [35.2106000506313, 31.779320001913]}, "properties": {"OBJECTID": 131, "מסשימור": "3", "הגדרה": "מבנה לשימור ומימוד זכויות הבניה באזור"}}, {"type": "Feature", "id": 132, "geometry": {"type": "Point", "coordinates": [35.2106945434715, 31.7793438942498]}, "properties": {"OBJECTID": 132, "מסשימור": "3", "הגדרה": "מבנה לשימור ומימוד זכויות הבניה באזור"}}, {"type": "Feature", "id": 133, "geometry": {"type": "Point", "coordinates": [35.2107790882931, 31.7793555724826]}, "properties": {"OBJECTID": 133, "מסשימור": "3", "הגדרה": "מבנה לשימור ומימוד זכויות הבניה באזור"}}, {"type": "Feature", "id": 134, "geometry": {"type": "Point", "coordinates": [35.2108572632596, 31.7793742537777]}, "properties": {"OBJECTID": 134, "מסשימור": "3", "הגדרה": "מבנה לשימור ומימוד זכויות הבניה באזור"}}, {"type": "Feature", "id": 135, "geometry": {"type": "Point", "coordinates": [35.2113574526483, 31.7787502679767]}, "properties": {"OBJECTID": 135, "מסשימור": "3", "הגדרה": "מבנה לשימור ומימוד זכויות הבניה באזור"}}, {"type": "Feature", "id": 136, "geometry": {"type": "Point", "coordinates": [35.2113593882346, 31.7786573367619]}, "properties": {"OBJECTID": 136, "מסשימור": "3", "הגדרה": "מבנה לשימור ומימוד זכויות הבניה באזור"}}, {"type": "Feature", "id": 137, "geometry": {"type": "Point", "coordinates": [35.2122170491436, 31.7784249618553]}, "properties": {"OBJECTID": 137, "מסשימור": "3", "הגדרה": "מבנה לשימור ומימוד זכויות הבניה באזור"}}, {"type": "Feature", "id": 140, "geometry": {"type": "Point", "coordinates": [35.2106603566929, 31.7798338327239]}, "properties": {"OBJECTID": 140, "מסשימור": "3", "הגדרה": "מבנה לשימור ומימוד זכויות הבניה באזור"}}, {"type": "Feature", "id": 141, "geometry": {"type": "Point", "coordinates": [35.2105996470313, 31.7798208717371]}, "properties": {"OBJECTID": 141, "מסשימור": "3", "הגדרה": "מבנה לשימור ומימוד זכויות הבניה באזור"}}, {"type": "Feature", "id": 142, "geometry": {"type": "Point", "coordinates": [35.2105176887684, 31.7797988356194]}, "properties": {"OBJECTID": 142, "מסשימור": "3", "הגדרה": "מבנה לשימור ומימוד זכויות הבניה באזור"}}, {"type": "Feature", "id": 143, "geometry": {"type": "Point", "coordinates": [35.210616360112, 31.7800970163881]}, "properties": {"OBJECTID": 143, "מסשימור": "3", "הגדרה": "מבנה לשימור ומימוד זכויות הבניה באזור"}}, {"type": "Feature", "id": 144, "geometry": {"type": "Point", "coordinates": [35.2104888704915, 31.7800801689579]}, "properties": {"OBJECTID": 144, "מסשימור": "3", "הגדרה": "מבנה לשימור ומימוד זכויות הבניה באזור"}}, {"type": "Feature", "id": 145, "geometry": {"type": "Point", "coordinates": [35.2104311764228, 31.7797664284952]}, "properties": {"OBJECTID": 145, "מסשימור": "3", "הגדרה": "מבנה לשימור ומימוד זכויות הבניה באזור"}}, {"type": "Feature", "id": 146, "geometry": {"type": "Point", "coordinates": [35.2103674304739, 31.7797366130376]}, "properties": {"OBJECTID": 146, "מסשימור": "3", "הגדרה": "מבנה לשימור ומימוד זכויות הבניה באזור"}}, {"type": "Feature", "id": 147, "geometry": {"type": "Point", "coordinates": [35.2102991324253, 31.7797106864972]}, "properties": {"OBJECTID": 147, "מסשימור": "3", "הגדרה": "מבנה לשימור ומימוד זכויות הבניה באזור"}}, {"type": "Feature", "id": 148, "geometry": {"type": "Point", "coordinates": [35.2101230930132, 31.7799557256076]}, "properties": {"OBJECTID": 148, "מסשימור": "3", "הגדרה": "מבנה לשימור ומימוד זכויות הבניה באזור"}}, {"type": "Feature", "id": 149, "geometry": {"type": "Point", "coordinates": [35.2100927424251, 31.7800270319178]}, "properties": {"OBJECTID": 149, "מסשימור": "3", "הגדרה": "מבנה לשימור ומימוד זכויות הבניה באזור"}}, {"type": "Feature", "id": 150, "geometry": {"type": "Point", "coordinates": [35.2100517667489, 31.7800646314906]}, "properties": {"OBJECTID": 150, "מסשימור": "3", "הגדרה": "מבנה לשימור ומימוד זכויות הבניה באזור"}}, {"type": "Feature", "id": 151, "geometry": {"type": "Point", "coordinates": [35.2100472165245, 31.7801177861905]}, "properties": {"OBJECTID": 151, "מסשימור": "3", "הגדרה": "מבנה לשימור ומימוד זכויות הבניה באזור"}}, {"type": "Feature", "id": 152, "geometry": {"type": "Point", "coordinates": [35.210027489833, 31.7801709424647]}, "properties": {"OBJECTID": 152, "מסשימור": "3", "הגדרה": "מבנה לשימור ומימוד זכויות הבניה באזור"}}, {"type": "Feature", "id": 153, "geometry": {"type": "Point", "coordinates": [35.2103841622247, 31.7802966824595]}, "properties": {"OBJECTID": 153, "מסשימור": "3", "הגדרה": "מבנה לשימור ומימוד זכויות הבניה באזור"}}, {"type": "Feature", "id": 154, "geometry": {"type": "Point", "coordinates": [35.2104175463268, 31.7802163007154]}, "properties": {"OBJECTID": 154, "מסשימור": "3", "הגדרה": "מבנה לשימור ומימוד זכויות הבניה באזור"}}, {"type": "Feature", "id": 155, "geometry": {"type": "Point", "coordinates": [35.2103189104937, 31.7804665219733]}, "properties": {"OBJECTID": 155, "מסשימור": "3", "הגדרה": "מבנה לשימור ומימוד זכויות הבניה באזור"}}, {"type": "Feature", "id": 156, "geometry": {"type": "Point", "coordinates": [35.2105177334923, 31.7804768837279]}, "properties": {"OBJECTID": 156, "מסשימור": "3", "הגדרה": "מבנה לשימור ומימוד זכויות הבניה באזור"}}, {"type": "Feature", "id": 157, "geometry": {"type": "Point", "coordinates": [35.2107044036942, 31.7803316710277]}, "properties": {"OBJECTID": 157, "מסשימור": "3", "הגדרה": "מבנה לשימור ומימוד זכויות הבניה באזור"}}, {"type": "Feature", "id": 158, "geometry": {"type": "Point", "coordinates": [35.2108713565863, 31.7803757428117]}, "properties": {"OBJECTID": 158, "מסשימור": "3", "הגדרה": "מבנה לשימור ומימוד זכויות הבניה באזור"}}, {"type": "Feature", "id": 159, "geometry": {"type": "Point", "coordinates": [35.2107226247546, 31.780452240823]}, "properties": {"OBJECTID": 159, "מסשימור": "3", "הגדרה": "מבנה לשימור ומימוד זכויות הבניה באזור"}}, {"type": "Feature", "id": 160, "geometry": {"type": "Point", "coordinates": [35.2106619172185, 31.7804768767067]}, "properties": {"OBJECTID": 160, "מסשימור": "3", "הגדרה": "מבנה לשימור ומימוד זכויות הבניה באזור"}}, {"type": "Feature", "id": 161, "geometry": {"type": "Point", "coordinates": [35.2109199216607, 31.7803498106041]}, "properties": {"OBJECTID": 161, "מסשימור": "3", "הגדרה": "מבנה לשימור ומימוד זכויות הבניה באזור"}}, {"type": "Feature", "id": 162, "geometry": {"type": "Point", "coordinates": [35.2102658033524, 31.7806765505198]}, "properties": {"OBJECTID": 162, "מסשימור": "3", "הגדרה": "מבנה לשימור ומימוד זכויות הבניה באזור"}}, {"type": "Feature", "id": 163, "geometry": {"type": "Point", "coordinates": [35.2101276891333, 31.7806635919568]}, "properties": {"OBJECTID": 163, "מסשימור": "3", "הגדרה": "מבנה לשימור ומימוד זכויות הבניה באזור"}}, {"type": "Feature", "id": 164, "geometry": {"type": "Point", "coordinates": [35.210063945913, 31.7806869317463]}, "properties": {"OBJECTID": 164, "מסשימור": "3", "הגדרה": "מבנה לשימור ומימוד זכויות הבניה באזור"}}, {"type": "Feature", "id": 165, "geometry": {"type": "Point", "coordinates": [35.2099273558395, 31.7807738003536]}, "properties": {"OBJECTID": 165, "מסשימור": "3", "הגדרה": "מבנה לשימור ומימוד זכויות הבניה באזור"}}, {"type": "Feature", "id": 166, "geometry": {"type": "Point", "coordinates": [35.209866646736, 31.7807789885638]}, "properties": {"OBJECTID": 166, "מסשימור": "3", "הגדרה": "מבנה לשימור ומימוד זכויות הבניה באזור"}}, {"type": "Feature", "id": 167, "geometry": {"type": "Point", "coordinates": [35.2098135287811, 31.7808243669534]}, "properties": {"OBJECTID": 167, "מסשימור": "3", "הגדרה": "מבנה לשימור ומימוד זכויות הבניה באזור"}}, {"type": "Feature", "id": 168, "geometry": {"type": "Point", "coordinates": [35.2098089695318, 31.7807076860932]}, "properties": {"OBJECTID": 168, "מסשימור": "3", "הגדרה": "מבנה לשימור ומימוד זכויות הבניה באזור"}}, {"type": "Feature", "id": 169, "geometry": {"type": "Point", "coordinates": [35.2104388178225, 31.7805754190151]}, "properties": {"OBJECTID": 169, "מסשימור": "3", "הגדרה": "מבנה לשימור ומימוד זכויות הבניה באזור"}}, {"type": "Feature", "id": 170, "geometry": {"type": "Point", "coordinates": [35.2103796231292, 31.7805196736259]}, "properties": {"OBJECTID": 170, "מסשימור": "3", "הגדרה": "מבנה לשימור ומימוד זכויות הבניה באזור"}}, {"type": "Feature", "id": 171, "geometry": {"type": "Point", "coordinates": [35.2091184272861, 31.7812003675412]}, "properties": {"OBJECTID": 171, "מסשימור": "3", "הגדרה": "מבנה לשימור ומימוד זכויות הבניה באזור"}}, {"type": "Feature", "id": 172, "geometry": {"type": "Point", "coordinates": [35.2091715469967, 31.781178326375]}, "properties": {"OBJECTID": 172, "מסשימור": "3", "הגדרה": "מבנה לשימור ומימוד זכויות הבניה באזור"}}, {"type": "Feature", "id": 173, "geometry": {"type": "Point", "coordinates": [35.209267162589, 31.7811420218574]}, "properties": {"OBJECTID": 173, "מסשימור": "3", "הגדרה": "מבנה לשימור ומימוד זכויות הבניה באזור"}}, {"type": "Feature", "id": 174, "geometry": {"type": "Point", "coordinates": [35.2093157287178, 31.7811199799034]}, "properties": {"OBJECTID": 174, "מסשימור": "3", "הגדרה": "מבנה לשימור ומימוד זכויות הבניה באזור"}}, {"type": "Feature", "id": 175, "geometry": {"type": "Point", "coordinates": [35.2132844262727, 31.779212672424]}, "properties": {"OBJECTID": 175, "מסשימור": "3", "הגדרה": "מבנה לשימור ומימוד זכויות הבניה באזור"}}, {"type": "Feature", "id": 176, "geometry": {"type": "Point", "coordinates": [35.2131432796477, 31.7792113862599]}, "properties": {"OBJECTID": 176, "מסשימור": "3", "הגדרה": "מבנה לשימור ומימוד זכויות הבניה באזור"}}, {"type": "Feature", "id": 177, "geometry": {"type": "Point", "coordinates": [35.2129505301832, 31.7792075097245]}, "properties": {"OBJECTID": 177, "מסשימור": "3", "הגדרה": "מבנה לשימור ומימוד זכויות הבניה באזור"}}, {"type": "Feature", "id": 178, "geometry": {"type": "Point", "coordinates": [35.2127957242514, 31.7792049272455]}, "properties": {"OBJECTID": 178, "מסשימור": "3", "הגדרה": "מבנה לשימור ומימוד זכויות הבניה באזור"}}, {"type": "Feature", "id": 179, "geometry": {"type": "Point", "coordinates": [35.2126242283471, 31.7792529073709]}, "properties": {"OBJECTID": 179, "מסשימור": "3", "הגדרה": "מבנה לשימור ומימוד זכויות הבניה באזור"}}, {"type": "Feature", "id": 180, "geometry": {"type": "Point", "coordinates": [35.2133757859027, 31.7799098106608]}, "properties": {"OBJECTID": 180, "מסשימור": "3", "הגדרה": "מבנה לשימור ומימוד זכויות הבניה באזור"}}, {"type": "Feature", "id": 181, "geometry": {"type": "Point", "coordinates": [35.213380125222, 31.7797807704567]}, "properties": {"OBJECTID": 181, "מסשימור": "3", "הגדרה": "מבנה לשימור ומימוד זכויות הבניה באזור"}}, {"type": "Feature", "id": 182, "geometry": {"type": "Point", "coordinates": [35.212993171685, 31.7807814084816]}, "properties": {"OBJECTID": 182, "מסשימור": "2", "הגדרה": "מבנה לשימור עם אפשרות לתוספת בניה בהתאם לתוכנית"}}, {"type": "Feature", "id": 183, "geometry": {"type": "Point", "coordinates": [35.214123941596, 31.780201291041]}, "properties": {"OBJECTID": 183, "מסשימור": "2", "הגדרה": "מבנה לשימור עם אפשרות לתוספת בניה בהתאם לתוכנית"}}, {"type": "Feature", "id": 184, "geometry": {"type": "Point", "coordinates": [35.214045942887, 31.7800122504035]}, "properties": {"OBJECTID": 184, "מסשימור": "2", "הגדרה": "מבנה לשימור עם אפשרות לתוספת בניה בהתאם לתוכנית"}}, {"type": "Feature", "id": 185, "geometry": {"type": "Point", "coordinates": [35.213673219583, 31.7800063376973]}, "properties": {"OBJECTID": 185, "מסשימור": "2", "הגדרה": "מבנה לשימור עם אפשרות לתוספת בניה בהתאם לתוכנית"}}, {"type": "Feature", "id": 186, "geometry": {"type": "Point", "coordinates": [35.2139644853662, 31.779818431118]}, "properties": {"OBJECTID": 186, "מסשימור": "2", "הגדרה": "מבנה לשימור עם אפשרות לתוספת בניה בהתאם לתוכנית"}}, {"type": "Feature", "id": 187, "geometry": {"type": "Point", "coordinates": [35.2142792948052, 31.7796262734684]}, "properties": {"OBJECTID": 187, "מסשימור": "2", "הגדרה": "מבנה לשימור עם אפשרות לתוספת בניה בהתאם לתוכנית"}}, {"type": "Feature", "id": 188, "geometry": {"type": "Point", "coordinates": [35.2134938522923, 31.7794106342517]}, "properties": {"OBJECTID": 188, "מסשימור": "2", "הגדרה": "מבנה לשימור עם אפשרות לתוספת בניה בהתאם לתוכנית"}}, {"type": "Feature", "id": 189, "geometry": {"type": "Point", "coordinates": [35.2122382319742, 31.780819008999]}, "properties": {"OBJECTID": 189, "מסשימור": "2", "הגדרה": "מבנה לשימור עם אפשרות לתוספת בניה בהתאם לתוכנית"}}, {"type": "Feature", "id": 190, "geometry": {"type": "Point", "coordinates": [35.2144151392093, 31.7794235064669]}, "properties": {"OBJECTID": 190, "מסשימור": "1", "הגדרה": "מבנה לשימור ללא תוספת בניה"}}, {"type": "Feature", "id": 191, "geometry": {"type": "Point", "coordinates": [35.2124134237825, 31.7803648680567]}, "properties": {"OBJECTID": 191, "מסשימור": "2", "הגדרה": "מבנה לשימור עם אפשרות לתוספת בניה בהתאם לתוכנית"}}]}