{"type": "FeatureCollection", "features": [{"type": "Feature", "geometry": {"type": "Polygon", "coordinates": [[[35.21091874185893, 31.74755410432979], [35.211344527957145, 31.747234734612856], [35.21132734444844, 31.74722372355097], [35.21131848413796, 31.747218218033773], [35.21131365185234, 31.747221888962816], [35.210960888511465, 31.747486653818285], [35.21095713004168, 31.747489636404048], [35.210953371571634, 31.747492618989682], [35.210949881562236, 31.747495831050973], [35.21094665999727, 31.74749904290385], [35.21094370687678, 31.747502254937334], [35.210941022314614, 31.747505466956913], [35.21093833775223, 31.747508678781955], [35.210935921634416, 31.747511890787635], [35.210933774074974, 31.747515102779477], [35.21093189496012, 31.747518314757492], [35.21093001584513, 31.747521526540996], [35.210928136616225, 31.747524738518933], [35.21092679450433, 31.747527950469312], [35.21092518383376, 31.74753116223895], [35.210923841607865, 31.747534374189293], [35.210922767940495, 31.747537586125834], [35.21092169427304, 31.747540798062367], [35.21092088905033, 31.747544009790644], [35.21092008382756, 31.7475472217134], [35.21091927860474, 31.747550433636157], [35.21091874182672, 31.747553645350653], [35.21091874185893, 31.74755410432979]]]}, "properties": {"pl_number": "101-1219724", "easement_id": "101-1219724_E1", "source": "pdf_vector_outline", "vertex_count": 28, "plan_name_he": "עירוב שימושים שער האומן, תלפיות", "minahak": "א.ת. תלפיות", "mavat_url": "https://mavat.iplan.gov.il/SV4/1/1005307320/310", "taba": 1219724, "status_mavat": "אישור"}}, {"type": "Feature", "geometry": {"type": "Polygon", "coordinates": [[[35.212370109961675, 31.74712455469713], [35.21194380489783, 31.747615072247214], [35.211622999464254, 31.747984221313953], [35.211619509363565, 31.74798766268841], [35.211579508266624, 31.748021389219193], [35.211583266915355, 31.74802070073284], [35.211588367987105, 31.74801955338592], [35.21159346902316, 31.748017947059683], [35.21159830161289, 31.748016340942925], [35.21160286562466, 31.748014505351662], [35.21160742961847, 31.74801244027067], [35.21161199370803, 31.748010145894444], [35.21161628921962, 31.74800762204377], [35.21162058471312, 31.74800486889785], [35.211624611646435, 31.748002115572575], [35.21162837022932, 31.747999132967376], [35.21163212868032, 31.74799592106697], [35.211635618667046, 31.747992479497718], [35.211956424174154, 31.747623101104605], [35.21238299776569, 31.74713258349609], [35.21237118386529, 31.74712340757092], [35.212370109961675, 31.74712455469713]]]}, "properties": {"pl_number": "101-1219724", "easement_id": "101-1219724_E2", "source": "pdf_vector_outline", "vertex_count": 22, "plan_name_he": "עירוב שימושים שער האומן, תלפיות", "minahak": "א.ת. תלפיות", "mavat_url": "https://mavat.iplan.gov.il/SV4/1/1005307320/310", "taba": 1219724, "status_mavat": "אישור"}}, {"type": "Feature", "geometry": {"type": "Polygon", "coordinates": [[[35.211880382435695, 31.746854561934995], [35.21187957673479, 31.746851349906077], [35.211878771033945, 31.746848138266117], [35.21187823366216, 31.74684492641587], [35.21187796507459, 31.746841714549845], [35.211877696259464, 31.746838502878298], [35.21187769600091, 31.746835290996486], [35.211877964298935, 31.746832079098883], [35.21187823236935, 31.746828867395784], [35.211878500667325, 31.746825655498185], [35.21187930585078, 31.746822443569013], [35.21188011103417, 31.74681923183431], [35.21188118454643, 31.74681601988936], [35.21188225828619, 31.74681280794436], [35.2118838689113, 31.746809596162265], [35.211885479536264, 31.746806383991178], [35.21188735871765, 31.746803172193236], [35.21188950622775, 31.74679996037946], [35.21189192229415, 31.746796748160854], [35.21189460668928, 31.74679353631538], [35.21189755964064, 31.746790324259543], [35.211895948577514, 31.746785277333835], [35.21131848413796, 31.747218218033773], [35.21132734444844, 31.74722372355097], [35.21160090906665, 31.747018610410535], [35.21160466753236, 31.74701608659023], [35.211608426111674, 31.74701356276983], [35.21161218459479, 31.74701126843889], [35.21161594307773, 31.747008974107846], [35.21161970167429, 31.7470066797767], [35.211623460156844, 31.747004385250946], [35.211627218753016, 31.747002090919565], [35.21163097723522, 31.746999796588057], [35.211634735735096, 31.746997731551552], [35.21163849434861, 31.746995666709427], [35.211642252830266, 31.746993372377602], [35.211646011329634, 31.74699130734077], [35.21164976996054, 31.746989471793388], [35.21165352845958, 31.74698740675633], [35.21165728697638, 31.746985571208743], [35.21166104562477, 31.746983965150605], [35.21166480415924, 31.74698235909239], [35.211668562825295, 31.746980982329138], [35.21167232137746, 31.746979605565773], [35.211676079947516, 31.746978458291895], [35.21167983863124, 31.746977311017915], [35.21168359720107, 31.746976163743803], [35.21168735590261, 31.746975245764673], [35.2116911145083, 31.746974557469525], [35.211694873113935, 31.74697386897977], [35.21169863183329, 31.7469731804899], [35.21170239045686, 31.7469727214895], [35.21170614908036, 31.746972262294513], [35.21170990781762, 31.746971803293903], [35.21171366645914, 31.746971573782748], [35.21171742521442, 31.74697134407701], [35.21172118387396, 31.746971343860757], [35.2117249425335, 31.746971343644365], [35.211728701306846, 31.746971343427884], [35.211732459984496, 31.746971572700865], [35.211736218662175, 31.746971801779267], [35.21173997747179, 31.746972260347118], [35.21174373616765, 31.74697271910935], [35.21174749486354, 31.746973177676992], [35.21175125369143, 31.74697386573411], [35.21175501238741, 31.746974324301522], [35.21175877117905, 31.746974553573725], [35.2117625298569, 31.746974782651332], [35.21176628853477, 31.746975011923322], [35.21177004730828, 31.74697501170562], [35.211773805967965, 31.746975011487795], [35.21177756460943, 31.7469747817803], [35.21178132323265, 31.74697432277757], [35.21178508208344, 31.746973863774727], [35.21178884070658, 31.746973404577293], [35.21179259931145, 31.746972716279142], [35.21179635791625, 31.74697202778639], [35.21180011652099, 31.74697133929353], [35.21180387533497, 31.746970421310973], [35.21180763390302, 31.746969274033212], [35.211811392470956, 31.746968126755345], [35.2118151510388, 31.746966979477357], [35.211818909588224, 31.74696560270967], [35.21182266811923, 31.746963996646794], [35.211826426877685, 31.746962390583775], [35.21183018539008, 31.746960555031084], [35.21183394388393, 31.74695848998869], [35.21183770235928, 31.746956195651066], [35.211841460816046, 31.746953671823793], [35.21184521950021, 31.746951147996356], [35.21184897791978, 31.746948165384165], [35.211852736339104, 31.746945182771846], [35.21185595785361, 31.746941970701283], [35.211859179367906, 31.746938758825173], [35.21186213232511, 31.746935546770196], [35.211864816725246, 31.746932334730914], [35.21186723279595, 31.74692912270736], [35.21186938053726, 31.74692591089396], [35.21187152805082, 31.746922698886067], [35.21187340700742, 31.74691948689392], [35.21187501763466, 31.746916275111985], [35.21187662826181, 31.746913063135555], [35.211877970559655, 31.74690985117486], [35.211879312629804, 31.746906639408657], [35.21188038637068, 31.74690342746372], [35.21188119132713, 31.74690021553459], [35.211881996511124, 31.746897003605437], [35.21188280169507, 31.74689379187078], [35.21188333854981, 31.746890579957388], [35.2118836066202, 31.746887368059834], [35.211883874918165, 31.746884156356707], [35.21188414321611, 31.746880944459143], [35.21188414295734, 31.746877732577335], [35.21188414269856, 31.746874520695542], [35.21188387388314, 31.746871309024044], [35.21188333673862, 31.746868097173824], [35.211883067923225, 31.746864885307836], [35.211882262222154, 31.74686167366789], [35.21188172507777, 31.746858461817673], [35.211880650820156, 31.746855249999033], [35.211880382435695, 31.746854561934995]]]}, "properties": {"pl_number": "101-1219724", "easement_id": "101-1219724_E3", "source": "pdf_vector_outline", "vertex_count": 121, "plan_name_he": "עירוב שימושים שער האומן, תלפיות", "minahak": "א.ת. תלפיות", "mavat_url": "https://mavat.iplan.gov.il/SV4/1/1005307320/310", "taba": 1219724, "status_mavat": "אישור"}}]}