{"type": "FeatureCollection", "features": [{"type": "Feature", "properties": {"name": "גילה", "source": "SHEM_1_גילה.gpkg", "purpose": "detect_new_plans exclusion (out of Oranim scope)"}, "geometry": {"type": "Polygon", "coordinates": [[[35.17476680728369, 31.738764923167867], [35.17471039074936, 31.73916211484522], [35.17469800511388, 31.74003134317936], [35.17497615581355, 31.74113864232417], [35.17537557826892, 31.74168717633686], [35.17633207487613, 31.742049570112158], [35.177700384542895, 31.74207056045558], [35.17787000760081, 31.741729111805512], [35.17879044991514, 31.74113946549623], [35.178705774067474, 31.74082900860961], [35.179089465339146, 31.74054364105726], [35.17940463969641, 31.740439908826843], [35.17978361062651, 31.740260082229987], [35.17995393268266, 31.74017695122881], [35.18003792628654, 31.740135954935383], [35.18034396764434, 31.74000001188861], [35.180559114316445, 31.73995086558917], [35.18031678437384, 31.73954239631963], [35.18056236296713, 31.739429653929548], [35.181332786129396, 31.739420146766385], [35.18143429448663, 31.739437743880995], [35.18151523771867, 31.739449572622593], [35.18159437805055, 31.739459061600463], [35.18168297662, 31.739569531068824], [35.1816974656828, 31.73956998547426], [35.181955497666756, 31.73957804405747], [35.18197073915165, 31.73957851750304], [35.18212827539503, 31.739583051641564], [35.18231611639841, 31.73956135521972], [35.182562262268604, 31.739503518000483], [35.182576131682836, 31.7395002629051], [35.182647012440306, 31.739649610880342], [35.18298028743209, 31.739514391218115], [35.183150428172624, 31.73934254035609], [35.18321025503894, 31.739313223162668], [35.18375830350937, 31.73904469714134], [35.18438327178447, 31.738736212807606], [35.18564428891742, 31.738538807182845], [35.186999980181795, 31.738325356367874], [35.18700555432915, 31.738324478729496], [35.1868501582287, 31.738553827720192], [35.18682062955776, 31.738597409903676], [35.186753357555354, 31.738942155846246], [35.18698858361664, 31.739373062521995], [35.18750960463469, 31.739689215369168], [35.18873700095611, 31.739875959534867], [35.18947625760503, 31.739531458925562], [35.189795642008185, 31.73898564422577], [35.1899243150842, 31.738510943043067], [35.18999815405379, 31.738238538680363], [35.19005091536895, 31.73824161270871], [35.19154244886243, 31.738323022735294], [35.191250604268426, 31.738852612375613], [35.191482639147374, 31.7388839265522], [35.19175159997902, 31.73899857279789], [35.19206260656125, 31.73887976782262], [35.19221559785157, 31.738821327530918], [35.192691427131415, 31.738675364913377], [35.19299437881961, 31.73863220562243], [35.1930989616737, 31.738526613189954], [35.19343761523672, 31.738184953753414], [35.19346969726046, 31.73818938096575], [35.193973391080306, 31.737799034390342], [35.19415386116308, 31.737631677061607], [35.194133074900876, 31.737589108220586], [35.194165250215804, 31.73757846540513], [35.194225193816365, 31.737558998423587], [35.194266240003586, 31.73754566788415], [35.194355831913256, 31.737481991954045], [35.19446062128182, 31.737392362894077], [35.194614164988366, 31.737321585192248], [35.194670937798655, 31.73730698322092], [35.19472897060975, 31.73729209723801], [35.194735837457806, 31.737289936933088], [35.194825531702094, 31.737262087447153], [35.194833016165205, 31.737298243951617], [35.19486613152484, 31.737545709600056], [35.19489850046644, 31.737767179440525], [35.19494204753522, 31.738004533419407], [35.19494479922091, 31.738019593562584], [35.19496734931948, 31.738197698242455], [35.19499878883278, 31.73837923689893], [35.19501809146623, 31.7384789690383], [35.19502990438681, 31.738530380579423], [35.19503517259839, 31.738559429448255], [35.195050667167386, 31.73864490490807], [35.195076623087246, 31.738780167574884], [35.19509623140651, 31.738937904691227], [35.19512448655941, 31.73913007042401], [35.19514590302489, 31.73927435841715], [35.19519178214353, 31.739473296465654], [35.19519864318961, 31.73949936122807], [35.195201804686114, 31.739511668054185], [35.19522870011539, 31.739616414055977], [35.195251277259196, 31.739700468675863], [35.1952702636058, 31.739770352319436], [35.19533568085379, 31.739927536203858], [35.195402535057774, 31.74009074899588], [35.19540286423072, 31.7400915814234], [35.19541571780094, 31.740124132673795], [35.19545140040614, 31.74021449117839], [35.19545942022273, 31.740230356121508], [35.195528515721264, 31.7403666326473], [35.19554076600433, 31.740385303523226], [35.195594464560095, 31.740480000212816], [35.195599748608565, 31.740489649432146], [35.19560417682459, 31.740499111008226], [35.1956445819705, 31.74054744914709], [35.19572027169383, 31.740511922469775], [35.19599726371697, 31.740381910081688], [35.196088535521206, 31.740349048263923], [35.19614017625766, 31.740330454640464], [35.19624555461826, 31.74029251442286], [35.19633577830081, 31.740260029332426], [35.196423005235076, 31.740235574031598], [35.19650177624502, 31.740220702972305], [35.19659116191899, 31.740187516914126], [35.19667168335872, 31.740111951589025], [35.196666204600824, 31.740031332494443], [35.19806999430949, 31.7398103789525], [35.19807224206523, 31.739810737998813], [35.19815251227751, 31.73982364286539], [35.19850380907306, 31.73971752215031], [35.1985936079775, 31.739655300656366], [35.19859794422052, 31.73955286010351], [35.198530208302735, 31.739298634574997], [35.19853022796389, 31.738986170876313], [35.19854110130141, 31.738991494074384], [35.19856190207778, 31.738856218931296], [35.19856201320526, 31.738530670321268], [35.19865889679306, 31.738525448510828], [35.198831837256954, 31.73845610595794], [35.199356723377285, 31.73802336126297], [35.199484731862384, 31.737915693861563], [35.19982630975408, 31.737628306901883], [35.1998336621303, 31.73762212049547], [35.19983370539858, 31.737622076306568], [35.199928251853514, 31.73752343023064], [35.1999406270488, 31.737500390279685], [35.19998882333969, 31.73741070869302], [35.20003738368996, 31.737093371182485], [35.200035888807705, 31.73694875186126], [35.200030764507886, 31.73645139210336], [35.19997627403725, 31.735964093417135], [35.199972699303146, 31.73593213002947], [35.19997265499951, 31.73593177289652], [35.199957778352136, 31.735814716236497], [35.20147946144898, 31.73577337697565], [35.20216205379108, 31.73574498253569], [35.20247017199541, 31.735588521577167], [35.2025953178653, 31.735434770185332], [35.202603337926504, 31.735424853586572], [35.202769845560944, 31.735161621951615], [35.20273652688695, 31.734471484732754], [35.20272174326954, 31.73445867560352], [35.202675161707695, 31.734418500395286], [35.202674375570325, 31.734417822195606], [35.2026763659467, 31.734406732206182], [35.20268196918954, 31.734351991954114], [35.20266076157921, 31.73432602568116], [35.202736533194056, 31.734115714988466], [35.20280311842282, 31.73385961733912], [35.20275542366417, 31.733710195958146], [35.20277230349236, 31.733685840882433], [35.20284807478604, 31.733065144418912], [35.20283647318487, 31.732906249572192], [35.20291138620609, 31.732842116477702], [35.202969272155215, 31.73277810399787], [35.20305287508597, 31.73268567093965], [35.203194391708756, 31.73255048810078], [35.203204196521206, 31.732485656174813], [35.203227731815815, 31.732329919940685], [35.20321558921421, 31.732185087614944], [35.203204406756576, 31.732050717628013], [35.20302176907928, 31.732063702408563], [35.20286644750689, 31.732077769473335], [35.20270374053343, 31.732089128904917], [35.20263157023076, 31.73182978090061], [35.202471625041625, 31.731640485280867], [35.20224362140057, 31.73130014777424], [35.20207944134402, 31.731066220031575], [35.201799834644305, 31.73067285390806], [35.20164821135639, 31.73044226177647], [35.20147879085317, 31.730215729170602], [35.20128497000732, 31.729926612905462], [35.20109242534138, 31.72965832364242], [35.20087550490526, 31.72936640859788], [35.2005531884462, 31.728952655783612], [35.20038827481046, 31.7287474938072], [35.20014720002803, 31.72851563980724], [35.19989756430446, 31.72831669528464], [35.19967242118461, 31.728135788138815], [35.199422362633236, 31.727969495876135], [35.199037380570864, 31.727731038847388], [35.19848462307498, 31.727495464314913], [35.198053431048876, 31.727313995354255], [35.197690913300164, 31.72716005206455], [35.19734094519416, 31.727054066925234], [35.197013349423514, 31.726958280220522], [35.19664682573455, 31.726848869699158], [35.19626478639309, 31.72673386747833], [35.19599839006863, 31.726675780209675], [35.19570899024902, 31.726612630548576], [35.19523114687863, 31.726519626474758], [35.1947301009527, 31.726394513951124], [35.194368109970746, 31.726312778547925], [35.19427864574439, 31.72629076548174], [35.19407386286542, 31.72624088407531], [35.19396751273344, 31.726214897682766], [35.19358948789274, 31.72614443636978], [35.19315260253537, 31.726031047087417], [35.19285117038, 31.72595328714109], [35.192133325986276, 31.725782869999538], [35.191706256184005, 31.72568994054223], [35.19125975835337, 31.72557941709828], [35.19117451073658, 31.725558048910802], [35.19116645085544, 31.725556008995675], [35.191014034864196, 31.725517448091555], [35.19091095732548, 31.725491469409942], [35.19055890125651, 31.725414778188522], [35.18835698421392, 31.724751345960218], [35.18835335391294, 31.724767498514677], [35.188244643979516, 31.72525056270618], [35.18802735012029, 31.72555217809357], [35.18789154950311, 31.725645064519032], [35.187375708638726, 31.725679790042545], [35.186787416633365, 31.72568575797722], [35.18624837634057, 31.725690907728605], [35.18498565619192, 31.72573715978853], [35.18413029759201, 31.725818285993533], [35.184318730633116, 31.72925891552006], [35.18371901202833, 31.729210121704636], [35.18314696008652, 31.729104072252362], [35.18234091979917, 31.729282034142066], [35.18184498717308, 31.72963819628748], [35.18129089486073, 31.730319490969254], [35.18046653682243, 31.732909787182887], [35.179192345763724, 31.732870941716097], [35.17877996778688, 31.73334735603787], [35.17772092046088, 31.733331370072257], [35.177591734809305, 31.73342323581769], [35.17746370281713, 31.733546026020676], [35.17727658927099, 31.73368748350382], [35.1771034021656, 31.733824962034834], [35.176940445697554, 31.733931434314837], [35.176739599195, 31.734046904920348], [35.17655736225793, 31.73413767587109], [35.17632275768406, 31.734260994431825], [35.176147151650504, 31.7343635732367], [35.176028418587705, 31.73444750885254], [35.1758057335465, 31.734577673225044], [35.17566021148152, 31.734662143593166], [35.17554768682095, 31.734759060442617], [35.17547611298414, 31.73488195247032], [35.175351135243666, 31.735042266172012], [35.17527017213314, 31.735145869036376], [35.175092358359265, 31.73552168209019], [35.17507861647674, 31.735603568448685], [35.17507544779538, 31.735622951118952], [35.174988331816195, 31.7361374032178], [35.17490924000457, 31.7366588959864], [35.17489918388059, 31.736733924617493], [35.17489472559988, 31.736843220214986], [35.17488151529522, 31.73691481838885], [35.17485920150276, 31.737071988896904], [35.17486506236356, 31.73722529970894], [35.17485445745543, 31.737363361884213], [35.17483942663892, 31.737544882124674], [35.17481268179324, 31.737681317222457], [35.1747873269734, 31.737770318200898], [35.17477369057354, 31.737860404112457], [35.174791051628965, 31.73802399953495], [35.17477822277943, 31.73820272363395], [35.17476680728369, 31.738764923167867]]]}}]}