{
 "type": "FeatureCollection",
 "name": "givat_hamatos_companies_plots",
 "crs": {
  "type": "name",
  "properties": {
   "name": "urn:ogc:def:crs:OGC:1.3:CRS84"
  }
 },
 "features": [
  {
   "type": "Feature",
   "geometry": {
    "type": "Polygon",
    "coordinates": [
     [
      [
       35.20769988812228,
       31.736193854614573
      ],
      [
       35.20764854471347,
       31.736224331156876
      ],
      [
       35.207580467602966,
       31.73627150128829
      ],
      [
       35.20758040428907,
       31.736271542774855
      ],
      [
       35.20732517885615,
       31.73603073953258
      ],
      [
       35.20734805846724,
       31.736018695736078
      ],
      [
       35.207445365004546,
       31.735941309542767
      ],
      [
       35.20769988812228,
       31.736193854614573
      ]
     ]
    ]
   },
   "properties": {
    "row_num": 68,
    "plot_num": "50+50A*",
    "matched_xplan_num": "50",
    "area_sqm_table": 689,
    "designation_table": "מגורים",
    "units_yachd": 9,
    "owners": "מסקור הולדינס בע\"מ",
    "family_type": "company_israeli",
    "ownership_category": "companies",
    "ownership_label": "חברות פרטיות",
    "confidence": "medium",
    "notes": "Holdings Ltd - excluded",
    "mavat_name": "מגורים ב'",
    "mavat_code": 60,
    "legal_area_xplan": 0,
    "pl_number": "101-0979336"
   }
  },
  {
   "type": "Feature",
   "geometry": {
    "type": "Polygon",
    "coordinates": [
     [
      [
       35.20988377557385,
       31.740791613634855
      ],
      [
       35.20971469486464,
       31.740838394185666
      ],
      [
       35.209693058752,
       31.740797940966058
      ],
      [
       35.20966657048162,
       31.740759654178937
      ],
      [
       35.20963552345663,
       31.7407239558733
      ],
      [
       35.209600261731474,
       31.74069124104057
      ],
      [
       35.2095583137176,
       31.740660355414242
      ],
      [
       35.20951183031548,
       31.740634643849543
      ],
      [
       35.20946167900808,
       31.74061458879487
      ],
      [
       35.20940879691939,
       31.740600561769597
      ],
      [
       35.209354171819676,
       31.740592826972904
      ],
      [
       35.20930576072325,
       31.74059190716616
      ],
      [
       35.20925760951024,
       31.740596282973236
      ],
      [
       35.20897353947194,
       31.740661585405473
      ],
      [
       35.208963463493134,
       31.74066316760684
      ],
      [
       35.20895322070651,
       31.74066334112932
      ],
      [
       35.20894307915981,
       31.740662099650322
      ],
      [
       35.208933304792126,
       31.740659477430544
      ],
      [
       35.208924152991145,
       31.740655543001303
      ],
      [
       35.2089158633164,
       31.740650397360973
      ],
      [
       35.20890865422289,
       31.74064417758265
      ],
      [
       35.20890271250763,
       31.740637045992205
      ],
      [
       35.20889819436462,
       31.740629188364654
      ],
      [
       35.208895217997764,
       31.740620810316926
      ],
      [
       35.20889386150999,
       31.74061213279874
      ],
      [
       35.20888181934213,
       31.740414042655924
      ],
      [
       35.20889034179449,
       31.740410492687
      ],
      [
       35.20888998507152,
       31.740409859603403
      ],
      [
       35.20896376805977,
       31.74037613963786
      ],
      [
       35.20904105491349,
       31.740348745052362
      ],
      [
       35.2091211058923,
       31.7403279392073
      ],
      [
       35.20920315381741,
       31.740313921434648
      ],
      [
       35.209286412513414,
       31.74030682613596
      ],
      [
       35.209370083139,
       31.740306720978673
      ],
      [
       35.20944709515122,
       31.740312842379325
      ],
      [
       35.20952314506582,
       31.740324887099817
      ],
      [
       35.209597609208096,
       31.740342757767948
      ],
      [
       35.2096698786734,
       31.740366307410717
      ],
      [
       35.20973936143755,
       31.740395343061593
      ],
      [
       35.20980548868809,
       31.740429626661804
      ],
      [
       35.20986608009266,
       31.740467746018844
      ],
      [
       35.209922513912595,
       31.740510271047555
      ],
      [
       35.20997435323443,
       31.74055687259856
      ],
      [
       35.21002119702032,
       31.74060718905477
      ],
      [
       35.21006268221891,
       31.74066083084014
      ],
      [
       35.21006801735287,
       31.74067007272414
      ],
      [
       35.21007152157034,
       31.74067993335631
      ],
      [
       35.2100731019879,
       31.740690150303678
      ],
      [
       35.21007271637596,
       31.7407004503087
      ],
      [
       35.21007037527017,
       31.740710559209607
      ],
      [
       35.21006613986125,
       31.740720208253286
      ],
      [
       35.21006012516128,
       31.740729139506417
      ],
      [
       35.210052489451414,
       31.74073711577608
      ],
      [
       35.21004343639265,
       31.740743924217167
      ],
      [
       35.21003320869452,
       31.74074938354751
      ],
      [
       35.210022077562144,
       31.740753347655687
      ],
      [
       35.21002207545151,
       31.74075334765578
      ],
      [
       35.20994755727035,
       31.740773965337905
      ],
      [
       35.209940591430815,
       31.740760324313424
      ],
      [
       35.20988377557385,
       31.740791613634855
      ]
     ]
    ]
   },
   "properties": {
    "row_num": 77,
    "plot_num": "5",
    "matched_xplan_num": "5",
    "area_sqm_table": 1157,
    "designation_table": "מגורים",
    "units_yachd": 18,
    "owners": "פסגות ירושלים בע\"מ",
    "family_type": "company_israeli",
    "ownership_category": "companies",
    "ownership_label": "חברות פרטיות",
    "confidence": "high",
    "notes": "Excluded",
    "mavat_name": "מגורים ג'",
    "mavat_code": 100,
    "legal_area_xplan": 0,
    "pl_number": "101-0979336"
   }
  },
  {
   "type": "Feature",
   "geometry": {
    "type": "Polygon",
    "coordinates": [
     [
      [
       35.218227028664074,
       31.73936263215582
      ],
      [
       35.2174619324841,
       31.739378789303732
      ],
      [
       35.21732995128675,
       31.739529176680538
      ],
      [
       35.21725052410514,
       31.73941049269909
      ],
      [
       35.21723643247445,
       31.739385210852458
      ],
      [
       35.21722708944446,
       31.73935837013468
      ],
      [
       35.21722271987757,
       31.739330617148095
      ],
      [
       35.217223430446154,
       31.7393026210527
      ],
      [
       35.21722920329863,
       31.739275055529557
      ],
      [
       35.217248070359275,
       31.739202994278557
      ],
      [
       35.21822700179259,
       31.739182003107206
      ],
      [
       35.218227028664074,
       31.73936263215582
      ]
     ]
    ]
   },
   "properties": {
    "row_num": 78,
    "plot_num": "6",
    "matched_xplan_num": "6",
    "area_sqm_table": 1157,
    "designation_table": "מגורים",
    "units_yachd": 18,
    "owners": "פסגות ירושלים בע\"מ",
    "family_type": "company_israeli",
    "ownership_category": "companies",
    "ownership_label": "חברות פרטיות",
    "confidence": "high",
    "notes": "Excluded",
    "mavat_name": "מגורים",
    "mavat_code": 10,
    "legal_area_xplan": 2.066,
    "pl_number": "151-0347427"
   }
  },
  {
   "type": "Feature",
   "geometry": {
    "type": "Polygon",
    "coordinates": [
     [
      [
       35.21746127713361,
       31.73973159715622
      ],
      [
       35.217450265532555,
       31.73971191097612
      ],
      [
       35.217352672287184,
       31.739563410268957
      ],
      [
       35.217483427444655,
       31.739414420857695
      ],
      [
       35.218227034032275,
       31.739398716840732
      ],
      [
       35.21822705838951,
       31.739562443475332
      ],
      [
       35.21767889404342,
       31.739586133841623
      ],
      [
       35.21746127713361,
       31.73973159715622
      ]
     ]
    ]
   },
   "properties": {
    "row_num": 79,
    "plot_num": "7",
    "matched_xplan_num": "7",
    "area_sqm_table": 1433,
    "designation_table": "מגורים",
    "units_yachd": 18,
    "owners": "פסגות ירושלים בע\"מ",
    "family_type": "company_israeli",
    "ownership_category": "companies",
    "ownership_label": "חברות פרטיות",
    "confidence": "high",
    "notes": "Excluded",
    "mavat_name": "מגורים",
    "mavat_code": 10,
    "legal_area_xplan": 1.703,
    "pl_number": "151-0347427"
   }
  },
  {
   "type": "Feature",
   "geometry": {
    "type": "Polygon",
    "coordinates": [
     [
      [
       35.20751434363154,
       31.74060997007986
      ],
      [
       35.20744054853758,
       31.740585986366018
      ],
      [
       35.207369461220026,
       31.740556629344823
      ],
      [
       35.20730161778997,
       31.740522120862725
      ],
      [
       35.20723752691927,
       31.740482718841484
      ],
      [
       35.207237533251195,
       31.74048272244873
      ],
      [
       35.20717451125097,
       31.740436468142303
      ],
      [
       35.207174502808094,
       31.74043645371295
      ],
      [
       35.20710733532795,
       31.740379458472564
      ],
      [
       35.20704520265877,
       31.74031843454296
      ],
      [
       35.20698843511704,
       31.740253706589325
      ],
      [
       35.206937333468254,
       31.740185617314356
      ],
      [
       35.20727411455154,
       31.739948110640583
      ],
      [
       35.20731136666707,
       31.739985355148168
      ],
      [
       35.20735396692157,
       31.740018146201972
      ],
      [
       35.20740119347236,
       31.74004592737449
      ],
      [
       35.20745224532859,
       31.74006822701421
      ],
      [
       35.20750625501556,
       31.740084666362375
      ],
      [
       35.207506280342905,
       31.740084671772827
      ],
      [
       35.207506305670314,
       31.74008467898696
      ],
      [
       35.20754708797453,
       31.740092812635414
      ],
      [
       35.20758858988443,
       31.74009759679476
      ],
      [
       35.20751434363154,
       31.74060997007986
      ]
     ]
    ]
   },
   "properties": {
    "row_num": 80,
    "plot_num": "14",
    "matched_xplan_num": "14",
    "area_sqm_table": 2605,
    "designation_table": "מגורים",
    "units_yachd": 44,
    "owners": "פסגות ירושלים בע\"מ",
    "family_type": "company_israeli",
    "ownership_category": "companies",
    "ownership_label": "חברות פרטיות",
    "confidence": "high",
    "notes": "Excluded",
    "mavat_name": "מגורים ג'",
    "mavat_code": 100,
    "legal_area_xplan": 0,
    "pl_number": "101-0979336"
   }
  },
  {
   "type": "Feature",
   "geometry": {
    "type": "Polygon",
    "coordinates": [
     [
      [
       35.206047784631984,
       31.739450058973627
      ],
      [
       35.20595284271583,
       31.739483872212677
      ],
      [
       35.2059284794108,
       31.739433921032564
      ],
      [
       35.20582135735545,
       31.73947207941799
      ],
      [
       35.20576391801136,
       31.73934351731417
      ],
      [
       35.20571442300785,
       31.739212565205378
      ],
      [
       35.205673255401884,
       31.739080468547048
      ],
      [
       35.20564017138163,
       31.738946723217364
      ],
      [
       35.205810187832874,
       31.738902332530362
      ],
      [
       35.20583037325242,
       31.738897061910343
      ],
      [
       35.20603862865052,
       31.738842687034744
      ],
      [
       35.206068113645664,
       31.738919413056205
      ],
      [
       35.20610130800121,
       31.738995025239273
      ],
      [
       35.206138152626416,
       31.739069391912274
      ],
      [
       35.20613814840529,
       31.739069391912334
      ],
      [
       35.20619795783083,
       31.739175165958848
      ],
      [
       35.206265171238925,
       31.739277640911354
      ],
      [
       35.206143132416514,
       31.739342068775745
      ],
      [
       35.20599713124711,
       31.73936419481265
      ],
      [
       35.20600262319321,
       31.739376409353135
      ],
      [
       35.206020194294624,
       31.739405226734192
      ],
      [
       35.20602813453439,
       31.739418132056425
      ],
      [
       35.206047784631984,
       31.739450058973627
      ]
     ]
    ]
   },
   "properties": {
    "row_num": 111,
    "plot_num": "108",
    "matched_xplan_num": "108",
    "area_sqm_table": 654,
    "designation_table": "מגורים",
    "units_yachd": 7,
    "owners": "פסגות ירושלים בע\"מ",
    "family_type": "company_israeli",
    "ownership_category": "companies",
    "ownership_label": "חברות פרטיות",
    "confidence": "high",
    "notes": "Excluded (ID 511984973)",
    "mavat_name": "מגורים ב'",
    "mavat_code": 60,
    "legal_area_xplan": 0,
    "pl_number": "101-0979336"
   }
  },
  {
   "type": "Feature",
   "geometry": {
    "type": "Polygon",
    "coordinates": [
     [
      [
       35.218546169683755,
       31.742011204515425
      ],
      [
       35.218546194392545,
       31.74217353682842
      ],
      [
       35.21843010890727,
       31.742173549679446
      ],
      [
       35.21843008440094,
       31.742011217366375
      ],
      [
       35.218546169683755,
       31.742011204515425
      ]
     ]
    ]
   },
   "properties": {
    "row_num": 112,
    "plot_num": "109",
    "matched_xplan_num": "109",
    "area_sqm_table": 592,
    "designation_table": "מגורים",
    "units_yachd": 5,
    "owners": "פסגות ירושלים בע\"מ",
    "family_type": "company_israeli",
    "ownership_category": "companies",
    "ownership_label": "חברות פרטיות",
    "confidence": "high",
    "notes": "Excluded",
    "mavat_name": "מגורים",
    "mavat_code": 10,
    "legal_area_xplan": 0.198,
    "pl_number": "151-0347427"
   }
  },
  {
   "type": "Feature",
   "geometry": {
    "type": "Polygon",
    "coordinates": [
     [
      [
       35.20474823480094,
       31.7383171082502
      ],
      [
       35.204907592562485,
       31.738333889254267
      ],
      [
       35.20508222239535,
       31.738352277066713
      ],
      [
       35.205416425519424,
       31.73838746484666
      ],
      [
       35.20541522377174,
       31.73850175769565
      ],
      [
       35.2054195200412,
       31.738615996387065
      ],
      [
       35.20542992435087,
       31.738734514288602
      ],
      [
       35.2054460187783,
       31.738852566786733
      ],
      [
       35.20539745464055,
       31.738859567317544
      ],
      [
       35.20510103640907,
       31.738960996425696
      ],
      [
       35.20496434969747,
       31.739006949819895
      ],
      [
       35.20485668954962,
       31.739046635127753
      ],
      [
       35.20495484112104,
       31.739276942902542
      ],
      [
       35.204822016212745,
       31.739318042385914
      ],
      [
       35.204536459137216,
       31.739463135743453
      ],
      [
       35.20449154568498,
       31.739271787391313
      ],
      [
       35.204472222187256,
       31.739183343309282
      ],
      [
       35.20445567202201,
       31.739094489783085
      ],
      [
       35.20443533337868,
       31.73895451327419
      ],
      [
       35.20442187314088,
       31.738813931617784
      ],
      [
       35.204415317659844,
       31.73867299192197
      ],
      [
       35.20441539570136,
       31.73854311968391
      ],
      [
       35.20442133687828,
       31.7384133457427
      ],
      [
       35.204433130613495,
       31.73828386489644
      ],
      [
       35.20474823480094,
       31.7383171082502
      ]
     ]
    ]
   },
   "properties": {
    "row_num": 113,
    "plot_num": "115",
    "matched_xplan_num": "115",
    "area_sqm_table": 1517,
    "designation_table": "מגורים",
    "units_yachd": 14,
    "owners": "פסגות ירושלים בע\"מ",
    "family_type": "company_israeli",
    "ownership_category": "companies",
    "ownership_label": "חברות פרטיות",
    "confidence": "high",
    "notes": "Excluded",
    "mavat_name": "מגורים ב'",
    "mavat_code": 60,
    "legal_area_xplan": 0,
    "pl_number": "101-0979336"
   }
  },
  {
   "type": "Feature",
   "geometry": {
    "type": "Polygon",
    "coordinates": [
     [
      [
       35.21837737397388,
       31.742380980102123
      ],
      [
       35.21837739838859,
       31.742543312405807
      ],
      [
       35.21826131244201,
       31.7425433251032
      ],
      [
       35.218261288229776,
       31.742380992799443
      ],
      [
       35.21837737397388,
       31.742380980102123
      ]
     ]
    ]
   },
   "properties": {
    "row_num": 114,
    "plot_num": "116",
    "matched_xplan_num": "116",
    "area_sqm_table": 1410,
    "designation_table": "מגורים",
    "units_yachd": 14,
    "owners": "פסגות ירושלים בע\"מ",
    "family_type": "company_israeli",
    "ownership_category": "companies",
    "ownership_label": "חברות פרטיות",
    "confidence": "high",
    "notes": "Excluded",
    "mavat_name": "מגורים",
    "mavat_code": 10,
    "legal_area_xplan": 0.198,
    "pl_number": "151-0347427"
   }
  },
  {
   "type": "Feature",
   "geometry": {
    "type": "Polygon",
    "coordinates": [
     [
      [
       35.21853567271573,
       31.742380962617208
      ],
      [
       35.21853569740656,
       31.74254329492077
      ],
      [
       35.21841961146007,
       31.742543307762354
      ],
      [
       35.21841958697171,
       31.742380975458715
      ],
      [
       35.21853567271573,
       31.742380962617208
      ]
     ]
    ]
   },
   "properties": {
    "row_num": 115,
    "plot_num": "117",
    "matched_xplan_num": "117",
    "area_sqm_table": 1851,
    "designation_table": "מגורים",
    "units_yachd": 17,
    "owners": "פסגות ירושלים בע\"מ",
    "family_type": "company_israeli",
    "ownership_category": "companies",
    "ownership_label": "חברות פרטיות",
    "confidence": "high",
    "notes": "Excluded",
    "mavat_name": "מגורים",
    "mavat_code": 10,
    "legal_area_xplan": 0.198,
    "pl_number": "151-0347427"
   }
  },
  {
   "type": "Feature",
   "geometry": {
    "type": "Polygon",
    "coordinates": [
     [
      [
       35.21865175845967,
       31.74238094966995
      ],
      [
       35.21865178335299,
       31.742543281973443
      ],
      [
       35.21853569740656,
       31.74254329492077
      ],
      [
       35.21853567271573,
       31.742380962617208
      ],
      [
       35.21865175845967,
       31.74238094966995
      ]
     ]
    ]
   },
   "properties": {
    "row_num": 116,
    "plot_num": "118",
    "matched_xplan_num": "118",
    "area_sqm_table": 2208,
    "designation_table": "מגורים",
    "units_yachd": 18,
    "owners": "פסגות ירושלים בע\"מ",
    "family_type": "company_israeli",
    "ownership_category": "companies",
    "ownership_label": "חברות פרטיות",
    "confidence": "high",
    "notes": "Excluded",
    "mavat_name": "מגורים",
    "mavat_code": 10,
    "legal_area_xplan": 0.198,
    "pl_number": "151-0347427"
   }
  }
 ]
}