{
 "type": "FeatureCollection",
 "name": "givat_hamatos_arab_armenian_plots",
 "crs": {
  "type": "name",
  "properties": {
   "name": "urn:ogc:def:crs:OGC:1.3:CRS84"
  }
 },
 "features": [
  {
   "type": "Feature",
   "geometry": {
    "type": "Polygon",
    "coordinates": [
     [
      [
       35.20655031201112,
       31.738164019853023
      ],
      [
       35.20661002063539,
       31.738207530222976
      ],
      [
       35.206674663660564,
       31.73824554191628
      ],
      [
       35.20674355302936,
       31.73827764910722
      ],
      [
       35.206729678717615,
       31.73829703365777
      ],
      [
       35.20659467085258,
       31.7384856645343
      ],
      [
       35.20650442390216,
       31.738514774075256
      ],
      [
       35.206169513514446,
       31.73862280241656
      ],
      [
       35.20616623764212,
       31.738608427026094
      ],
      [
       35.206150686546245,
       31.73852891141886
      ],
      [
       35.2061393660862,
       31.738448874483005
      ],
      [
       35.20613230158109,
       31.738368482159068
      ],
      [
       35.206146642767536,
       31.73836523170544
      ],
      [
       35.20623882100984,
       31.738344343623886
      ],
      [
       35.20623287096389,
       31.738325165037732
      ],
      [
       35.206222051553645,
       31.738290296192016
      ],
      [
       35.206238562367815,
       31.738286555092014
      ],
      [
       35.2062566645334,
       31.73828245322772
      ],
      [
       35.20639280693659,
       31.738227544916306
      ],
      [
       35.20648931121695,
       31.738188621453236
      ],
      [
       35.20652256903206,
       31.738175208633397
      ],
      [
       35.20655031201112,
       31.738164019853023
      ]
     ]
    ]
   },
   "properties": {
    "row_num": 1,
    "plot_num": "40",
    "matched_xplan_num": "40",
    "area_sqm_table": 1679,
    "designation_table": "מגורים",
    "units_yachd": 42,
    "owners": "אלין בת עווצ' בדור; חנא עווצ' בדור; נכלה עווצ' בדור; ניקולה עווצ' בדור; מתרי עווצ' בדור; כמיס עווצ' בדור; יוסף עווצ' בדור; וויליס עווצ' בדור; ארכבישוף יגישה דרדריאן - האפריארך הארמני בירושלים",
    "family_type": "arab_christian+armenian",
    "ownership_category": "arab_armenian",
    "ownership_label": "ערבי + ארמני",
    "confidence": "high",
    "notes": "Bedour family (8 indiv) + Armenian Patriarchate",
    "mavat_name": "מגורים ג'",
    "mavat_code": 100,
    "legal_area_xplan": 0,
    "pl_number": "101-0979336"
   }
  },
  {
   "type": "Feature",
   "geometry": {
    "type": "Polygon",
    "coordinates": [
     [
      [
       35.20624710166787,
       31.737549329478227
      ],
      [
       35.20671382023595,
       31.737633437041605
      ],
      [
       35.20669251171841,
       31.73769896742482
      ],
      [
       35.20669250749756,
       31.73769897644336
      ],
      [
       35.20665963549628,
       31.737730556104136
      ],
      [
       35.206630750358606,
       31.737764864674418
      ],
      [
       35.20663073769529,
       31.73776486287096
      ],
      [
       35.20637839359811,
       31.73771956731153
      ],
      [
       35.20631093824223,
       31.737707460155864
      ],
      [
       35.2062174070975,
       31.737693376494818
      ],
      [
       35.206217404986944,
       31.737693376494857
      ],
      [
       35.206199347114385,
       31.73769025275649
      ],
      [
       35.206232612756125,
       31.737546717941203
      ],
      [
       35.20624710166787,
       31.737549329478227
      ]
     ]
    ]
   },
   "properties": {
    "row_num": 2,
    "plot_num": "41",
    "matched_xplan_num": "41",
    "area_sqm_table": 717,
    "designation_table": "מגורים",
    "units_yachd": 9,
    "owners": "אלין בת עווצ' בדור; חנא עווצ' בדור; נכלה עווצ' בדור; ניקולה עווצ' בדור; מתרי עווצ' בדור; כמיס עווצ' בדור; יוסף עווצ' בדור; וויליס עווצ' בדור; ארכבישוף יגישה דרדריאן - האפריארך הארמני בירושלים",
    "family_type": "arab_christian+armenian",
    "ownership_category": "arab_armenian",
    "ownership_label": "ערבי + ארמני",
    "confidence": "high",
    "notes": "Same as row 1",
    "mavat_name": "מגורים ב'",
    "mavat_code": 60,
    "legal_area_xplan": 0,
    "pl_number": "101-0979336"
   }
  },
  {
   "type": "Feature",
   "geometry": {
    "type": "Polygon",
    "coordinates": [
     [
      [
       35.20706062644958,
       31.736673509780886
      ],
      [
       35.20704888518777,
       31.736731910029818
      ],
      [
       35.20704344925697,
       31.736758943908196
      ],
      [
       35.20704856347283,
       31.736773591599594
      ],
      [
       35.207062191762944,
       31.736795955314427
      ],
      [
       35.207058931594595,
       31.736816461579146
      ],
      [
       35.20705322306087,
       31.736831542383765
      ],
      [
       35.20704771078905,
       31.73684609830911
      ],
      [
       35.207014056799636,
       31.73693599691632
      ],
      [
       35.20701243186893,
       31.736942174601406
      ],
      [
       35.20658628834656,
       31.73673200004367
      ],
      [
       35.20664831031575,
       31.736647991007434
      ],
      [
       35.2067147579923,
       31.73656649169908
      ],
      [
       35.20678549419078,
       31.7364876716616
      ],
      [
       35.20706062644958,
       31.736673509780886
      ]
     ]
    ]
   },
   "properties": {
    "row_num": 3,
    "plot_num": "47+47A*",
    "matched_xplan_num": "47",
    "area_sqm_table": 1438,
    "designation_table": "מגורים",
    "units_yachd": 17,
    "owners": "ארכבישוף יגישה דרדריאן - האפריארך הארמני בירושלים",
    "family_type": "armenian",
    "ownership_category": "arab_armenian",
    "ownership_label": "ערבי + ארמני",
    "confidence": "high",
    "notes": "Armenian Patriarchate alone",
    "mavat_name": "מגורים ב'",
    "mavat_code": 60,
    "legal_area_xplan": 0,
    "pl_number": "101-0979336"
   }
  },
  {
   "type": "Feature",
   "geometry": {
    "type": "Polygon",
    "coordinates": [
     [
      [
       35.20694575639705,
       31.736110250965265
      ],
      [
       35.20690570608494,
       31.7361395022726
      ],
      [
       35.20680323891579,
       31.73622539076362
      ],
      [
       35.20643348807579,
       31.735939488291397
      ],
      [
       35.206542508695364,
       31.735867178192564
      ],
      [
       35.206610852197834,
       31.735829961392465
      ],
      [
       35.20694575639705,
       31.736110250965265
      ]
     ]
    ]
   },
   "properties": {
    "row_num": 4,
    "plot_num": "142",
    "matched_xplan_num": "142",
    "area_sqm_table": 745,
    "designation_table": "מגורים",
    "units_yachd": 8,
    "owners": "אבראהים מוסא חוסיין אחמד",
    "family_type": "arab_muslim",
    "ownership_category": "arab_armenian",
    "ownership_label": "ערבי + ארמני",
    "confidence": "high",
    "notes": "",
    "mavat_name": "מגורים ב'",
    "mavat_code": 60,
    "legal_area_xplan": 0,
    "pl_number": "101-0979336"
   }
  },
  {
   "type": "Feature",
   "geometry": {
    "type": "Polygon",
    "coordinates": [
     [
      [
       35.207079462341156,
       31.7360011247087
      ],
      [
       35.20694575639705,
       31.736110250965265
      ],
      [
       35.206778302990124,
       31.735970107192284
      ],
      [
       35.206610852197834,
       31.735829961392465
      ],
      [
       35.20678511595769,
       31.7357350676746
      ],
      [
       35.207079462341156,
       31.7360011247087
      ]
     ]
    ]
   },
   "properties": {
    "row_num": 5,
    "plot_num": "143",
    "matched_xplan_num": "143",
    "area_sqm_table": 779,
    "designation_table": "מגורים",
    "units_yachd": 8,
    "owners": "אבראהים מוסא חוסיין אחמד",
    "family_type": "arab_muslim",
    "ownership_category": "arab_armenian",
    "ownership_label": "ערבי + ארמני",
    "confidence": "high",
    "notes": "",
    "mavat_name": "מגורים ב'",
    "mavat_code": 60,
    "legal_area_xplan": 0,
    "pl_number": "101-0979336"
   }
  },
  {
   "type": "Feature",
   "geometry": {
    "type": "Polygon",
    "coordinates": [
     [
      [
       35.20678511595769,
       31.7357350676746
      ],
      [
       35.2067996971906,
       31.735727125732932
      ],
      [
       35.20694780101511,
       31.73563437146648
      ],
      [
       35.20721749659932,
       31.735891547290166
      ],
      [
       35.207079462341156,
       31.7360011247087
      ],
      [
       35.20678511595769,
       31.7357350676746
      ]
     ]
    ]
   },
   "properties": {
    "row_num": 6,
    "plot_num": "144",
    "matched_xplan_num": "144",
    "area_sqm_table": 724,
    "designation_table": "מגורים",
    "units_yachd": 8,
    "owners": "אבראהים מוסא חוסיין אחמד",
    "family_type": "arab_muslim",
    "ownership_category": "arab_armenian",
    "ownership_label": "ערבי + ארמני",
    "confidence": "high",
    "notes": "",
    "mavat_name": "מגורים ב'",
    "mavat_code": 60,
    "legal_area_xplan": 0,
    "pl_number": "101-0979336"
   }
  },
  {
   "type": "Feature",
   "geometry": {
    "type": "Polygon",
    "coordinates": [
     [
      [
       35.20725912951487,
       31.735655368833218
      ],
      [
       35.20738143637939,
       31.735765081123972
      ],
      [
       35.20731492973917,
       31.735814060185234
      ],
      [
       35.20721749659932,
       31.735891547290166
      ],
      [
       35.20716384397756,
       31.735840384884206
      ],
      [
       35.206947803125665,
       31.735634373270123
      ],
      [
       35.20705133802534,
       31.735569530137287
      ],
      [
       35.20711622818576,
       31.735527181626562
      ],
      [
       35.20725912951487,
       31.735655368833218
      ]
     ]
    ]
   },
   "properties": {
    "row_num": 7,
    "plot_num": "145",
    "matched_xplan_num": "145",
    "area_sqm_table": 757,
    "designation_table": "מגורים",
    "units_yachd": 8,
    "owners": "אבראהים מוסא חוסיין אחמד",
    "family_type": "arab_muslim",
    "ownership_category": "arab_armenian",
    "ownership_label": "ערבי + ארמני",
    "confidence": "high",
    "notes": "",
    "mavat_name": "מגורים ב'",
    "mavat_code": 60,
    "legal_area_xplan": 0,
    "pl_number": "101-0979336"
   }
  },
  {
   "type": "Feature",
   "geometry": {
    "type": "Polygon",
    "coordinates": [
     [
      [
       35.20745052872393,
       31.735536677676212
      ],
      [
       35.207488243211515,
       31.73556667219775
      ],
      [
       35.20752176217324,
       31.735600108260112
      ],
      [
       35.20752863847136,
       31.73560902194741
      ],
      [
       35.20753365861828,
       31.73561879964984
      ],
      [
       35.20753667909023,
       31.735629159092998
      ],
      [
       35.20753761334624,
       31.735639806276996
      ],
      [
       35.207536434994026,
       31.735650435476355
      ],
      [
       35.207533177790516,
       31.73566074276773
      ],
      [
       35.207527933531786,
       31.735670434146503
      ],
      [
       35.207520854163754,
       31.735679230937954
      ],
      [
       35.20751214228554,
       31.735686883325123
      ],
      [
       35.20750204481793,
       31.73569317034913
      ],
      [
       35.207440393014025,
       31.735727475403063
      ],
      [
       35.207381434268854,
       31.73576507932032
      ],
      [
       35.20725912951487,
       31.735655368833218
      ],
      [
       35.207116226075286,
       31.7355271816266
      ],
      [
       35.20728238399716,
       31.735417365435122
      ],
      [
       35.20745052872393,
       31.735536677676212
      ]
     ]
    ]
   },
   "properties": {
    "row_num": 8,
    "plot_num": "146",
    "matched_xplan_num": "146",
    "area_sqm_table": 715,
    "designation_table": "מגורים",
    "units_yachd": 8,
    "owners": "אבראהים מוסא חוסיין אחמד",
    "family_type": "arab_muslim",
    "ownership_category": "arab_armenian",
    "ownership_label": "ערבי + ארמני",
    "confidence": "high",
    "notes": "",
    "mavat_name": "מגורים ב'",
    "mavat_code": 60,
    "legal_area_xplan": 0,
    "pl_number": "101-0979336"
   }
  },
  {
   "type": "Feature",
   "geometry": {
    "type": "Polygon",
    "coordinates": [
     [
      [
       35.206826198291374,
       31.735710529436513
      ],
      [
       35.2067996971906,
       31.735727125732932
      ],
      [
       35.206766991243136,
       31.735744936026396
      ],
      [
       35.20660171595602,
       31.735834937944336
      ],
      [
       35.206411571921,
       31.735618110016308
      ],
      [
       35.206604516538924,
       31.735479469441863
      ],
      [
       35.206826198291374,
       31.735710529436513
      ]
     ]
    ]
   },
   "properties": {
    "row_num": 9,
    "plot_num": "147",
    "matched_xplan_num": "147",
    "area_sqm_table": 837,
    "designation_table": "מגורים",
    "units_yachd": 8,
    "owners": "אבראהים מוסא חוסיין אחמד",
    "family_type": "arab_muslim",
    "ownership_category": "arab_armenian",
    "ownership_label": "ערבי + ארמני",
    "confidence": "high",
    "notes": "",
    "mavat_name": "מגורים ב'",
    "mavat_code": 60,
    "legal_area_xplan": 0,
    "pl_number": "101-0979336"
   }
  },
  {
   "type": "Feature",
   "geometry": {
    "type": "Polygon",
    "coordinates": [
     [
      [
       35.20705133591484,
       31.73556953013733
      ],
      [
       35.20694780101511,
       31.73563437146648
      ],
      [
       35.206826198291374,
       31.735710529436513
      ],
      [
       35.206604516538924,
       31.735479469441863
      ],
      [
       35.206798659318146,
       31.73533996277634
      ],
      [
       35.20705133591484,
       31.73556953013733
      ]
     ]
    ]
   },
   "properties": {
    "row_num": 10,
    "plot_num": "148",
    "matched_xplan_num": "148",
    "area_sqm_table": 893,
    "designation_table": "מגורים",
    "units_yachd": 8,
    "owners": "אבראהים מוסא חוסיין אחמד",
    "family_type": "arab_muslim",
    "ownership_category": "arab_armenian",
    "ownership_label": "ערבי + ארמני",
    "confidence": "high",
    "notes": "",
    "mavat_name": "מגורים ב'",
    "mavat_code": 60,
    "legal_area_xplan": 0,
    "pl_number": "101-0979336"
   }
  },
  {
   "type": "Feature",
   "geometry": {
    "type": "Polygon",
    "coordinates": [
     [
      [
       35.2041118043501,
       31.739115498942567
      ],
      [
       35.20402485279228,
       31.73912910579188
      ],
      [
       35.20391347548788,
       31.739146532717086
      ],
      [
       35.20388125581147,
       31.739074488576975
      ],
      [
       35.20385689597249,
       31.73900022501579
      ],
      [
       35.20384059856517,
       31.73892436611672
      ],
      [
       35.20383285305238,
       31.738875902647862
      ],
      [
       35.204056246474096,
       31.73884983102394
      ],
      [
       35.2041118043501,
       31.739115498942567
      ]
     ]
    ]
   },
   "properties": {
    "row_num": 40,
    "plot_num": "120",
    "matched_xplan_num": "120",
    "area_sqm_table": 763,
    "designation_table": "מגורים",
    "units_yachd": 7,
    "owners": "חנה בת אנטון אזמירי; מרין בת אנטון אזמירי",
    "family_type": "armenian",
    "ownership_category": "arab_armenian",
    "ownership_label": "ערבי + ארמני",
    "confidence": "high",
    "notes": "Azmiri Armenian family",
    "mavat_name": "מגורים ב'",
    "mavat_code": 60,
    "legal_area_xplan": 0,
    "pl_number": "101-0979336"
   }
  },
  {
   "type": "Feature",
   "geometry": {
    "type": "Polygon",
    "coordinates": [
     [
      [
       35.204056246474096,
       31.73884983102394
      ],
      [
       35.20383285305238,
       31.738875902647862
      ],
      [
       35.20377825058087,
       31.73853440552734
      ],
      [
       35.204026638597675,
       31.73850515415793
      ],
      [
       35.204056246474096,
       31.73884983102394
      ]
     ]
    ]
   },
   "properties": {
    "row_num": 41,
    "plot_num": "121",
    "matched_xplan_num": "121",
    "area_sqm_table": 863,
    "designation_table": "מגורים",
    "units_yachd": 7,
    "owners": "חנה בת אנטון אזמירי; מרין בת אנטון אזמירי",
    "family_type": "armenian",
    "ownership_category": "arab_armenian",
    "ownership_label": "ערבי + ארמני",
    "confidence": "high",
    "notes": "",
    "mavat_name": "מגורים ב'",
    "mavat_code": 60,
    "legal_area_xplan": 0,
    "pl_number": "101-0979336"
   }
  },
  {
   "type": "Feature",
   "geometry": {
    "type": "Polygon",
    "coordinates": [
     [
      [
       35.20427485761344,
       31.738475920341113
      ],
      [
       35.20427193751716,
       31.73859189151301
      ],
      [
       35.20427353191567,
       31.738707880723496
      ],
      [
       35.20427963766009,
       31.738823760812057
      ],
      [
       35.204056246474096,
       31.73884983102394
      ],
      [
       35.204026638597675,
       31.73850515415793
      ],
      [
       35.20427485761344,
       31.738475920341113
      ]
     ]
    ]
   },
   "properties": {
    "row_num": 42,
    "plot_num": "121A",
    "matched_xplan_num": "1211",
    "area_sqm_table": 856,
    "designation_table": "מגורים",
    "units_yachd": 8,
    "owners": "חנה בת אנטון אזמירי; מרין בת אנטון אזמירי",
    "family_type": "armenian",
    "ownership_category": "arab_armenian",
    "ownership_label": "ערבי + ארמני",
    "confidence": "high",
    "notes": "",
    "mavat_name": "מגורים ב'",
    "mavat_code": 60,
    "legal_area_xplan": 0,
    "pl_number": "101-0979336"
   }
  },
  {
   "type": "Feature",
   "geometry": {
    "type": "Polygon",
    "coordinates": [
     [
      [
       35.20430485527222,
       31.738166518389132
      ],
      [
       35.20428582635776,
       31.738320934381417
      ],
      [
       35.20427485761344,
       31.738475920341113
      ],
      [
       35.204026638597675,
       31.73850515415793
      ],
      [
       35.204013735819885,
       31.738200494060052
      ],
      [
       35.204297016672434,
       31.738167434660603
      ],
      [
       35.20430485527222,
       31.738166518389132
      ]
     ]
    ]
   },
   "properties": {
    "row_num": 43,
    "plot_num": "122A",
    "matched_xplan_num": "1221",
    "area_sqm_table": 583,
    "designation_table": "מגורים",
    "units_yachd": 8,
    "owners": "חנה בת אנטון אזמירי; מרין בת אנטון אזמירי",
    "family_type": "armenian",
    "ownership_category": "arab_armenian",
    "ownership_label": "ערבי + ארמני",
    "confidence": "high",
    "notes": "",
    "mavat_name": "מגורים ב'",
    "mavat_code": 60,
    "legal_area_xplan": 0,
    "pl_number": "101-0979336"
   }
  },
  {
   "type": "Feature",
   "geometry": {
    "type": "Polygon",
    "coordinates": [
     [
      [
       35.20427963766009,
       31.738823760812057
      ],
      [
       35.20429195376365,
       31.73895436535296
      ],
      [
       35.2043100022244,
       31.7390844828961
      ],
      [
       35.20421398791077,
       31.73909951117953
      ],
      [
       35.2041118043501,
       31.73911550074625
      ],
      [
       35.2041118043501,
       31.739115498942567
      ],
      [
       35.204056246474096,
       31.73884983102394
      ],
      [
       35.20427963766009,
       31.738823760812057
      ]
     ]
    ]
   },
   "properties": {
    "row_num": 44,
    "plot_num": "120A",
    "matched_xplan_num": "1201",
    "area_sqm_table": 591,
    "designation_table": "מגורים",
    "units_yachd": 7,
    "owners": "חנה בת אנטון אזמירי; מרין בת אנטון אזמירי",
    "family_type": "armenian",
    "ownership_category": "arab_armenian",
    "ownership_label": "ערבי + ארמני",
    "confidence": "high",
    "notes": "",
    "mavat_name": "מגורים ב'",
    "mavat_code": 60,
    "legal_area_xplan": 0,
    "pl_number": "101-0979336"
   }
  },
  {
   "type": "Feature",
   "geometry": {
    "type": "Polygon",
    "coordinates": [
     [
      [
       35.218377414665184,
       31.742651533939284
      ],
      [
       35.21837743908022,
       31.74281386623606
      ],
      [
       35.21826135279615,
       31.742813878933582
      ],
      [
       35.2182613285836,
       31.742651546636726
      ],
      [
       35.218377414665184,
       31.742651533939284
      ]
     ]
    ]
   },
   "properties": {
    "row_num": 45,
    "plot_num": "124B",
    "matched_xplan_num": "124",
    "area_sqm_table": 851,
    "designation_table": "מגורים",
    "units_yachd": 7,
    "owners": "חנה בת אנטון אזמירי; מרין בת אנטון אזמירי",
    "family_type": "armenian",
    "ownership_category": "arab_armenian",
    "ownership_label": "ערבי + ארמני",
    "confidence": "high",
    "notes": "",
    "mavat_name": "מגורים",
    "mavat_code": 10,
    "legal_area_xplan": 0.198,
    "pl_number": "151-0347427"
   }
  },
  {
   "type": "Feature",
   "geometry": {
    "type": "Polygon",
    "coordinates": [
     [
      [
       35.218377414665184,
       31.742651533939284
      ],
      [
       35.21837743908022,
       31.74281386623606
      ],
      [
       35.21826135279615,
       31.742813878933582
      ],
      [
       35.2182613285836,
       31.742651546636726
      ],
      [
       35.218377414665184,
       31.742651533939284
      ]
     ]
    ]
   },
   "properties": {
    "row_num": 46,
    "plot_num": "124A",
    "matched_xplan_num": "124",
    "area_sqm_table": 858,
    "designation_table": "מגורים",
    "units_yachd": 7,
    "owners": "חנה בת אנטון אזמירי; מרין בת אנטון אזמירי",
    "family_type": "armenian",
    "ownership_category": "arab_armenian",
    "ownership_label": "ערבי + ארמני",
    "confidence": "high",
    "notes": "",
    "mavat_name": "מגורים",
    "mavat_code": 10,
    "legal_area_xplan": 0.198,
    "pl_number": "151-0347427"
   }
  },
  {
   "type": "Feature",
   "geometry": {
    "type": "Polygon",
    "coordinates": [
     [
      [
       35.204297016672434,
       31.738167434660603
      ],
      [
       35.204013735819885,
       31.738200494060052
      ],
      [
       35.203945274996045,
       31.737908364028364
      ],
      [
       35.20420983861079,
       31.73789465117362
      ],
      [
       35.204297016672434,
       31.738167434660603
      ]
     ]
    ]
   },
   "properties": {
    "row_num": 47,
    "plot_num": "123A",
    "matched_xplan_num": "1231",
    "area_sqm_table": 832,
    "designation_table": "מגורים",
    "units_yachd": 8,
    "owners": "חנה בת אנטון אזמירי; מרין בת אנטון אזמירי",
    "family_type": "armenian",
    "ownership_category": "arab_armenian",
    "ownership_label": "ערבי + ארמני",
    "confidence": "high",
    "notes": "",
    "mavat_name": "מגורים ב'",
    "mavat_code": 60,
    "legal_area_xplan": 0,
    "pl_number": "101-0979336"
   }
  },
  {
   "type": "Feature",
   "geometry": {
    "type": "Polygon",
    "coordinates": [
     [
      [
       35.218694032488095,
       31.74277775722569
      ],
      [
       35.2188101187269,
       31.74277774413406
      ],
      [
       35.218810143896796,
       31.74294007642731
      ],
      [
       35.21869405745551,
       31.742940089519035
      ],
      [
       35.218694032488095,
       31.74277775722569
      ]
     ]
    ]
   },
   "properties": {
    "row_num": 48,
    "plot_num": "135+135A*",
    "matched_xplan_num": "135",
    "area_sqm_table": 742,
    "designation_table": "מגורים",
    "units_yachd": 7,
    "owners": "חסן מוסה חסן",
    "family_type": "arab_muslim",
    "ownership_category": "arab_armenian",
    "ownership_label": "ערבי + ארמני",
    "confidence": "high",
    "notes": "",
    "mavat_name": "מגורים",
    "mavat_code": 10,
    "legal_area_xplan": 0.198,
    "pl_number": "151-0347427"
   }
  },
  {
   "type": "Feature",
   "geometry": {
    "type": "Polygon",
    "coordinates": [
     [
      [
       35.205438337811096,
       31.738057038836978
      ],
      [
       35.205420993913435,
       31.738300995744034
      ],
      [
       35.20541841949352,
       31.738342242627674
      ],
      [
       35.20490372787252,
       31.73828804840019
      ],
      [
       35.20494348921487,
       31.738031342959786
      ],
      [
       35.205438337811096,
       31.738057038836978
      ]
     ]
    ]
   },
   "properties": {
    "row_num": 53,
    "plot_num": "127",
    "matched_xplan_num": "127",
    "area_sqm_table": 1449,
    "designation_table": "מגורים",
    "units_yachd": 18,
    "owners": "אבראהים מוסא חוסיין אחמד",
    "family_type": "arab_muslim",
    "ownership_category": "arab_armenian",
    "ownership_label": "ערבי + ארמני",
    "confidence": "high",
    "notes": "",
    "mavat_name": "מגורים ב'",
    "mavat_code": 60,
    "legal_area_xplan": 0,
    "pl_number": "101-0979336"
   }
  },
  {
   "type": "Feature",
   "geometry": {
    "type": "Polygon",
    "coordinates": [
     [
      [
       35.20633013457516,
       31.73936390877607
      ],
      [
       35.206370182850144,
       31.73941281439579
      ],
      [
       35.20641197237532,
       31.739460644973686
      ],
      [
       35.2065782126339,
       31.739644943579478
      ],
      [
       35.2065807285315,
       31.739648191987367
      ],
      [
       35.2065826735217,
       31.73965171546825
      ],
      [
       35.206584005391,
       31.739655441875207
      ],
      [
       35.206584696699814,
       31.739659291846163
      ],
      [
       35.20658473478269,
       31.739663187822618
      ],
      [
       35.20658269233423,
       31.739733177463002
      ],
      [
       35.206587021756576,
       31.739803090335407
      ],
      [
       35.206597696671636,
       31.73987250437554
      ],
      [
       35.20654397194157,
       31.73989041416731
      ],
      [
       35.206398743066245,
       31.73993935254619
      ],
      [
       35.20633173005122,
       31.739961934023032
      ],
      [
       35.206090406151965,
       31.73947166665284
      ],
      [
       35.20633013457516,
       31.73936390877607
      ]
     ]
    ]
   },
   "properties": {
    "row_num": 54,
    "plot_num": "105",
    "matched_xplan_num": "105",
    "area_sqm_table": 1845,
    "designation_table": "מגורים",
    "units_yachd": 24,
    "owners": "אבראהים מוסא חוסיין אחמד",
    "family_type": "arab_muslim",
    "ownership_category": "arab_armenian",
    "ownership_label": "ערבי + ארמני",
    "confidence": "high",
    "notes": "",
    "mavat_name": "מגורים ב'",
    "mavat_code": 60,
    "legal_area_xplan": 0,
    "pl_number": "101-0979336"
   }
  },
  {
   "type": "Feature",
   "geometry": {
    "type": "Polygon",
    "coordinates": [
     [
      [
       35.20580088082821,
       31.738804278453657
      ],
      [
       35.205619150722434,
       31.738836158826388
      ],
      [
       35.20560367773229,
       31.738725110085188
      ],
      [
       35.20559374078381,
       31.738613599542074
      ],
      [
       35.20559374289438,
       31.738613599542045
      ],
      [
       35.2057816990454,
       31.73860216039355
      ],
      [
       35.20580088082821,
       31.738804278453657
      ]
     ]
    ]
   },
   "properties": {
    "row_num": 55,
    "plot_num": "110",
    "matched_xplan_num": "110",
    "area_sqm_table": 422,
    "designation_table": "מגורים",
    "units_yachd": 5,
    "owners": "אבראהים מוסא חוסיין אחמד",
    "family_type": "arab_muslim",
    "ownership_category": "arab_armenian",
    "ownership_label": "ערבי + ארמני",
    "confidence": "high",
    "notes": "",
    "mavat_name": "מגורים ב'",
    "mavat_code": 60,
    "legal_area_xplan": 0,
    "pl_number": "101-0979336"
   }
  },
  {
   "type": "Feature",
   "geometry": {
    "type": "Polygon",
    "coordinates": [
     [
      [
       35.2057816990454,
       31.73860216039355
      ],
      [
       35.20559374078381,
       31.738613599542074
      ],
      [
       35.2055895341692,
       31.738512419596116
      ],
      [
       35.2055898853171,
       31.73841117647595
      ],
      [
       35.20559479421456,
       31.738310019888104
      ],
      [
       35.20559802277329,
       31.738264592032905
      ],
      [
       35.20559802488385,
       31.73826459203289
      ],
      [
       35.205768846911965,
       31.73825843427989
      ],
      [
       35.2057816990454,
       31.73860216039355
      ]
     ]
    ]
   },
   "properties": {
    "row_num": 56,
    "plot_num": "111",
    "matched_xplan_num": "111",
    "area_sqm_table": 669,
    "designation_table": "מגורים",
    "units_yachd": 8,
    "owners": "אבראהים מוסא חוסיין אחמד",
    "family_type": "arab_muslim",
    "ownership_category": "arab_armenian",
    "ownership_label": "ערבי + ארמני",
    "confidence": "high",
    "notes": "",
    "mavat_name": "מגורים ב'",
    "mavat_code": 60,
    "legal_area_xplan": 0,
    "pl_number": "101-0979336"
   }
  },
  {
   "type": "Feature",
   "geometry": {
    "type": "Polygon",
    "coordinates": [
     [
      [
       35.2057942994234,
       31.73792800635997
      ],
      [
       35.205768846911965,
       31.73825843427989
      ],
      [
       35.20559802277329,
       31.738264592032905
      ],
      [
       35.205622418338315,
       31.73792147517327
      ],
      [
       35.2057942994234,
       31.73792800635997
      ]
     ]
    ]
   },
   "properties": {
    "row_num": 57,
    "plot_num": "112",
    "matched_xplan_num": "112",
    "area_sqm_table": 606,
    "designation_table": "מגורים",
    "units_yachd": 8,
    "owners": "אבראהים מוסא חוסיין אחמד",
    "family_type": "arab_muslim",
    "ownership_category": "arab_armenian",
    "ownership_label": "ערבי + ארמני",
    "confidence": "high",
    "notes": "",
    "mavat_name": "מגורים ב'",
    "mavat_code": 60,
    "legal_area_xplan": 0,
    "pl_number": "101-0979336"
   }
  },
  {
   "type": "Feature",
   "geometry": {
    "type": "Polygon",
    "coordinates": [
     [
      [
       35.205818332488484,
       31.73767062442053
      ],
      [
       35.20600622396001,
       31.737691723573704
      ],
      [
       35.205984232073035,
       31.737812877954727
      ],
      [
       35.205966558321094,
       31.73793454813232
      ],
      [
       35.205966024351824,
       31.73793452829832
      ],
      [
       35.205880160829324,
       31.737931266456243
      ],
      [
       35.2057942994234,
       31.73792800635997
      ],
      [
       35.205622418338315,
       31.73792147517327
      ],
      [
       35.205641683976104,
       31.737650500677713
      ],
      [
       35.205818332488484,
       31.73767062442053
      ]
     ]
    ]
   },
   "properties": {
    "row_num": 58,
    "plot_num": "113",
    "matched_xplan_num": "113",
    "area_sqm_table": 961,
    "designation_table": "מגורים",
    "units_yachd": 13,
    "owners": "אבראהים מוסא חוסיין אחמד",
    "family_type": "arab_muslim",
    "ownership_category": "arab_armenian",
    "ownership_label": "ערבי + ארמני",
    "confidence": "high",
    "notes": "",
    "mavat_name": "מגורים ב'",
    "mavat_code": 60,
    "legal_area_xplan": 0,
    "pl_number": "101-0979336"
   }
  },
  {
   "type": "Feature",
   "geometry": {
    "type": "Polygon",
    "coordinates": [
     [
      [
       35.2058992111226,
       31.737443278713005
      ],
      [
       35.2060504143175,
       31.737445098551564
      ],
      [
       35.206064219385595,
       31.73744724656916
      ],
      [
       35.20603300985728,
       31.73756910181969
      ],
      [
       35.20600622396001,
       31.737691723573704
      ],
      [
       35.205818332488484,
       31.73767062442053
      ],
      [
       35.205641683976104,
       31.737650500677713
      ],
      [
       35.20564867064324,
       31.7375522101244
      ],
      [
       35.20565662373617,
       31.73744035939006
      ],
      [
       35.2058992111226,
       31.737443278713005
      ]
     ]
    ]
   },
   "properties": {
    "row_num": 59,
    "plot_num": "114+114A*",
    "matched_xplan_num": "114",
    "area_sqm_table": 1048,
    "designation_table": "מגורים",
    "units_yachd": 11,
    "owners": "אבראהים מוסא חוסיין אחמד",
    "family_type": "arab_muslim",
    "ownership_category": "arab_armenian",
    "ownership_label": "ערבי + ארמני",
    "confidence": "high",
    "notes": "",
    "mavat_name": "מגורים ב'",
    "mavat_code": 60,
    "legal_area_xplan": 0,
    "pl_number": "101-0979336"
   }
  },
  {
   "type": "Feature",
   "geometry": {
    "type": "Polygon",
    "coordinates": [
     [
      [
       35.20596965515023,
       31.738590722771537
      ],
      [
       35.205989189951126,
       31.73867928387218
      ],
      [
       35.20601351365278,
       31.73876697552708
      ],
      [
       35.20580088082821,
       31.738804278453657
      ],
      [
       35.2057816990454,
       31.73860216039355
      ],
      [
       35.20596965515023,
       31.738590722771537
      ]
     ]
    ]
   },
   "properties": {
    "row_num": 60,
    "plot_num": "110A",
    "matched_xplan_num": "1101",
    "area_sqm_table": 463,
    "designation_table": "מגורים",
    "units_yachd": 4,
    "owners": "אבראהים מוסא חוסיין אחמד",
    "family_type": "arab_muslim",
    "ownership_category": "arab_armenian",
    "ownership_label": "ערבי + ארמני",
    "confidence": "high",
    "notes": "",
    "mavat_name": "מגורים ב'",
    "mavat_code": 60,
    "legal_area_xplan": 0,
    "pl_number": "101-0979336"
   }
  },
  {
   "type": "Feature",
   "geometry": {
    "type": "Polygon",
    "coordinates": [
     [
      [
       35.205939666806955,
       31.738252276297967
      ],
      [
       35.20594194916347,
       31.73836552657682
      ],
      [
       35.2059519572306,
       31.73847847013071
      ],
      [
       35.20596965515023,
       31.738590722771537
      ],
      [
       35.2057816990454,
       31.73860216039355
      ],
      [
       35.205768846911965,
       31.73825843427989
      ],
      [
       35.205939666806955,
       31.738252276297967
      ]
     ]
    ]
   },
   "properties": {
    "row_num": 61,
    "plot_num": "111A",
    "matched_xplan_num": "1111",
    "area_sqm_table": 624,
    "designation_table": "מגורים",
    "units_yachd": 6,
    "owners": "אבראהים מוסא חוסיין אחמד",
    "family_type": "arab_muslim",
    "ownership_category": "arab_armenian",
    "ownership_label": "ערבי + ארמני",
    "confidence": "high",
    "notes": "",
    "mavat_name": "מגורים ב'",
    "mavat_code": 60,
    "legal_area_xplan": 0,
    "pl_number": "101-0979336"
   }
  },
  {
   "type": "Feature",
   "geometry": {
    "type": "Polygon",
    "coordinates": [
     [
      [
       35.205966024351824,
       31.73793452829832
      ],
      [
       35.20596581544148,
       31.737936524989763
      ],
      [
       35.20595467987011,
       31.738042722998415
      ],
      [
       35.2059492038691,
       31.73809494179815
      ],
      [
       35.20594934949746,
       31.73809495442221
      ],
      [
       35.20594264031412,
       31.738173531511837
      ],
      [
       35.205939666806955,
       31.738252276297967
      ],
      [
       35.205768846911965,
       31.73825843427989
      ],
      [
       35.2057942994234,
       31.73792800635997
      ],
      [
       35.205966024351824,
       31.73793452829832
      ]
     ]
    ]
   },
   "properties": {
    "row_num": 62,
    "plot_num": "112A",
    "matched_xplan_num": "1121",
    "area_sqm_table": 850,
    "designation_table": "מגורים",
    "units_yachd": 14,
    "owners": "אבראהים מוסא חוסיין אחמד",
    "family_type": "arab_muslim",
    "ownership_category": "arab_armenian",
    "ownership_label": "ערבי + ארמני",
    "confidence": "high",
    "notes": "",
    "mavat_name": "מגורים ב'",
    "mavat_code": 60,
    "legal_area_xplan": 0,
    "pl_number": "101-0979336"
   }
  },
  {
   "type": "Feature",
   "geometry": {
    "type": "Polygon",
    "coordinates": [
     [
      [
       35.205818332488484,
       31.73767062442053
      ],
      [
       35.20600622396001,
       31.737691723573704
      ],
      [
       35.205984232073035,
       31.737812877954727
      ],
      [
       35.205966558321094,
       31.73793454813232
      ],
      [
       35.205966024351824,
       31.73793452829832
      ],
      [
       35.205880160829324,
       31.737931266456243
      ],
      [
       35.2057942994234,
       31.73792800635997
      ],
      [
       35.205622418338315,
       31.73792147517327
      ],
      [
       35.205641683976104,
       31.737650500677713
      ],
      [
       35.205818332488484,
       31.73767062442053
      ]
     ]
    ]
   },
   "properties": {
    "row_num": 63,
    "plot_num": "113A",
    "matched_xplan_num": "113",
    "area_sqm_table": 1278,
    "designation_table": "מגורים",
    "units_yachd": 14,
    "owners": "אבראהים מוסא חוסיין אחמד",
    "family_type": "arab_muslim",
    "ownership_category": "arab_armenian",
    "ownership_label": "ערבי + ארמני",
    "confidence": "high",
    "notes": "",
    "mavat_name": "מגורים ב'",
    "mavat_code": 60,
    "legal_area_xplan": 0,
    "pl_number": "101-0979336"
   }
  },
  {
   "type": "Feature",
   "geometry": {
    "type": "Polygon",
    "coordinates": [
     [
      [
       35.206746589411395,
       31.740740023883035
      ],
      [
       35.20678281960409,
       31.74079909775144
      ],
      [
       35.206816508406405,
       31.740848415483413
      ],
      [
       35.20685232260564,
       31.74089662569753
      ],
      [
       35.20676747553839,
       31.740967505225402
      ],
      [
       35.2067079151458,
       31.741017259387483
      ],
      [
       35.206523209611476,
       31.74106365360413
      ],
      [
       35.206494715756406,
       31.74094945598078
      ],
      [
       35.206460635198745,
       31.740836382140916
      ],
      [
       35.206746589411395,
       31.740740023883035
      ]
     ]
    ]
   },
   "properties": {
    "row_num": 70,
    "plot_num": "103",
    "matched_xplan_num": "103",
    "area_sqm_table": 810,
    "designation_table": "מגורים",
    "units_yachd": 11,
    "owners": "מארי בת חנא ריזק; ג'אן גון חנא ריזק; אנדה חנא ריזק",
    "family_type": "arab_christian",
    "ownership_category": "arab_armenian",
    "ownership_label": "ערבי + ארמני",
    "confidence": "high",
    "notes": "Rizq Christian Arab family",
    "mavat_name": "מגורים ג'",
    "mavat_code": 100,
    "legal_area_xplan": 0,
    "pl_number": "101-0979336"
   }
  },
  {
   "type": "Feature",
   "geometry": {
    "type": "Polygon",
    "coordinates": [
     [
      [
       35.20628304194269,
       31.740846914874947
      ],
      [
       35.2062916010101,
       31.74087237567395
      ],
      [
       35.20631992000843,
       31.740964602565587
      ],
      [
       35.20634431016111,
       31.741057645681135
      ],
      [
       35.20636473979507,
       31.741151382372244
      ],
      [
       35.20636107155431,
       31.741152340190148
      ],
      [
       35.206360670538345,
       31.741152444810524
      ],
      [
       35.20632198515702,
       31.74116255510338
      ],
      [
       35.206284576687054,
       31.741172329878545
      ],
      [
       35.20621408083677,
       31.741118669251485
      ],
      [
       35.2061565614001,
       31.74107757653549
      ],
      [
       35.20604768576411,
       31.740999793758313
      ],
      [
       35.20602545035797,
       31.740997593542204
      ],
      [
       35.206018409322134,
       31.740996897407534
      ],
      [
       35.20604551162064,
       31.740988266386516
      ],
      [
       35.20610789040838,
       31.740959282017492
      ],
      [
       35.206229988253945,
       31.74088940524656
      ],
      [
       35.20628304194269,
       31.740846914874947
      ]
     ]
    ]
   },
   "properties": {
    "row_num": 71,
    "plot_num": "104",
    "matched_xplan_num": "104",
    "area_sqm_table": 430,
    "designation_table": "מגורים",
    "units_yachd": 4,
    "owners": "מארי בת חנא ריזק; ג'אן גון חנא ריזק; אנדה חנא ריזק",
    "family_type": "arab_christian",
    "ownership_category": "arab_armenian",
    "ownership_label": "ערבי + ארמני",
    "confidence": "high",
    "notes": "Rizq family",
    "mavat_name": "מגורים ב'",
    "mavat_code": 60,
    "legal_area_xplan": 0,
    "pl_number": "101-0979336"
   }
  },
  {
   "type": "Feature",
   "geometry": {
    "type": "Polygon",
    "coordinates": [
     [
      [
       35.207994115623876,
       31.7361742783336
      ],
      [
       35.20790352113403,
       31.73620673654183
      ],
      [
       35.20789560231176,
       31.736201733313123
      ],
      [
       35.2078367876883,
       31.736173568434978
      ],
      [
       35.20761373064525,
       31.73582525930621
      ],
      [
       35.20768705250543,
       31.735792157832563
      ],
      [
       35.207763443181186,
       31.73576458636158
      ],
      [
       35.207994115623876,
       31.7361742783336
      ]
     ]
    ]
   },
   "properties": {
    "row_num": 102,
    "plot_num": "52+52A*",
    "matched_xplan_num": "52",
    "area_sqm_table": 725,
    "designation_table": "מגורים",
    "units_yachd": 8,
    "owners": "עודה סלים אלנברי - רבת עמון",
    "family_type": "arab_muslim",
    "ownership_category": "arab_armenian",
    "ownership_label": "ערבי + ארמני",
    "confidence": "high",
    "notes": "Awda Al-Anbari (Jordanian Arab)",
    "mavat_name": "מגורים ב'",
    "mavat_code": 60,
    "legal_area_xplan": 0,
    "pl_number": "101-0979336"
   }
  },
  {
   "type": "Feature",
   "geometry": {
    "type": "Polygon",
    "coordinates": [
     [
      [
       35.20758040428907,
       31.736271542774855
      ],
      [
       35.20746194382425,
       31.736348292876528
      ],
      [
       35.2074468075234,
       31.73635738385963
      ],
      [
       35.20719795208446,
       31.736128832706484
      ],
      [
       35.207201510315414,
       31.73612600082801
      ],
      [
       35.20725031883982,
       31.736087186044518
      ],
      [
       35.207313687341816,
       31.736036787584048
      ],
      [
       35.20732517885615,
       31.73603073953258
      ],
      [
       35.20758040428907,
       31.736271542774855
      ]
     ]
    ]
   },
   "properties": {
    "row_num": 104,
    "plot_num": "49+49A*",
    "matched_xplan_num": "49",
    "area_sqm_table": 747,
    "designation_table": "מגורים",
    "units_yachd": 8,
    "owners": "מקולה עווצ' בדור",
    "family_type": "arab_christian",
    "ownership_category": "arab_armenian",
    "ownership_label": "ערבי + ארמני",
    "confidence": "high",
    "notes": "Bedour family",
    "mavat_name": "מגורים ב'",
    "mavat_code": 60,
    "legal_area_xplan": 0,
    "pl_number": "101-0979336"
   }
  },
  {
   "type": "Feature",
   "geometry": {
    "type": "Polygon",
    "coordinates": [
     [
      [
       35.206687984840734,
       31.739325844871534
      ],
      [
       35.20667071419374,
       31.739335379505377
      ],
      [
       35.20665186476722,
       31.739342399816714
      ],
      [
       35.20664449678478,
       31.739344701460354
      ],
      [
       35.2066340146501,
       31.739347440554294
      ],
      [
       35.206623173683326,
       31.739348824178244
      ],
      [
       35.20661221237985,
       31.739348821665168
      ],
      [
       35.206601372401714,
       31.7393474330108
      ],
      [
       35.2065908922458,
       31.739344688873857
      ],
      [
       35.20658100196726,
       31.739340649674116
      ],
      [
       35.20658099985668,
       31.73934064967416
      ],
      [
       35.206517135068374,
       31.739309392757924
      ],
      [
       35.20645887824433,
       31.739235875186033
      ],
      [
       35.20640498718873,
       31.739159965820075
      ],
      [
       35.20635559486525,
       31.739081852247644
      ],
      [
       35.206682145724145,
       31.738933954739544
      ],
      [
       35.20672683148115,
       31.73900481021222
      ],
      [
       35.20677600960823,
       31.739073457863476
      ],
      [
       35.20682953025547,
       31.73913969026637
      ],
      [
       35.206825060174566,
       31.73914425910723
      ],
      [
       35.20677374298019,
       31.73920159317673
      ],
      [
       35.20672795446849,
       31.739262249526224
      ],
      [
       35.20668798695121,
       31.73932584126411
      ],
      [
       35.206687984840734,
       31.739325844871534
      ]
     ]
    ]
   },
   "properties": {
    "row_num": 105,
    "plot_num": "39A",
    "matched_xplan_num": "391",
    "area_sqm_table": 1186,
    "designation_table": "מגורים",
    "units_yachd": 15,
    "owners": "עודה סלים אלנברי - רבת עמון",
    "family_type": "arab_muslim",
    "ownership_category": "arab_armenian",
    "ownership_label": "ערבי + ארמני",
    "confidence": "high",
    "notes": "Awda Al-Anbari",
    "mavat_name": "מגורים ב'",
    "mavat_code": 60,
    "legal_area_xplan": 0,
    "pl_number": "101-0979336"
   }
  },
  {
   "type": "Feature",
   "geometry": {
    "type": "Polygon",
    "coordinates": [
     [
      [
       35.206257122090825,
       31.738888892823372
      ],
      [
       35.20622254815709,
       31.738801530539256
      ],
      [
       35.206193319271115,
       31.73871275407301
      ],
      [
       35.206169513514446,
       31.73862280241656
      ],
      [
       35.20650442390216,
       31.738514774075256
      ],
      [
       35.206577675670424,
       31.738714023235982
      ],
      [
       35.206577677781155,
       31.73871403045074
      ],
      [
       35.20660396646687,
       31.738780001883228
      ],
      [
       35.206257122090825,
       31.738888892823372
      ]
     ]
    ]
   },
   "properties": {
    "row_num": 106,
    "plot_num": "39C",
    "matched_xplan_num": "393",
    "area_sqm_table": 1068,
    "designation_table": "מגורים",
    "units_yachd": 13,
    "owners": "עודה סלים אלנברי - רבת עמון",
    "family_type": "arab_muslim",
    "ownership_category": "arab_armenian",
    "ownership_label": "ערבי + ארמני",
    "confidence": "high",
    "notes": "Awda Al-Anbari",
    "mavat_name": "מגורים ב'",
    "mavat_code": 60,
    "legal_area_xplan": 0,
    "pl_number": "101-0979336"
   }
  },
  {
   "type": "Feature",
   "geometry": {
    "type": "Polygon",
    "coordinates": [
     [
      [
       35.20548259293217,
       31.737434587390855
      ],
      [
       35.20548241989695,
       31.737437025986278
      ],
      [
       35.20548195346799,
       31.737437016971825
      ],
      [
       35.20526177999716,
       31.737431463308695
      ],
      [
       35.20511576669382,
       31.737434936345785
      ],
      [
       35.205104580565774,
       31.737399261151335
      ],
      [
       35.20510208432428,
       31.7371947222913
      ],
      [
       35.20510175064802,
       31.737167362061786
      ],
      [
       35.20549976980341,
       31.737192996889938
      ],
      [
       35.205498252586885,
       31.73721432377878
      ],
      [
       35.20549704767637,
       31.737231298351666
      ],
      [
       35.20549674804363,
       31.73723654710325
      ],
      [
       35.20549468849747,
       31.737264466497436
      ],
      [
       35.20548259293217,
       31.737434587390855
      ]
     ]
    ]
   },
   "properties": {
    "row_num": 107,
    "plot_num": "130a+130",
    "matched_xplan_num": "1301",
    "area_sqm_table": 1126,
    "designation_table": "מגורים",
    "units_yachd": 13,
    "owners": "עודה סלים אלנברי - רבת עמון",
    "family_type": "arab_muslim",
    "ownership_category": "arab_armenian",
    "ownership_label": "ערבי + ארמני",
    "confidence": "high",
    "notes": "Awda Al-Anbari",
    "mavat_name": "מגורים ב'",
    "mavat_code": 60,
    "legal_area_xplan": 0,
    "pl_number": "101-0979336"
   }
  },
  {
   "type": "Feature",
   "geometry": {
    "type": "Polygon",
    "coordinates": [
     [
      [
       35.21837744179302,
       31.74283190315766
      ],
      [
       35.21837746620826,
       31.742994235449846
      ],
      [
       35.21826137969921,
       31.742994248147447
      ],
      [
       35.21826135548645,
       31.742831915855188
      ],
      [
       35.21837744179302,
       31.74283190315766
      ]
     ]
    ]
   },
   "properties": {
    "row_num": 108,
    "plot_num": "132",
    "matched_xplan_num": "132",
    "area_sqm_table": 926,
    "designation_table": "מגורים",
    "units_yachd": 9,
    "owners": "עלי חסן מוסא; מחמד עלי חסן",
    "family_type": "arab_muslim",
    "ownership_category": "arab_armenian",
    "ownership_label": "ערבי + ארמני",
    "confidence": "high",
    "notes": "",
    "mavat_name": "מגורים",
    "mavat_code": 10,
    "legal_area_xplan": 0.198,
    "pl_number": "151-0347427"
   }
  },
  {
   "type": "Feature",
   "geometry": {
    "type": "Polygon",
    "coordinates": [
     [
      [
       35.21841965499538,
       31.74283189851418
      ],
      [
       35.21853574130186,
       31.742831885672455
      ],
      [
       35.21853576599322,
       31.742994217964522
      ],
      [
       35.21841967948427,
       31.742994230806325
      ],
      [
       35.21841965499538,
       31.74283189851418
      ]
     ]
    ]
   },
   "properties": {
    "row_num": 109,
    "plot_num": "133",
    "matched_xplan_num": "133",
    "area_sqm_table": 889,
    "designation_table": "מגורים",
    "units_yachd": 8,
    "owners": "עלי חסן מוסא; מחמד עלי חסן",
    "family_type": "arab_muslim",
    "ownership_category": "arab_armenian",
    "ownership_label": "ערבי + ארמני",
    "confidence": "high",
    "notes": "",
    "mavat_name": "מגורים",
    "mavat_code": 10,
    "legal_area_xplan": 0.198,
    "pl_number": "151-0347427"
   }
  },
  {
   "type": "Feature",
   "geometry": {
    "type": "Polygon",
    "coordinates": [
     [
      [
       35.218651827608255,
       31.742831872724977
      ],
      [
       35.21865185250209,
       31.742994205016963
      ],
      [
       35.21853576599322,
       31.742994217964522
      ],
      [
       35.21853574130186,
       31.742831885672455
      ],
      [
       35.218651827608255,
       31.742831872724977
      ]
     ]
    ]
   },
   "properties": {
    "row_num": 110,
    "plot_num": "134",
    "matched_xplan_num": "134",
    "area_sqm_table": 902,
    "designation_table": "מגורים",
    "units_yachd": 9,
    "owners": "עלי חסן מוסא; מחמד עלי חסן",
    "family_type": "arab_muslim",
    "ownership_category": "arab_armenian",
    "ownership_label": "ערבי + ארמני",
    "confidence": "high",
    "notes": "",
    "mavat_name": "מגורים",
    "mavat_code": 10,
    "legal_area_xplan": 0.198,
    "pl_number": "151-0347427"
   }
  }
 ]
}