{
 "type": "FeatureCollection",
 "name": "givat_hamatos_state_plots",
 "crs": {
  "type": "name",
  "properties": {
   "name": "urn:ogc:def:crs:OGC:1.3:CRS84"
  }
 },
 "features": [
  {
   "type": "Feature",
   "geometry": {
    "type": "Polygon",
    "coordinates": [
     [
      [
       35.20821420126868,
       31.74123783623224
      ],
      [
       35.208137962517036,
       31.741267788819673
      ],
      [
       35.20809086986797,
       31.741284459025206
      ],
      [
       35.20804187745646,
       31.741296486563012
      ],
      [
       35.20799161213892,
       31.741303718099342
      ],
      [
       35.207940712383504,
       31.741306060724668
      ],
      [
       35.20788982826978,
       31.74130348556127
      ],
      [
       35.20784235791582,
       31.741296079094084
      ],
      [
       35.207675222903205,
       31.74127000032581
      ],
      [
       35.20751029570869,
       31.74124426578931
      ],
      [
       35.20744050963976,
       31.741232364916446
      ],
      [
       35.207351335294376,
       31.741217156486485
      ],
      [
       35.20732798745046,
       31.741213174475316
      ],
      [
       35.20703854358072,
       31.741163810166057
      ],
      [
       35.20697066248706,
       31.741114650116128
      ],
      [
       35.20711280657629,
       31.740901762706194
      ],
      [
       35.20725538900227,
       31.740688220380246
      ],
      [
       35.20729644732473,
       31.74070723217322
      ],
      [
       35.20737739349714,
       31.740739418996927
      ],
      [
       35.207461125546196,
       31.74076589340667
      ],
      [
       35.207495290343715,
       31.740774846107147
      ],
      [
       35.20749529456499,
       31.740774847910732
      ],
      [
       35.20756583284735,
       31.740790127052247
      ],
      [
       35.20763739782605,
       31.740801388402783
      ],
      [
       35.20770967711961,
       31.740808584170924
      ],
      [
       35.20778763594017,
       31.74081174668928
      ],
      [
       35.207865661073264,
       31.74081017987564
      ],
      [
       35.207943359933005,
       31.740803890053844
      ],
      [
       35.208010207999656,
       31.74079463161586
      ],
      [
       35.20807626232342,
       31.740781877609212
      ],
      [
       35.20821420126868,
       31.74123783623224
      ]
     ]
    ]
   },
   "properties": {
    "row_num": 34,
    "plot_num": "9",
    "matched_xplan_num": "9",
    "area_sqm_table": 2347,
    "designation_table": "מסחר ישראלי",
    "units_yachd": 48,
    "owners": "מדינת ישראל",
    "family_type": "state_israel",
    "ownership_category": "state",
    "ownership_label": "מדינה ורשויות",
    "confidence": "high",
    "notes": "Excluded",
    "mavat_name": "מגורים ג'",
    "mavat_code": 100,
    "legal_area_xplan": 0,
    "pl_number": "101-0979336"
   }
  },
  {
   "type": "Feature",
   "geometry": {
    "type": "Polygon",
    "coordinates": [
     [
      [
       35.217244840559346,
       31.741351602305095
      ],
      [
       35.217878067191286,
       31.741348910633914
      ],
      [
       35.218511206236386,
       31.74133954126161
      ],
      [
       35.219144161524994,
       31.741323495102506
      ],
      [
       35.21922027357366,
       31.74147390881331
      ],
      [
       35.219155030819024,
       31.741493628949986
      ],
      [
       35.219224045198764,
       31.741658741767512
      ],
      [
       35.219300478060454,
       31.741635461601064
      ],
      [
       35.219330903315516,
       31.741730422446036
      ],
      [
       35.21932967972832,
       31.741734040796718
      ],
      [
       35.21893315616137,
       31.741743492950626
      ],
      [
       35.21859033431607,
       31.74173809621043
      ],
      [
       35.218247455136364,
       31.74173718614124
      ],
      [
       35.217904600887316,
       31.74174076183194
      ],
      [
       35.21763564058461,
       31.74174131135823
      ],
      [
       35.21736669464201,
       31.741738914885588
      ],
      [
       35.21735995142576,
       31.741544064472404
      ],
      [
       35.21721493213973,
       31.74154447056129
      ],
      [
       35.21723623716877,
       31.74140927083317
      ],
      [
       35.217244840559346,
       31.741351602305095
      ]
     ]
    ]
   },
   "properties": {
    "row_num": 35,
    "plot_num": "10",
    "matched_xplan_num": "10",
    "area_sqm_table": 1457,
    "designation_table": "מסחר ישראלי",
    "units_yachd": 30,
    "owners": "מדינת ישראל",
    "family_type": "state_israel",
    "ownership_category": "state",
    "ownership_label": "מדינה ורשויות",
    "confidence": "high",
    "notes": "Excluded",
    "mavat_name": "מגורים",
    "mavat_code": 10,
    "legal_area_xplan": 8.013,
    "pl_number": "151-0347427"
   }
  },
  {
   "type": "Feature",
   "geometry": {
    "type": "Polygon",
    "coordinates": [
     [
      [
       35.210219732121395,
       31.73886743696816
      ],
      [
       35.21021973001093,
       31.738867438771948
      ],
      [
       35.21021973001104,
       31.73886744057562
      ],
      [
       35.21011511372406,
       31.73914894413051
      ],
      [
       35.21001773908696,
       31.73909639065735
      ],
      [
       35.209917047021584,
       31.739048620648102
      ],
      [
       35.20981336044407,
       31.739005784689663
      ],
      [
       35.20970700859928,
       31.738968020743535
      ],
      [
       35.209598331281846,
       31.73893544873488
      ],
      [
       35.20964309392107,
       31.73881500887967
      ],
      [
       35.209678229514694,
       31.738720463229132
      ],
      [
       35.210219732121395,
       31.73886743696816
      ]
     ]
    ]
   },
   "properties": {
    "row_num": 72,
    "plot_num": "18B",
    "matched_xplan_num": "182",
    "area_sqm_table": 1485,
    "designation_table": "מגורים",
    "units_yachd": 23,
    "owners": "ע.פ. הסבעז בע\"מ; מדינת ישראל",
    "family_type": "state_israel",
    "ownership_category": "state",
    "ownership_label": "מדינה ורשויות",
    "confidence": "medium",
    "notes": "Excluded",
    "mavat_name": "מגורים ג'",
    "mavat_code": 100,
    "legal_area_xplan": 0,
    "pl_number": "101-0979336"
   }
  },
  {
   "type": "Feature",
   "geometry": {
    "type": "Polygon",
    "coordinates": [
     [
      [
       35.210568351857,
       31.73896206030558
      ],
      [
       35.21058209941873,
       31.738983124971362
      ],
      [
       35.21062584985916,
       31.739051618087284
      ],
      [
       35.21038435008826,
       31.73932265985446
      ],
      [
       35.210287301584565,
       31.73925950807202
      ],
      [
       35.21021827107284,
       31.739212238257245
      ],
      [
       35.21014690649429,
       31.739167571239705
      ],
      [
       35.21011511372406,
       31.73914894413051
      ],
      [
       35.21021973001104,
       31.73886744057562
      ],
      [
       35.21021973001093,
       31.738867438771948
      ],
      [
       35.210219732121395,
       31.73886743696816
      ],
      [
       35.210568351857,
       31.73896206030558
      ]
     ]
    ]
   },
   "properties": {
    "row_num": 74,
    "plot_num": "17A",
    "matched_xplan_num": "171",
    "area_sqm_table": 1437,
    "designation_table": "מגורים",
    "units_yachd": 17,
    "owners": "מדינת ישראל",
    "family_type": "state_israel",
    "ownership_category": "state",
    "ownership_label": "מדינה ורשויות",
    "confidence": "medium",
    "notes": "Excluded",
    "mavat_name": "מגורים ג'",
    "mavat_code": 100,
    "legal_area_xplan": 0,
    "pl_number": "101-0979336"
   }
  },
  {
   "type": "Feature",
   "geometry": {
    "type": "Polygon",
    "coordinates": [
     [
      [
       35.209882869615356,
       31.739033815610263
      ],
      [
       35.209962232491776,
       31.739069272768674
      ],
      [
       35.21003969714483,
       31.739107673589157
      ],
      [
       35.21011511372406,
       31.73914894413051
      ],
      [
       35.21014690649429,
       31.739167571239705
      ],
      [
       35.21000138248347,
       31.73934692076192
      ],
      [
       35.20992667488379,
       31.73930455257641
      ],
      [
       35.209849569925815,
       31.739265446428924
      ],
      [
       35.2097702628387,
       31.739229701510038
      ],
      [
       35.209882869615356,
       31.739033815610263
      ]
     ]
    ]
   },
   "properties": {
    "row_num": 76,
    "plot_num": "17C",
    "matched_xplan_num": "173",
    "area_sqm_table": 1507,
    "designation_table": "מגורים",
    "units_yachd": 17,
    "owners": "מדינת ישראל",
    "family_type": "state_israel",
    "ownership_category": "state",
    "ownership_label": "מדינה ורשויות",
    "confidence": "medium",
    "notes": "Excluded",
    "mavat_name": "מגורים ג'",
    "mavat_code": 100,
    "legal_area_xplan": 0,
    "pl_number": "101-0979336"
   }
  },
  {
   "type": "Feature",
   "geometry": {
    "type": "Polygon",
    "coordinates": [
     [
      [
       35.20899069145801,
       31.738852927944933
      ],
      [
       35.208887552207806,
       31.738854618087746
      ],
      [
       35.20878464427212,
       31.738860764163476
      ],
      [
       35.20868223251212,
       31.73887135083238
      ],
      [
       35.20859359652442,
       31.73888417534763
      ],
      [
       35.20850570780193,
       31.73890032759122
      ],
      [
       35.20841873834571,
       31.73891977419088
      ],
      [
       35.20841486337764,
       31.73892072305631
      ],
      [
       35.208382643215934,
       31.738769354520105
      ],
      [
       35.20842492539381,
       31.738747667379883
      ],
      [
       35.20848003114588,
       31.738721176578203
      ],
      [
       35.20848043215805,
       31.738721277572136
      ],
      [
       35.20848613688663,
       31.738718241772528
      ],
      [
       35.20855216213673,
       31.738679768652148
      ],
      [
       35.2086250197377,
       31.73862925200914
      ],
      [
       35.20869227979523,
       31.738573353292455
      ],
      [
       35.208753400969734,
       31.738512523452766
      ],
      [
       35.208762133044836,
       31.738504534594608
      ],
      [
       35.20877234679922,
       31.738497951663824
      ],
      [
       35.20878373621103,
       31.738492974880607
      ],
      [
       35.20879595937666,
       31.738489751257493
      ],
      [
       35.20880865011889,
       31.738488378206448
      ],
      [
       35.20882142748402,
       31.738488896323645
      ],
      [
       35.208833909460445,
       31.73849129119295
      ],
      [
       35.2089689133492,
       31.738527939257715
      ],
      [
       35.209031302425245,
       31.738544875480986
      ],
      [
       35.20903138473802,
       31.73854489171121
      ],
      [
       35.20912868725894,
       31.738571301409294
      ],
      [
       35.209023871748286,
       31.73885333257125
      ],
      [
       35.20902325335065,
       31.73885331996791
      ],
      [
       35.20899069145801,
       31.738852927944933
      ]
     ]
    ]
   },
   "properties": {
    "row_num": 127,
    "plot_num": "21A",
    "matched_xplan_num": "211",
    "area_sqm_table": 642,
    "designation_table": "מגורים",
    "units_yachd": 25,
    "owners": "מנהלת הפיתוח",
    "family_type": "state_israel",
    "ownership_category": "state",
    "ownership_label": "מדינה ורשויות",
    "confidence": "high",
    "notes": "Excluded",
    "mavat_name": "מגורים ג'",
    "mavat_code": 100,
    "legal_area_xplan": 0,
    "pl_number": "101-0979336"
   }
  },
  {
   "type": "Feature",
   "geometry": {
    "type": "Polygon",
    "coordinates": [
     [
      [
       35.215118840994,
       31.74190755653498
      ],
      [
       35.21499747590994,
       31.742007875451907
      ],
      [
       35.21490576148464,
       31.741926848569488
      ],
      [
       35.2150271286724,
       31.74182652793476
      ],
      [
       35.215118840994,
       31.74190755653498
      ]
     ]
    ]
   },
   "properties": {
    "row_num": 128,
    "plot_num": "25A",
    "matched_xplan_num": "251",
    "area_sqm_table": 2058,
    "designation_table": "מגורים",
    "units_yachd": 30,
    "owners": "מנהלת הפיתוח",
    "family_type": "state_israel",
    "ownership_category": "state",
    "ownership_label": "מדינה ורשויות",
    "confidence": "high",
    "notes": "Excluded",
    "mavat_name": "מגורים",
    "mavat_code": 10,
    "legal_area_xplan": 0.2,
    "pl_number": "151-0347427"
   }
  },
  {
   "type": "Feature",
   "geometry": {
    "type": "Polygon",
    "coordinates": [
     [
      [
       35.2082131522648,
       31.737137231671458
      ],
      [
       35.2081541354052,
       31.73718731208967
      ],
      [
       35.20809975336092,
       31.73724108811353
      ],
      [
       35.20806029238684,
       31.737286094124634
      ],
      [
       35.20802438559942,
       31.73733322387099
      ],
      [
       35.2079921870628,
       31.737382271730183
      ],
      [
       35.207960697922566,
       31.73743884908038
      ],
      [
       35.20792846105066,
       31.737508351712368
      ],
      [
       35.20790357839313,
       31.737580028485024
      ],
      [
       35.20788624622429,
       31.737653310331936
      ],
      [
       35.20728168218354,
       31.737615397459503
      ],
      [
       35.207296954620865,
       31.737532122376564
      ],
      [
       35.20731808169322,
       31.737449786880283
      ],
      [
       35.20734498636076,
       31.73736869218647
      ],
      [
       35.20737757047905,
       31.73728913229592
      ],
      [
       35.20741571479962,
       31.737211399405528
      ],
      [
       35.20745928108031,
       31.737135776693645
      ],
      [
       35.20751481164793,
       31.737053239211907
      ],
      [
       35.20757679833773,
       31.736974129463356
      ],
      [
       35.20764495201102,
       31.736898816301466
      ],
      [
       35.207718955039795,
       31.736827648739578
      ],
      [
       35.20779846341756,
       31.736760958656582
      ],
      [
       35.2082131522648,
       31.737137231671458
      ]
     ]
    ]
   },
   "properties": {
    "row_num": 129,
    "plot_num": "33",
    "matched_xplan_num": "33",
    "area_sqm_table": 2916,
    "designation_table": "מגורים",
    "units_yachd": 47,
    "owners": "מנהלת הפיתוח",
    "family_type": "state_israel",
    "ownership_category": "state",
    "ownership_label": "מדינה ורשויות",
    "confidence": "high",
    "notes": "Excluded",
    "mavat_name": "מגורים ד'",
    "mavat_code": 140,
    "legal_area_xplan": 0,
    "pl_number": "101-0979336"
   }
  },
  {
   "type": "Feature",
   "geometry": {
    "type": "Polygon",
    "coordinates": [
     [
      [
       35.20866974322939,
       31.736375789533085
      ],
      [
       35.20868084651912,
       31.736373121495415
      ],
      [
       35.20869230127872,
       31.736371964038643
      ],
      [
       35.20870382681161,
       31.736372343325748
      ],
      [
       35.20871514241973,
       31.73637425215147
      ],
      [
       35.2087259726793,
       31.736377642727433
      ],
      [
       35.20873605377273,
       31.736382432994656
      ],
      [
       35.20874513876471,
       31.736388505721607
      ],
      [
       35.20875300709973,
       31.736395713013234
      ],
      [
       35.20875946671272,
       31.736403879016155
      ],
      [
       35.20881334893953,
       31.736509175006063
      ],
      [
       35.20887208327956,
       31.736612557983083
      ],
      [
       35.20893557687448,
       31.736713866513302
      ],
      [
       35.209003728422466,
       31.736812939162736
      ],
      [
       35.208641705560495,
       31.73694004907252
      ],
      [
       35.20853040657354,
       31.736979127969576
      ],
      [
       35.2083819648654,
       31.737031246843767
      ],
      [
       35.20833901434944,
       31.737051289027548
      ],
      [
       35.20829858288018,
       31.737074851027884
      ],
      [
       35.20826106616976,
       31.73710170286411
      ],
      [
       35.2082131522648,
       31.737137231671458
      ],
      [
       35.20779846341756,
       31.736760958656582
      ],
      [
       35.207798794760045,
       31.73676069891572
      ],
      [
       35.2078750869857,
       31.736704563185587
      ],
      [
       35.20795528162917,
       31.736652551446088
      ],
      [
       35.2080390747876,
       31.736604862105043
      ],
      [
       35.20812614673093,
       31.73656167553426
      ],
      [
       35.20821616612286,
       31.73652315677509
      ],
      [
       35.208318189073815,
       31.736486349287365
      ],
      [
       35.20866974322939,
       31.736375789533085
      ]
     ]
    ]
   },
   "properties": {
    "row_num": 130,
    "plot_num": "35",
    "matched_xplan_num": "35",
    "area_sqm_table": 2522,
    "designation_table": "מגורים",
    "units_yachd": 33,
    "owners": "מנהלת הפיתוח",
    "family_type": "state_israel",
    "ownership_category": "state",
    "ownership_label": "מדינה ורשויות",
    "confidence": "high",
    "notes": "Excluded",
    "mavat_name": "מגורים ד'",
    "mavat_code": 140,
    "legal_area_xplan": 0,
    "pl_number": "101-0979336"
   }
  },
  {
   "type": "Feature",
   "geometry": {
    "type": "Polygon",
    "coordinates": [
     [
      [
       35.2087193041944,
       31.739087285933532
      ],
      [
       35.20860640397951,
       31.73910462772906
      ],
      [
       35.20849504260512,
       31.739128136202105
      ],
      [
       35.208489652228614,
       31.739128930902908
      ],
      [
       35.20848418161615,
       31.739128954527203
      ],
      [
       35.20847878272922,
       31.7391282052664
      ],
      [
       35.20847360119873,
       31.739126705662024
      ],
      [
       35.208468781600956,
       31.739124494488795
      ],
      [
       35.20846445479442,
       31.739121633970022
      ],
      [
       35.208460740030155,
       31.73911820256259
      ],
      [
       35.2084577396752,
       31.739114294055337
      ],
      [
       35.20845553499139,
       31.739110015765434
      ],
      [
       35.208454187190426,
       31.739105484931077
      ],
      [
       35.208448335472646,
       31.739077984206755
      ],
      [
       35.208427930407176,
       31.73898032568729
      ],
      [
       35.20842756105936,
       31.7389803816135
      ],
      [
       35.20841486337764,
       31.73892072305631
      ],
      [
       35.20841873834571,
       31.73891977419088
      ],
      [
       35.20850570780193,
       31.73890032759122
      ],
      [
       35.20859359652442,
       31.73888417534763
      ],
      [
       35.20868223251212,
       31.73887135083238
      ],
      [
       35.2087193041944,
       31.739087285933532
      ]
     ]
    ]
   },
   "properties": {
    "row_num": 131,
    "plot_num": "22",
    "matched_xplan_num": "22",
    "area_sqm_table": 666,
    "designation_table": "מגורים",
    "units_yachd": 25,
    "owners": "מנהלת הפיתוח",
    "family_type": "state_israel",
    "ownership_category": "state",
    "ownership_label": "מדינה ורשויות",
    "confidence": "high",
    "notes": "Excluded",
    "mavat_name": "מגורים ג'",
    "mavat_code": 100,
    "legal_area_xplan": 0,
    "pl_number": "101-0979336"
   }
  },
  {
   "type": "Feature",
   "geometry": {
    "type": "Polygon",
    "coordinates": [
     [
      [
       35.21662714165428,
       31.742275680391074
      ],
      [
       35.216495226184335,
       31.742275692999918
      ],
      [
       35.21649520740074,
       31.74213139761198
      ],
      [
       35.21662712266615,
       31.742131385003205
      ],
      [
       35.21662714165428,
       31.742275680391074
      ]
     ]
    ]
   },
   "properties": {
    "row_num": 134,
    "plot_num": "24A",
    "matched_xplan_num": "241",
    "area_sqm_table": 662,
    "designation_table": "מגורים",
    "units_yachd": 12,
    "owners": "מנהלת הפיתוח",
    "family_type": "state_israel",
    "ownership_category": "state",
    "ownership_label": "מדינה ורשויות",
    "confidence": "high",
    "notes": "Excluded",
    "mavat_name": "מגורים",
    "mavat_code": 10,
    "legal_area_xplan": 0.2,
    "pl_number": "151-0347427"
   }
  },
  {
   "type": "Feature",
   "geometry": {
    "type": "Polygon",
    "coordinates": [
     [
      [
       35.21649520740074,
       31.74213139761198
      ],
      [
       35.216495226184335,
       31.742275692999918
      ],
      [
       35.216363310714335,
       31.742275705472224
      ],
      [
       35.216363292135235,
       31.742131410084227
      ],
      [
       35.21649520740074,
       31.74213139761198
      ]
     ]
    ]
   },
   "properties": {
    "row_num": 135,
    "plot_num": "24B",
    "matched_xplan_num": "242",
    "area_sqm_table": 640,
    "designation_table": "מגורים",
    "units_yachd": 11,
    "owners": "מנהלת הפיתוח",
    "family_type": "state_israel",
    "ownership_category": "state",
    "ownership_label": "מדינה ורשויות",
    "confidence": "high",
    "notes": "Excluded",
    "mavat_name": "מגורים",
    "mavat_code": 10,
    "legal_area_xplan": 0.2,
    "pl_number": "151-0347427"
   }
  },
  {
   "type": "Feature",
   "geometry": {
    "type": "Polygon",
    "coordinates": [
     [
      [
       35.21493541651048,
       31.741745499267463
      ],
      [
       35.2150271286724,
       31.74182652793476
      ],
      [
       35.21490576148464,
       31.741926848569488
      ],
      [
       35.21481405144012,
       31.741845819815953
      ],
      [
       35.21493541651048,
       31.741745499267463
      ]
     ]
    ]
   },
   "properties": {
    "row_num": 136,
    "plot_num": "25B",
    "matched_xplan_num": "252",
    "area_sqm_table": 663,
    "designation_table": "מגורים",
    "units_yachd": 11,
    "owners": "מנהלת הפיתוח",
    "family_type": "state_israel",
    "ownership_category": "state",
    "ownership_label": "מדינה ורשויות",
    "confidence": "high",
    "notes": "Excluded",
    "mavat_name": "מגורים",
    "mavat_code": 10,
    "legal_area_xplan": 0.2,
    "pl_number": "151-0347427"
   }
  }
 ]
}