{
 "type": "FeatureCollection",
 "name": "givat_hamatos_christian_plots",
 "crs": {
  "type": "name",
  "properties": {
   "name": "urn:ogc:def:crs:OGC:1.3:CRS84"
  }
 },
 "features": [
  {
   "type": "Feature",
   "geometry": {
    "type": "Polygon",
    "coordinates": [
     [
      [
       35.20658491739281,
       31.73605657797803
      ],
      [
       35.20680323891579,
       31.73622539076362
      ],
      [
       35.20674092436002,
       31.736281722200903
      ],
      [
       35.20668152440294,
       31.736340308172196
      ],
      [
       35.20625411498983,
       31.736081575257526
      ],
      [
       35.206286769949266,
       31.736036803477546
      ],
      [
       35.20643348807579,
       31.735939488291397
      ],
      [
       35.20658491739281,
       31.73605657797803
      ]
     ]
    ]
   },
   "properties": {
    "row_num": 26,
    "plot_num": "141",
    "matched_xplan_num": "141",
    "area_sqm_table": 885,
    "designation_table": "מגורים",
    "units_yachd": 8,
    "owners": "כנסת הקהילה הברואית הירושלמית 1955 (Lutheran/Catholic Jerusalem Congregation)",
    "family_type": "christian_other",
    "ownership_category": "christian",
    "ownership_label": "כנסיות נוצריות",
    "confidence": "medium",
    "notes": "Christian church - possibly Armenian/Arab Christian, needs review",
    "mavat_name": "מגורים ב'",
    "mavat_code": 60,
    "legal_area_xplan": 0,
    "pl_number": "101-0979336"
   }
  },
  {
   "type": "Feature",
   "geometry": {
    "type": "Polygon",
    "coordinates": [
     [
      [
       35.208557646592226,
       31.740258404014583
      ],
      [
       35.20857174683083,
       31.740383630343544
      ],
      [
       35.20826897863184,
       31.740538743100185
      ],
      [
       35.20826898074245,
       31.740538743100114
      ],
      [
       35.208209594653425,
       31.740566654339784
      ],
      [
       35.208147944744205,
       31.740590712930743
      ],
      [
       35.20808437082356,
       31.7406107862884
      ],
      [
       35.20800460106414,
       31.740629741786346
      ],
      [
       35.20792314676621,
       31.740642426743054
      ],
      [
       35.20784068017112,
       31.74064873562101
      ],
      [
       35.20775788407627,
       31.740648616994992
      ],
      [
       35.20767544339201,
       31.740642071748415
      ],
      [
       35.20759403880896,
       31.74062915397562
      ],
      [
       35.20751434363154,
       31.74060997007986
      ],
      [
       35.2075884801702,
       31.740098666387492
      ],
      [
       35.20758858988443,
       31.74009759679476
      ],
      [
       35.20763875673656,
       31.740098860812516
      ],
      [
       35.207688765121404,
       31.740095236806663
      ],
      [
       35.20780872223007,
       31.74007227623151
      ],
      [
       35.207988744315834,
       31.7400378171176
      ],
      [
       35.207988792859226,
       31.74003780809775
      ],
      [
       35.20814190069935,
       31.740008502677497
      ],
      [
       35.20832297993819,
       31.739973842849977
      ],
      [
       35.20836530137762,
       31.739968733474964
      ],
      [
       35.208460203507975,
       31.739950828818756
      ],
      [
       35.20852135734044,
       31.739936151999775
      ],
      [
       35.208557646592226,
       31.740258404014583
      ]
     ]
    ]
   },
   "properties": {
    "row_num": 32,
    "plot_num": "12",
    "matched_xplan_num": "12",
    "area_sqm_table": 2579,
    "designation_table": "מסחר ירושלים",
    "units_yachd": 64,
    "owners": "המוסדות... האוונגליסטיים ירושלים",
    "family_type": "christian_european",
    "ownership_category": "christian",
    "ownership_label": "כנסיות נוצריות",
    "confidence": "low",
    "notes": "Evangelical Lutheran institutions - non-Arab non-Armenian European Christian",
    "mavat_name": "מגורים ג'",
    "mavat_code": 100,
    "legal_area_xplan": 0,
    "pl_number": "101-0979336"
   }
  }
 ]
}