{
 "type": "FeatureCollection",
 "name": "givat_hamatos_unknown_plots",
 "crs": {
  "type": "name",
  "properties": {
   "name": "urn:ogc:def:crs:OGC:1.3:CRS84"
  }
 },
 "features": [
  {
   "type": "Feature",
   "geometry": {
    "type": "Polygon",
    "coordinates": [
     [
      [
       35.20680980924426,
       31.73728835075966
      ],
      [
       35.206788540028995,
       31.737317379811
      ],
      [
       35.206749393796606,
       31.737399241186008
      ],
      [
       35.20671616091479,
       31.73746873270812
      ],
      [
       35.20627960514434,
       31.737399063273585
      ],
      [
       35.20627407340896,
       31.737398181349693
      ],
      [
       35.20631718681522,
       31.737265882469448
      ],
      [
       35.20636576429327,
       31.737134974134772
      ],
      [
       35.20680980924426,
       31.73728835075966
      ]
     ]
    ]
   },
   "properties": {
    "row_num": 11,
    "plot_num": "43+43A*",
    "matched_xplan_num": "43",
    "area_sqm_table": 1242,
    "designation_table": "מגורים",
    "units_yachd": 15,
    "owners": "אסף בק חיים (uncertain reading)",
    "family_type": "needs_review",
    "ownership_category": "unknown",
    "ownership_label": "לא ידוע / לבדיקה",
    "confidence": "low",
    "notes": "Owner name unclear",
    "mavat_name": "מגורים ב'",
    "mavat_code": 60,
    "legal_area_xplan": 0,
    "pl_number": "101-0979336"
   }
  },
  {
   "type": "Feature",
   "geometry": {
    "type": "Polygon",
    "coordinates": [
     [
      [
       35.208107142361584,
       31.735713043426514
      ],
      [
       35.208122135349356,
       31.73571315842361
      ],
      [
       35.2082435509737,
       31.736086975828965
      ],
      [
       35.20817701396825,
       31.736110415029923
      ],
      [
       35.20812518907781,
       31.736128763739824
      ],
      [
       35.20793581041402,
       31.735724873341045
      ],
      [
       35.20802116602151,
       31.73571567569794
      ],
      [
       35.208107142361584,
       31.735713043426514
      ]
     ]
    ]
   },
   "properties": {
    "row_num": 12,
    "plot_num": "54",
    "matched_xplan_num": "54",
    "area_sqm_table": 671,
    "designation_table": "מגורים",
    "units_yachd": 14,
    "owners": "אגנקה צהלה (uncertain)",
    "family_type": "needs_review",
    "ownership_category": "unknown",
    "ownership_label": "לא ידוע / לבדיקה",
    "confidence": "low",
    "notes": "Owner ID 1081153 - name unclear",
    "mavat_name": "מגורים ב'",
    "mavat_code": 60,
    "legal_area_xplan": 0,
    "pl_number": "101-0979336"
   }
  },
  {
   "type": "Feature",
   "geometry": {
    "type": "Polygon",
    "coordinates": [
     [
      [
       35.206890967621334,
       31.740413558126026
      ],
      [
       35.20693968703361,
       31.740463179453666
      ],
      [
       35.20699129902429,
       31.74051061823469
      ],
      [
       35.20704566851169,
       31.740555750915497
      ],
      [
       35.20711140695926,
       31.74060459623133
      ],
      [
       35.20718145942594,
       31.74064884560882
      ],
      [
       35.20725538900228,
       31.740688220380246
      ],
      [
       35.20711280657629,
       31.740901762706194
      ],
      [
       35.20702919385057,
       31.74102698944732
      ],
      [
       35.20685232260564,
       31.74089662569753
      ],
      [
       35.206816508406405,
       31.740848415483413
      ],
      [
       35.20678281960409,
       31.74079909775144
      ],
      [
       35.206748005694294,
       31.74074245162723
      ],
      [
       35.20671592715013,
       31.740684638453672
      ],
      [
       35.20664539312547,
       31.74053176774046
      ],
      [
       35.206890967621334,
       31.740413558126026
      ]
     ]
    ]
   },
   "properties": {
    "row_num": 19,
    "plot_num": "11",
    "matched_xplan_num": "11",
    "area_sqm_table": 2023,
    "designation_table": "מגורים",
    "units_yachd": 28,
    "owners": "המנזר ירושלים בעלמ (uncertain)",
    "family_type": "needs_review",
    "ownership_category": "unknown",
    "ownership_label": "לא ידוע / לבדיקה",
    "confidence": "low",
    "notes": "Religious organization - check",
    "mavat_name": "מגורים ג'",
    "mavat_code": 100,
    "legal_area_xplan": 0,
    "pl_number": "101-0979336"
   }
  },
  {
   "type": "Feature",
   "geometry": {
    "type": "Polygon",
    "coordinates": [
     [
      [
       35.206713495531616,
       31.740171787284336
      ],
      [
       35.20676552503402,
       31.740256093635082
      ],
      [
       35.20682479285233,
       31.740336834825744
      ],
      [
       35.206890967621334,
       31.740413558126026
      ],
      [
       35.20664539312547,
       31.74053176774046
      ],
      [
       35.206485691883096,
       31.74025293579021
      ],
      [
       35.206713495531616,
       31.740171787284336
      ]
     ]
    ]
   },
   "properties": {
    "row_num": 20,
    "plot_num": "106",
    "matched_xplan_num": "106",
    "area_sqm_table": 806,
    "designation_table": "מגורים",
    "units_yachd": 7,
    "owners": "המנזר ירושלים בעלמ (uncertain)",
    "family_type": "needs_review",
    "ownership_category": "unknown",
    "ownership_label": "לא ידוע / לבדיקה",
    "confidence": "low",
    "notes": "",
    "mavat_name": "מגורים ב'",
    "mavat_code": 60,
    "legal_area_xplan": 0,
    "pl_number": "101-0979336"
   }
  },
  {
   "type": "Feature",
   "geometry": {
    "type": "Polygon",
    "coordinates": [
     [
      [
       35.20671592715013,
       31.740684638453672
      ],
      [
       35.206746589411395,
       31.740740023883035
      ],
      [
       35.206460635198745,
       31.740836382140916
      ],
      [
       35.20644000049213,
       31.740776057971047
      ],
      [
       35.20641085650108,
       31.740698404052612
      ],
      [
       35.2063790595383,
       31.740621514933988
      ],
      [
       35.20664539312547,
       31.74053176774046
      ],
      [
       35.20671592715013,
       31.740684638453672
      ]
     ]
    ]
   },
   "properties": {
    "row_num": 37,
    "plot_num": "102",
    "matched_xplan_num": "102",
    "area_sqm_table": 695,
    "designation_table": "מגורים",
    "units_yachd": 6,
    "owners": "המכר ירוחם דוד (uncertain)",
    "family_type": "needs_review",
    "ownership_category": "unknown",
    "ownership_label": "לא ידוע / לבדיקה",
    "confidence": "low",
    "notes": "",
    "mavat_name": "מגורים ב'",
    "mavat_code": 60,
    "legal_area_xplan": 0,
    "pl_number": "101-0979336"
   }
  },
  {
   "type": "Feature",
   "geometry": {
    "type": "Polygon",
    "coordinates": [
     [
      [
       35.2101807174619,
       31.738177769512802
      ],
      [
       35.21019709766903,
       31.73821462363592
      ],
      [
       35.21022578417172,
       31.738279172906484
      ],
      [
       35.210243333829524,
       31.738318662165575
      ],
      [
       35.21028388461396,
       31.73839525413691
      ],
      [
       35.210304986989385,
       31.738444135053967
      ],
      [
       35.21033295395072,
       31.738508915204317
      ],
      [
       35.21035519625157,
       31.73856044027347
      ],
      [
       35.21036545894701,
       31.738578115987345
      ],
      [
       35.21034231005305,
       31.73864040582035
      ],
      [
       35.21030714562154,
       31.738735034626345
      ],
      [
       35.20986604477972,
       31.738615310780705
      ],
      [
       35.20986608064997,
       31.738615152054148
      ],
      [
       35.20990964209178,
       31.738427237782915
      ],
      [
       35.20995320335788,
       31.738239325294987
      ],
      [
       35.209985255490054,
       31.738224674290674
      ],
      [
       35.2101669417842,
       31.73814241233481
      ],
      [
       35.2101807174619,
       31.738177769512802
      ]
     ]
    ]
   },
   "properties": {
    "row_num": 38,
    "plot_num": "27",
    "matched_xplan_num": "27",
    "area_sqm_table": 1953,
    "designation_table": "מסחר",
    "units_yachd": 28,
    "owners": "היפסטריאל הצעיר (uncertain)",
    "family_type": "needs_review",
    "ownership_category": "unknown",
    "ownership_label": "לא ידוע / לבדיקה",
    "confidence": "low",
    "notes": "",
    "mavat_name": "מגורים ג'",
    "mavat_code": 100,
    "legal_area_xplan": 0,
    "pl_number": "101-0979336"
   }
  },
  {
   "type": "Feature",
   "geometry": {
    "type": "Polygon",
    "coordinates": [
     [
      [
       35.20662154012925,
       31.73523106796837
      ],
      [
       35.206364982674835,
       31.735418584285473
      ],
      [
       35.206202401077576,
       31.7352111582577
      ],
      [
       35.20645570720529,
       31.73507620016623
      ],
      [
       35.20662154012925,
       31.73523106796837
      ]
     ]
    ]
   },
   "properties": {
    "row_num": 39,
    "plot_num": "150",
    "matched_xplan_num": "150",
    "area_sqm_table": 763,
    "designation_table": "מגורים",
    "units_yachd": 9,
    "owners": "הסטרנגרך הצעיר (uncertain)",
    "family_type": "needs_review",
    "ownership_category": "unknown",
    "ownership_label": "לא ידוע / לבדיקה",
    "confidence": "low",
    "notes": "",
    "mavat_name": "מגורים ב'",
    "mavat_code": 60,
    "legal_area_xplan": 0,
    "pl_number": "101-0979336"
   }
  },
  {
   "type": "Feature",
   "geometry": {
    "type": "Polygon",
    "coordinates": [
     [
      [
       35.20721370377607,
       31.74184543805238
      ],
      [
       35.207132415746955,
       31.741881798666952
      ],
      [
       35.20704808395531,
       31.741912685086582
      ],
      [
       35.20696121285085,
       31.74193791512216
      ],
      [
       35.20692331755118,
       31.741944665301222
      ],
      [
       35.20688463694055,
       31.74194594127785
      ],
      [
       35.20684624534054,
       31.741941706956684
      ],
      [
       35.20680921074474,
       31.741932080459467
      ],
      [
       35.20677456315807,
       31.74191732961637
      ],
      [
       35.20674326504697,
       31.74189786475145
      ],
      [
       35.206716186010624,
       31.74187422605714
      ],
      [
       35.20669407850825,
       31.741847070968305
      ],
      [
       35.206677558862665,
       31.741817154321676
      ],
      [
       35.206670846595706,
       31.74179924648153
      ],
      [
       35.20666614786706,
       31.741780876859625
      ],
      [
       35.206661037384826,
       31.741755103988925
      ],
      [
       35.20663482430672,
       31.74162288297066
      ],
      [
       35.20657681932332,
       31.741330303401032
      ],
      [
       35.20657395064185,
       31.74131585587245
      ],
      [
       35.20691981586051,
       31.741204805110872
      ],
      [
       35.206925324812424,
       31.741213038858017
      ],
      [
       35.20692532692317,
       31.74121304246535
      ],
      [
       35.206963427367484,
       31.74126997165007
      ],
      [
       35.20704104599014,
       31.741283867504897
      ],
      [
       35.20711866463596,
       31.741297763312392
      ],
      [
       35.20713058344036,
       31.74130124418251
      ],
      [
       35.20725037555341,
       31.74182745802497
      ],
      [
       35.20725075548555,
       31.74182802257216
      ],
      [
       35.20721387264743,
       31.741846105414854
      ],
      [
       35.20721370377607,
       31.74184543805238
      ]
     ]
    ]
   },
   "properties": {
    "row_num": 51,
    "plot_num": "101",
    "matched_xplan_num": "101",
    "area_sqm_table": 3912,
    "designation_table": "מגורים",
    "units_yachd": 0,
    "owners": "לא ידוע (30283/4)",
    "family_type": "unknown",
    "ownership_category": "unknown",
    "ownership_label": "לא ידוע / לבדיקה",
    "confidence": "high",
    "notes": "Owner unknown - skip",
    "mavat_name": "מגורים ב'",
    "mavat_code": 60,
    "legal_area_xplan": 0,
    "pl_number": "101-0979336"
   }
  },
  {
   "type": "Feature",
   "geometry": {
    "type": "Polygon",
    "coordinates": [
     [
      [
       35.21071815988519,
       31.740164948518316
      ],
      [
       35.21069935524877,
       31.74017683218137
      ],
      [
       35.2106853034758,
       31.74018571245777
      ],
      [
       35.210685305586395,
       31.740185712457667
      ],
      [
       35.210681550989314,
       31.7401880844996
      ],
      [
       35.210586808027706,
       31.740247959128883
      ],
      [
       35.2104031710745,
       31.740119941814054
      ],
      [
       35.21050322977205,
       31.740015117231593
      ],
      [
       35.21071815988519,
       31.740164948518316
      ]
     ]
    ]
   },
   "properties": {
    "row_num": 66,
    "plot_num": "153",
    "matched_xplan_num": "153",
    "area_sqm_table": 366,
    "designation_table": "מגורים",
    "units_yachd": 1,
    "owners": "uncertain (ID 16/30288)",
    "family_type": "needs_review",
    "ownership_category": "unknown",
    "ownership_label": "לא ידוע / לבדיקה",
    "confidence": "low",
    "notes": "",
    "mavat_name": "מגורים א'",
    "mavat_code": 20,
    "legal_area_xplan": 0,
    "pl_number": "101-0979336"
   }
  },
  {
   "type": "Feature",
   "geometry": {
    "type": "Polygon",
    "coordinates": [
     [
      [
       35.20812518907781,
       31.736128763739824
      ],
      [
       35.207994115623876,
       31.7361742783336
      ],
      [
       35.207763443181186,
       31.73576458636158
      ],
      [
       35.20784854505718,
       31.735741299283525
      ],
      [
       35.20793581041402,
       31.735724873341045
      ],
      [
       35.20812518907781,
       31.736128763739824
      ]
     ]
    ]
   },
   "properties": {
    "row_num": 67,
    "plot_num": "53",
    "matched_xplan_num": "53",
    "area_sqm_table": 747,
    "designation_table": "מגורים",
    "units_yachd": 8,
    "owners": "uncertain",
    "family_type": "needs_review",
    "ownership_category": "unknown",
    "ownership_label": "לא ידוע / לבדיקה",
    "confidence": "low",
    "notes": "",
    "mavat_name": "מגורים ב'",
    "mavat_code": 60,
    "legal_area_xplan": 0,
    "pl_number": "101-0979336"
   }
  },
  {
   "type": "Feature",
   "geometry": {
    "type": "Polygon",
    "coordinates": [
     [
      [
       35.21084277688624,
       31.74008619302478
      ],
      [
       35.21071815988519,
       31.740164948518316
      ],
      [
       35.21050322977205,
       31.740015117231593
      ],
      [
       35.21054509265534,
       31.73997126202526
      ],
      [
       35.21064290080804,
       31.73986148630215
      ],
      [
       35.21065065408444,
       31.73997133804127
      ],
      [
       35.21077532479027,
       31.739939920532226
      ],
      [
       35.21084277688624,
       31.74008619302478
      ]
     ]
    ]
   },
   "properties": {
    "row_num": 101,
    "plot_num": "154",
    "matched_xplan_num": "154",
    "area_sqm_table": 512,
    "designation_table": "מגורים",
    "units_yachd": 4,
    "owners": "האפראריארך הלוטרני אנגליקני (Anglican/Lutheran Patriarch - uncertain)",
    "family_type": "needs_review",
    "ownership_category": "unknown",
    "ownership_label": "לא ידוע / לבדיקה",
    "confidence": "low",
    "notes": "Christian Patriarchate - confirm if Armenian/Anglican/Lutheran",
    "mavat_name": "מגורים א'",
    "mavat_code": 20,
    "legal_area_xplan": 0,
    "pl_number": "101-0979336"
   }
  },
  {
   "type": "Feature",
   "geometry": {
    "type": "Polygon",
    "coordinates": [
     [
      [
       35.20703887080842,
       31.736955214759295
      ],
      [
       35.206970940287356,
       31.737067285068793
      ],
      [
       35.206964342692565,
       31.737064413722166
      ],
      [
       35.206995114736024,
       31.737007973710195
      ],
      [
       35.20701243186893,
       31.736942174601406
      ],
      [
       35.20703887080842,
       31.736955214759295
      ]
     ]
    ]
   },
   "properties": {
    "row_num": 103,
    "plot_num": "48+46A*",
    "matched_xplan_num": "461",
    "area_sqm_table": 761,
    "designation_table": "מגורים",
    "units_yachd": 7,
    "owners": "נסטאס ברינך",
    "family_type": "needs_review",
    "ownership_category": "unknown",
    "ownership_label": "לא ידוע / לבדיקה",
    "confidence": "low",
    "notes": "Possibly Greek/Armenian/Christian Arab",
    "mavat_name": "מגורים ב'",
    "mavat_code": 60,
    "legal_area_xplan": 0,
    "pl_number": "101-0979336"
   }
  },
  {
   "type": "Feature",
   "geometry": {
    "type": "Polygon",
    "coordinates": [
     [
      [
       35.20701243186893,
       31.736942174601406
      ],
      [
       35.206995114736024,
       31.737007973710195
      ],
      [
       35.206964342692565,
       31.737064413722166
      ],
      [
       35.206501492672366,
       31.736862908176857
      ],
      [
       35.20654257250295,
       31.73679683006193
      ],
      [
       35.20658628834656,
       31.73673200004367
      ],
      [
       35.20701243186893,
       31.736942174601406
      ]
     ]
    ]
   },
   "properties": {
    "row_num": 120,
    "plot_num": "46+46A*",
    "matched_xplan_num": "46",
    "area_sqm_table": 610,
    "designation_table": "מגורים",
    "units_yachd": 8,
    "owners": "uncertain",
    "family_type": "needs_review",
    "ownership_category": "unknown",
    "ownership_label": "לא ידוע / לבדיקה",
    "confidence": "low",
    "notes": "",
    "mavat_name": "מגורים ב'",
    "mavat_code": 60,
    "legal_area_xplan": 0,
    "pl_number": "101-0979336"
   }
  },
  {
   "type": "Feature",
   "geometry": {
    "type": "Polygon",
    "coordinates": [
     [
      [
       35.20792560016878,
       31.741496414747722
      ],
      [
       35.20791870697966,
       31.741499784237085
      ],
      [
       35.20791319622755,
       31.741502489928834
      ],
      [
       35.20788912496542,
       31.74151504429427
      ],
      [
       35.20725075548555,
       31.74182802257216
      ],
      [
       35.20725037555341,
       31.74182745802497
      ],
      [
       35.20713058344036,
       31.74130124418251
      ],
      [
       35.20748948402843,
       31.741406075565035
      ],
      [
       35.20763668044748,
       31.741441325060585
      ],
      [
       35.20772789121216,
       31.741439879743073
      ],
      [
       35.207893068679034,
       31.741487108594878
      ],
      [
       35.20792560650053,
       31.741496411140172
      ],
      [
       35.20792559383675,
       31.741496411140517
      ],
      [
       35.20792560016878,
       31.741496414747722
      ]
     ]
    ]
   },
   "properties": {
    "row_num": 137,
    "plot_num": "100",
    "matched_xplan_num": "100",
    "area_sqm_table": 2025,
    "designation_table": "מסחר ומגורים",
    "units_yachd": 17,
    "owners": "האחים מן בית הקברות הקתוליים (uncertain - religious institution)",
    "family_type": "needs_review",
    "ownership_category": "unknown",
    "ownership_label": "לא ידוע / לבדיקה",
    "confidence": "low",
    "notes": "Possibly Christian brothers - check",
    "mavat_name": "מגורים ב'",
    "mavat_code": 60,
    "legal_area_xplan": 0,
    "pl_number": "101-0979336"
   }
  },
  {
   "type": "Feature",
   "geometry": {
    "type": "Polygon",
    "coordinates": [
     [
      [
       35.206964342692565,
       31.737064413722166
      ],
      [
       35.206933680353686,
       31.73712064629918
      ],
      [
       35.20690942101279,
       31.73716514390951
      ],
      [
       35.20690248819488,
       31.737175426905324
      ],
      [
       35.206425227713645,
       31.73700294641266
      ],
      [
       35.20646190394552,
       31.736932348338907
      ],
      [
       35.206501492672366,
       31.736862908176857
      ],
      [
       35.206964342692565,
       31.737064413722166
      ]
     ]
    ]
   },
   "properties": {
    "row_num": 138,
    "plot_num": "45+45A*",
    "matched_xplan_num": "45",
    "area_sqm_table": 787,
    "designation_table": "מסחר ומגורים",
    "units_yachd": 6,
    "owners": "האחים מן בית (uncertain)",
    "family_type": "needs_review",
    "ownership_category": "unknown",
    "ownership_label": "לא ידוע / לבדיקה",
    "confidence": "low",
    "notes": "",
    "mavat_name": "מגורים ב'",
    "mavat_code": 60,
    "legal_area_xplan": 0,
    "pl_number": "101-0979336"
   }
  }
 ]
}