{"type": "FeatureCollection", "name": "migrash_panui", "features": [{"type": "Feature", "properties": {"id": "134146", "type": "מגרש ציבורי פנוי", "name": "מגרש ריק", "address": "מכור מערבית לרחוב", "target_population": "כללי", "use": "ציבורי", "gross_area": "660", "taba_id": "2696", "planning_block": "30143", "planning_parcel": "149", "planning_plot": "6", "information_source": "לא ידוע", "position_source": "yiud_karka_taba", "match_landuse_xplan": [{"pl_number": "101-0092098", "num": "1", "mavat_code": 995, "mavat_name": "יעוד עפ\"י תכנית מאושרת אחרת", "is_hafrash": false}, {"pl_number": "101-0253286", "num": "1", "mavat_code": 995, "mavat_name": "יעוד עפ\"י תכנית מאושרת אחרת", "is_hafrash": false}, {"pl_number": "101-0292870", "num": "1", "mavat_code": 995, "mavat_name": "יעוד עפ\"י תכנית מאושרת אחרת", "is_hafrash": false}, {"pl_number": "101-0965152", "num": "1", "mavat_code": 995, "mavat_name": "יעוד עפ\"י תכנית מאושרת אחרת", "is_hafrash": false}, {"pl_number": "101-0615880", "num": "1", "mavat_code": 995, "mavat_name": "יעוד עפ\"י תכנית מאושרת אחרת", "is_hafrash": false}, {"pl_number": "101-1454198", "num": "1", "mavat_code": 995, "mavat_name": "יעוד עפ\"י תכנית מאושרת אחרת", "is_hafrash": false}, {"pl_number": "101-1207158", "num": "1", "mavat_code": 995, "mavat_name": "יעוד עפ\"י תכנית מאושרת אחרת", "is_hafrash": false}]}, "geometry": {"type": "Point", "coordinates": [35.20321779719988, 31.75609514917263]}}, {"type": "Feature", "properties": {"id": "134634", "type": "מגרש ציבורי פנוי", "name": "מגרש ריק", "address": "צרת מול 50", "target_population": "כללי", "use": "ציבורי", "gross_area": "9599.9", "taba_id": "3045", "planning_block": "30130", "planning_parcel": "98", "planning_plot": "א", "information_source": "לא ידוע", "position_source": "yiud_karka_taba", "match_future_shavaz": [{"TABA": "683193", "MIGRASH": "10", "MAVAT_NAME": "מבנים ומוסדות ציבור", "match": "spatial"}], "match_landuse_xplan": [{"pl_number": "101-0092098", "num": "1", "mavat_code": 995, "mavat_name": "יעוד עפ\"י תכנית מאושרת אחרת", "is_hafrash": false}, {"pl_number": "101-0253286", "num": "1", "mavat_code": 995, "mavat_name": "יעוד עפ\"י תכנית מאושרת אחרת", "is_hafrash": false}, {"pl_number": "101-0292870", "num": "1", "mavat_code": 995, "mavat_name": "יעוד עפ\"י תכנית מאושרת אחרת", "is_hafrash": false}, {"pl_number": "101-0965152", "num": "1", "mavat_code": 995, "mavat_name": "יעוד עפ\"י תכנית מאושרת אחרת", "is_hafrash": false}, {"pl_number": "101-0615880", "num": "1", "mavat_code": 995, "mavat_name": "יעוד עפ\"י תכנית מאושרת אחרת", "is_hafrash": false}, {"pl_number": "101-1454198", "num": "1", "mavat_code": 995, "mavat_name": "יעוד עפ\"י תכנית מאושרת אחרת", "is_hafrash": false}, {"pl_number": "101-1207158", "num": "1", "mavat_code": 995, "mavat_name": "יעוד עפ\"י תכנית מאושרת אחרת", "is_hafrash": false}]}, "geometry": {"type": "Point", "coordinates": [35.209759745305576, 31.752725839098243]}}, {"type": "Feature", "properties": {"id": "136824", "type": "מגרש ציבורי פנוי", "name": "מגרש ריק", "address": "אל בראעם פינת  אל-ספטאף", "target_population": "כללי", "use": "ציבורי", "gross_area": "1627", "taba_id": "מק/14295", "planning_block": "30283", "planning_parcel": "40", "planning_plot": "402", "information_source": "לא ידוע", "position_source": "yiud_karka_any", "match_landuse_xplan": [{"pl_number": "101-0092098", "num": "1", "mavat_code": 995, "mavat_name": "יעוד עפ\"י תכנית מאושרת אחרת", "is_hafrash": false}, {"pl_number": "101-0253286", "num": "1", "mavat_code": 995, "mavat_name": "יעוד עפ\"י תכנית מאושרת אחרת", "is_hafrash": false}, {"pl_number": "101-0292870", "num": "1", "mavat_code": 995, "mavat_name": "יעוד עפ\"י תכנית מאושרת אחרת", "is_hafrash": false}, {"pl_number": "101-0965152", "num": "1", "mavat_code": 995, "mavat_name": "יעוד עפ\"י תכנית מאושרת אחרת", "is_hafrash": false}, {"pl_number": "101-0615880", "num": "1", "mavat_code": 995, "mavat_name": "יעוד עפ\"י תכנית מאושרת אחרת", "is_hafrash": false}, {"pl_number": "101-1153048", "num": "402", "mavat_code": 400, "mavat_name": "מבנים ומוסדות ציבור", "is_hafrash": false}, {"pl_number": "101-1454198", "num": "1", "mavat_code": 995, "mavat_name": "יעוד עפ\"י תכנית מאושרת אחרת", "is_hafrash": false}, {"pl_number": "101-1207158", "num": "1", "mavat_code": 995, "mavat_name": "יעוד עפ\"י תכנית מאושרת אחרת", "is_hafrash": false}]}, "geometry": {"type": "Point", "coordinates": [35.206315410911465, 31.74170435146534]}}, {"type": "Feature", "properties": {"id": "138526", "type": "מגרש ציבורי פנוי", "name": "מגרש ריק", "address": "דוד ודורשיו ליד 12", "target_population": "כללי", "use": "ציבורי", "gross_area": "782", "taba_id": "3599/א", "planning_block": "30012", "planning_parcel": "11", "planning_plot": "34", "information_source": "לא ידוע", "position_source": "yiud_karka_any", "match_future_shavaz": [{"TABA": "969568", "MIGRASH": "1", "MAVAT_NAME": "מבנים ומוסדות ציבור לחינוך", "match": "spatial"}], "match_landuse_xplan": [{"pl_number": "101-0092098", "num": "1", "mavat_code": 995, "mavat_name": "יעוד עפ\"י תכנית מאושרת אחרת", "is_hafrash": false}, {"pl_number": "101-0253286", "num": "1", "mavat_code": 995, "mavat_name": "יעוד עפ\"י תכנית מאושרת אחרת", "is_hafrash": false}, {"pl_number": "101-0292870", "num": "1", "mavat_code": 995, "mavat_name": "יעוד עפ\"י תכנית מאושרת אחרת", "is_hafrash": false}, {"pl_number": "101-0965152", "num": "1", "mavat_code": 995, "mavat_name": "יעוד עפ\"י תכנית מאושרת אחרת", "is_hafrash": false}, {"pl_number": "101-0615880", "num": "1", "mavat_code": 995, "mavat_name": "יעוד עפ\"י תכנית מאושרת אחרת", "is_hafrash": false}, {"pl_number": "101-1454198", "num": "1", "mavat_code": 995, "mavat_name": "יעוד עפ\"י תכנית מאושרת אחרת", "is_hafrash": false}, {"pl_number": "101-1207158", "num": "1", "mavat_code": 995, "mavat_name": "יעוד עפ\"י תכנית מאושרת אחרת", "is_hafrash": false}]}, "geometry": {"type": "Point", "coordinates": [35.219562251956944, 31.76728859737196]}}, {"type": "Feature", "properties": {"id": "138941", "type": "מגרש ציבורי פנוי", "name": "מגרש ריק", "address": "נווה שאנן ליד 9", "target_population": "כללי", "use": "ציבורי", "gross_area": "550", "taba_id": "4029", "planning_block": "30180", "planning_parcel": "96", "planning_plot": "33", "information_source": "לא ידוע", "position_source": "yiud_karka_taba", "match_landuse_xplan": [{"pl_number": "101-0092098", "num": "1", "mavat_code": 995, "mavat_name": "יעוד עפ\"י תכנית מאושרת אחרת", "is_hafrash": false}, {"pl_number": "101-0253286", "num": "1", "mavat_code": 995, "mavat_name": "יעוד עפ\"י תכנית מאושרת אחרת", "is_hafrash": false}, {"pl_number": "101-0292870", "num": "1", "mavat_code": 995, "mavat_name": "יעוד עפ\"י תכנית מאושרת אחרת", "is_hafrash": false}, {"pl_number": "101-0965152", "num": "1", "mavat_code": 995, "mavat_name": "יעוד עפ\"י תכנית מאושרת אחרת", "is_hafrash": false}, {"pl_number": "101-0615880", "num": "1", "mavat_code": 995, "mavat_name": "יעוד עפ\"י תכנית מאושרת אחרת", "is_hafrash": false}, {"pl_number": "101-1454198", "num": "1", "mavat_code": 995, "mavat_name": "יעוד עפ\"י תכנית מאושרת אחרת", "is_hafrash": false}, {"pl_number": "101-1207158", "num": "1", "mavat_code": 995, "mavat_name": "יעוד עפ\"י תכנית מאושרת אחרת", "is_hafrash": false}]}, "geometry": {"type": "Point", "coordinates": [35.201408876318155, 31.77265712538717]}}, {"type": "Feature", "properties": {"id": "139474", "type": "מגרש ציבורי פנוי", "name": "מגרש ריק", "address": "מכור ליד 23 ב", "target_population": "כללי", "use": "ציבורי", "gross_area": "660", "taba_id": "2696", "planning_block": "30143", "planning_parcel": "9", "planning_plot": "6", "information_source": "לא ידוע", "position_source": "yiud_karka_any", "match_landuse_xplan": [{"pl_number": "101-0092098", "num": "1", "mavat_code": 995, "mavat_name": "יעוד עפ\"י תכנית מאושרת אחרת", "is_hafrash": false}, {"pl_number": "101-0253286", "num": "1", "mavat_code": 995, "mavat_name": "יעוד עפ\"י תכנית מאושרת אחרת", "is_hafrash": false}, {"pl_number": "101-0315119", "num": "1", "mavat_code": 140, "mavat_name": "מגורים ד'", "is_hafrash": false}, {"pl_number": "101-0292870", "num": "1", "mavat_code": 995, "mavat_name": "יעוד עפ\"י תכנית מאושרת אחרת", "is_hafrash": false}, {"pl_number": "101-0965152", "num": "1", "mavat_code": 995, "mavat_name": "יעוד עפ\"י תכנית מאושרת אחרת", "is_hafrash": false}, {"pl_number": "101-0615880", "num": "1", "mavat_code": 995, "mavat_name": "יעוד עפ\"י תכנית מאושרת אחרת", "is_hafrash": false}, {"pl_number": "101-1183128", "num": "1", "mavat_code": 140, "mavat_name": "מגורים ד'", "is_hafrash": false}, {"pl_number": "101-1454198", "num": "1", "mavat_code": 995, "mavat_name": "יעוד עפ\"י תכנית מאושרת אחרת", "is_hafrash": false}, {"pl_number": "101-1207158", "num": "1", "mavat_code": 995, "mavat_name": "יעוד עפ\"י תכנית מאושרת אחרת", "is_hafrash": false}]}, "geometry": {"type": "Point", "coordinates": [35.203556053860304, 31.75615671531968]}}, {"type": "Feature", "properties": {"id": "150881", "type": "מגרש ציבורי פנוי", "name": "מגרש חום ריק", "address": "חביבה רייק 32", "target_population": "כללי", "use": "ציבורי", "gross_area": "834", "taba_id": "9988", "planning_block": "30024", "planning_parcel": "202", "planning_plot": "109", "information_source": "סיסטם", "position_source": "yiud_karka_taba", "match_landuse_xplan": [{"pl_number": "101-0092098", "num": "1", "mavat_code": 995, "mavat_name": "יעוד עפ\"י תכנית מאושרת אחרת", "is_hafrash": false}, {"pl_number": "101-0253286", "num": "1", "mavat_code": 995, "mavat_name": "יעוד עפ\"י תכנית מאושרת אחרת", "is_hafrash": false}, {"pl_number": "101-0292870", "num": "1", "mavat_code": 995, "mavat_name": "יעוד עפ\"י תכנית מאושרת אחרת", "is_hafrash": false}, {"pl_number": "101-0965152", "num": "1", "mavat_code": 995, "mavat_name": "יעוד עפ\"י תכנית מאושרת אחרת", "is_hafrash": false}, {"pl_number": "101-0615880", "num": "1", "mavat_code": 995, "mavat_name": "יעוד עפ\"י תכנית מאושרת אחרת", "is_hafrash": false}, {"pl_number": "101-1454198", "num": "1", "mavat_code": 995, "mavat_name": "יעוד עפ\"י תכנית מאושרת אחרת", "is_hafrash": false}, {"pl_number": "101-1207158", "num": "1", "mavat_code": 995, "mavat_name": "יעוד עפ\"י תכנית מאושרת אחרת", "is_hafrash": false}]}, "geometry": {"type": "Point", "coordinates": [35.20997876105388, 31.76772766279161]}}, {"type": "Feature", "properties": {"id": "136649", "type": "מגרש ציבורי פנוי", "name": "מגרש ריק", "address": "אל-בטן פינת אל טואל", "target_population": "כללי", "use": "ציבורי", "gross_area": "1733", "taba_id": "4552", "planning_plot": "6", "information_source": "לא ידוע", "position_source": "yiud_karka_taba", "match_landuse_xplan": [{"pl_number": "101-0092098", "num": "1", "mavat_code": 995, "mavat_name": "יעוד עפ\"י תכנית מאושרת אחרת", "is_hafrash": false}, {"pl_number": "101-0253286", "num": "1", "mavat_code": 995, "mavat_name": "יעוד עפ\"י תכנית מאושרת אחרת", "is_hafrash": false}, {"pl_number": "101-0292870", "num": "1", "mavat_code": 995, "mavat_name": "יעוד עפ\"י תכנית מאושרת אחרת", "is_hafrash": false}, {"pl_number": "101-0965152", "num": "1", "mavat_code": 995, "mavat_name": "יעוד עפ\"י תכנית מאושרת אחרת", "is_hafrash": false}, {"pl_number": "101-0615880", "num": "1", "mavat_code": 995, "mavat_name": "יעוד עפ\"י תכנית מאושרת אחרת", "is_hafrash": false}, {"pl_number": "101-1454198", "num": "1", "mavat_code": 995, "mavat_name": "יעוד עפ\"י תכנית מאושרת אחרת", "is_hafrash": false}, {"pl_number": "101-1207158", "num": "1", "mavat_code": 995, "mavat_name": "יעוד עפ\"י תכנית מאושרת אחרת", "is_hafrash": false}]}, "geometry": {"type": "Point", "coordinates": [35.19507364657856, 31.743595127402124]}}, {"type": "Feature", "properties": {"id": "133608", "type": "מגרש ציבורי פנוי", "name": "מגרש ריק", "address": "ברניקי מאחורי 73", "target_population": "כללי", "use": "ציבורי", "gross_area": "398", "taba_id": "62", "planning_block": "30171", "planning_parcel": "226", "planning_plot": "2306", "information_source": "לא ידוע", "position_source": "yiud_karka_any", "match_future_shavaz": [{"TABA": "1115484", "MIGRASH": "1", "MAVAT_NAME": "בית ספר יסודי  24 כיתות, מגרש B -2 בית ספר חינוך מיוחד 15 כיתות", "match": "spatial"}, {"TABA": "1115484", "MIGRASH": "1A", "MAVAT_NAME": "*בתיאום מחלקת מבני ציבור*", "match": "spatial"}], "match_landuse_xplan": [{"pl_number": "101-0092098", "num": "1", "mavat_code": 995, "mavat_name": "יעוד עפ\"י תכנית מאושרת אחרת", "is_hafrash": false}, {"pl_number": "101-0253286", "num": "1", "mavat_code": 995, "mavat_name": "יעוד עפ\"י תכנית מאושרת אחרת", "is_hafrash": false}, {"pl_number": "101-0292870", "num": "1", "mavat_code": 995, "mavat_name": "יעוד עפ\"י תכנית מאושרת אחרת", "is_hafrash": false}, {"pl_number": "101-0965152", "num": "1", "mavat_code": 995, "mavat_name": "יעוד עפ\"י תכנית מאושרת אחרת", "is_hafrash": false}, {"pl_number": "101-0615880", "num": "1", "mavat_code": 995, "mavat_name": "יעוד עפ\"י תכנית מאושרת אחרת", "is_hafrash": false}, {"pl_number": "101-1454198", "num": "1", "mavat_code": 995, "mavat_name": "יעוד עפ\"י תכנית מאושרת אחרת", "is_hafrash": false}, {"pl_number": "101-1207158", "num": "1", "mavat_code": 995, "mavat_name": "יעוד עפ\"י תכנית מאושרת אחרת", "is_hafrash": false}, {"pl_number": "101-1115484", "num": "1A", "mavat_code": 400, "mavat_name": "מבנים ומוסדות ציבור", "is_hafrash": false}]}, "geometry": {"type": "Point", "coordinates": [35.20145071340531, 31.757007038611768]}}, {"type": "Feature", "properties": {"id": "135753", "type": "מגרש ציבורי פנוי", "name": "מגרש ריק", "address": "אל בטן ליד 33", "target_population": "כללי", "use": "ציבורי", "gross_area": "2971", "taba_id": "4552", "planning_plot": "29", "information_source": "לא ידוע", "position_source": "yiud_karka_taba", "match_landuse_xplan": [{"pl_number": "101-0092098", "num": "1", "mavat_code": 995, "mavat_name": "יעוד עפ\"י תכנית מאושרת אחרת", "is_hafrash": false}, {"pl_number": "101-0253286", "num": "1", "mavat_code": 995, "mavat_name": "יעוד עפ\"י תכנית מאושרת אחרת", "is_hafrash": false}, {"pl_number": "101-0292870", "num": "1", "mavat_code": 995, "mavat_name": "יעוד עפ\"י תכנית מאושרת אחרת", "is_hafrash": false}, {"pl_number": "101-0965152", "num": "1", "mavat_code": 995, "mavat_name": "יעוד עפ\"י תכנית מאושרת אחרת", "is_hafrash": false}, {"pl_number": "101-0615880", "num": "1", "mavat_code": 995, "mavat_name": "יעוד עפ\"י תכנית מאושרת אחרת", "is_hafrash": false}, {"pl_number": "101-1454198", "num": "1", "mavat_code": 995, "mavat_name": "יעוד עפ\"י תכנית מאושרת אחרת", "is_hafrash": false}, {"pl_number": "101-1207158", "num": "1", "mavat_code": 995, "mavat_name": "יעוד עפ\"י תכנית מאושרת אחרת", "is_hafrash": false}]}, "geometry": {"type": "Point", "coordinates": [35.194190734975805, 31.74195070248534]}}, {"type": "Feature", "properties": {"id": "136427", "type": "מגרש ציבורי פנוי", "name": "מגרש ריק", "address": "האומן ליד 5", "target_population": "כללי", "use": "ציבורי", "gross_area": "6257.9", "taba_id": "101-0071951", "planning_block": "30129", "planning_parcel": "32", "planning_plot": "607", "information_source": "לא ידוע", "position_source": "yiud_karka_taba", "match_future_shavaz": [{"TABA": "71951", "MIGRASH": "611", "MAVAT_NAME": "מסחר תעסוקה ומבנים ומוסדות ציבור", "match": "spatial+taba"}, {"TABA": "71951", "MIGRASH": "614", "MAVAT_NAME": "מסחר תעסוקה ומבנים ומוסדות ציבור", "match": "taba-only"}, {"TABA": "71951", "MIGRASH": "605", "MAVAT_NAME": "מסחר תעסוקה ומבנים ומוסדות ציבור", "match": "taba-only"}, {"TABA": "71951", "MIGRASH": "603", "MAVAT_NAME": "מסחר תעסוקה ומבנים ומוסדות ציבור", "match": "taba-only"}, {"TABA": "71951", "MIGRASH": "606", "MAVAT_NAME": "מסחר תעסוקה ומבנים ומוסדות ציבור", "match": "taba-only"}, {"TABA": "71951", "MIGRASH": "610", "MAVAT_NAME": "מסחר תעסוקה ומבנים ומוסדות ציבור", "match": "taba-only"}, {"TABA": "71951", "MIGRASH": "613", "MAVAT_NAME": "מסחר תעסוקה ומבנים ומוסדות ציבור", "match": "taba-only"}, {"TABA": "71951", "MIGRASH": "604", "MAVAT_NAME": "מסחר תעסוקה ומבנים ומוסדות ציבור", "match": "taba-only"}, {"TABA": "71951", "MIGRASH": "607", "MAVAT_NAME": "מסחר תעסוקה ומבנים ומוסדות ציבור", "match": "taba-only"}, {"TABA": "71951", "MIGRASH": "301", "MAVAT_NAME": "מבנים ומוסדות ציבור", "match": "taba-only"}], "match_landuse_xplan": [{"pl_number": "101-0092098", "num": "1", "mavat_code": 995, "mavat_name": "יעוד עפ\"י תכנית מאושרת אחרת", "is_hafrash": false}, {"pl_number": "101-0253286", "num": "1", "mavat_code": 995, "mavat_name": "יעוד עפ\"י תכנית מאושרת אחרת", "is_hafrash": false}, {"pl_number": "101-0292870", "num": "1", "mavat_code": 995, "mavat_name": "יעוד עפ\"י תכנית מאושרת אחרת", "is_hafrash": false}, {"pl_number": "101-0965152", "num": "1", "mavat_code": 995, "mavat_name": "יעוד עפ\"י תכנית מאושרת אחרת", "is_hafrash": false}, {"pl_number": "101-0615880", "num": "1", "mavat_code": 995, "mavat_name": "יעוד עפ\"י תכנית מאושרת אחרת", "is_hafrash": false}, {"pl_number": "101-1454198", "num": "1", "mavat_code": 995, "mavat_name": "יעוד עפ\"י תכנית מאושרת אחרת", "is_hafrash": false}, {"pl_number": "101-1207158", "num": "1", "mavat_code": 995, "mavat_name": "יעוד עפ\"י תכנית מאושרת אחרת", "is_hafrash": false}], "match_in_plans": [{"taba": "71951", "plan_name_he": "המשך רחוב פייר קניג- תלפיות ירושלים ירושלים זיהוי וסיווג תכנית עדכון אחרון לא נע", "status": "אישור"}]}, "geometry": {"type": "Point", "coordinates": [35.21305477553394, 31.747131743775206]}}, {"type": "Feature", "properties": {"id": "137938", "type": "מגרש ציבורי פנוי", "name": "מגרש ריק", "address": "המגיד ליד 6", "target_population": "כללי", "use": "ציבורי", "gross_area": "1053", "taba_id": "2878", "planning_block": "30012", "planning_parcel": "22", "planning_plot": "2021-12-22 00:00:00", "information_source": "לא ידוע", "position_source": "yiud_karka_any", "match_future_shavaz": [{"TABA": "410282", "MIGRASH": "1", "MAVAT_NAME": "מבנים ומוסדות ציבור", "match": "spatial"}], "match_landuse_xplan": [{"pl_number": "101-0092098", "num": "1", "mavat_code": 995, "mavat_name": "יעוד עפ\"י תכנית מאושרת אחרת", "is_hafrash": false}, {"pl_number": "101-0253286", "num": "1", "mavat_code": 995, "mavat_name": "יעוד עפ\"י תכנית מאושרת אחרת", "is_hafrash": false}, {"pl_number": "101-0410282", "num": "1", "mavat_code": 400, "mavat_name": "מבנים ומוסדות ציבור", "is_hafrash": false}, {"pl_number": "101-0292870", "num": "1", "mavat_code": 995, "mavat_name": "יעוד עפ\"י תכנית מאושרת אחרת", "is_hafrash": false}, {"pl_number": "101-0965152", "num": "1", "mavat_code": 995, "mavat_name": "יעוד עפ\"י תכנית מאושרת אחרת", "is_hafrash": false}, {"pl_number": "101-0615880", "num": "1", "mavat_code": 995, "mavat_name": "יעוד עפ\"י תכנית מאושרת אחרת", "is_hafrash": false}, {"pl_number": "101-1454198", "num": "1", "mavat_code": 995, "mavat_name": "יעוד עפ\"י תכנית מאושרת אחרת", "is_hafrash": false}, {"pl_number": "101-1207158", "num": "1", "mavat_code": 995, "mavat_name": "יעוד עפ\"י תכנית מאושרת אחרת", "is_hafrash": false}]}, "geometry": {"type": "Point", "coordinates": [35.219832799892295, 31.76571964606415]}}, {"type": "Feature", "properties": {"id": "138495", "type": "מגרש ציבורי פנוי", "name": "מגרש ריק", "address": "יהודה הנשיא ליד 4", "target_population": "כללי", "use": "ציבורי", "gross_area": "801", "taba_id": "1666", "planning_block": "30172", "planning_parcel": "35", "planning_plot": "30172/35", "information_source": "לא ידוע", "position_source": "yiud_karka_taba", "match_landuse_xplan": [{"pl_number": "101-0092098", "num": "1", "mavat_code": 995, "mavat_name": "יעוד עפ\"י תכנית מאושרת אחרת", "is_hafrash": false}, {"pl_number": "101-0253286", "num": "1", "mavat_code": 995, "mavat_name": "יעוד עפ\"י תכנית מאושרת אחרת", "is_hafrash": false}, {"pl_number": "101-0292870", "num": "1", "mavat_code": 995, "mavat_name": "יעוד עפ\"י תכנית מאושרת אחרת", "is_hafrash": false}, {"pl_number": "101-0965152", "num": "1", "mavat_code": 995, "mavat_name": "יעוד עפ\"י תכנית מאושרת אחרת", "is_hafrash": false}, {"pl_number": "101-0615880", "num": "1", "mavat_code": 995, "mavat_name": "יעוד עפ\"י תכנית מאושרת אחרת", "is_hafrash": false}, {"pl_number": "101-1454198", "num": "1", "mavat_code": 995, "mavat_name": "יעוד עפ\"י תכנית מאושרת אחרת", "is_hafrash": false}, {"pl_number": "101-1207158", "num": "1", "mavat_code": 995, "mavat_name": "יעוד עפ\"י תכנית מאושרת אחרת", "is_hafrash": false}]}, "geometry": {"type": "Point", "coordinates": [35.201525346491614, 31.755278846174203]}}, {"type": "Feature", "properties": {"id": "139174", "type": "מגרש ציבורי פנוי", "name": "מגרש ריק", "address": "בן גבריאל ליד 9", "target_population": "כללי", "use": "ציבורי", "gross_area": "424", "taba_id": "6976/ב", "planning_block": "30116", "planning_parcel": "113", "planning_plot": "3", "information_source": "לא ידוע", "position_source": "yiud_karka_any", "match_landuse_xplan": [{"pl_number": "101-0092098", "num": "1", "mavat_code": 995, "mavat_name": "יעוד עפ\"י תכנית מאושרת אחרת", "is_hafrash": false}, {"pl_number": "101-0253286", "num": "1", "mavat_code": 995, "mavat_name": "יעוד עפ\"י תכנית מאושרת אחרת", "is_hafrash": false}, {"pl_number": "101-0292870", "num": "1", "mavat_code": 995, "mavat_name": "יעוד עפ\"י תכנית מאושרת אחרת", "is_hafrash": false}, {"pl_number": "101-0965152", "num": "1", "mavat_code": 995, "mavat_name": "יעוד עפ\"י תכנית מאושרת אחרת", "is_hafrash": false}, {"pl_number": "101-0615880", "num": "1", "mavat_code": 995, "mavat_name": "יעוד עפ\"י תכנית מאושרת אחרת", "is_hafrash": false}, {"pl_number": "101-1454198", "num": "1", "mavat_code": 995, "mavat_name": "יעוד עפ\"י תכנית מאושרת אחרת", "is_hafrash": false}, {"pl_number": "101-1207158", "num": "1", "mavat_code": 995, "mavat_name": "יעוד עפ\"י תכנית מאושרת אחרת", "is_hafrash": false}]}, "geometry": {"type": "Point", "coordinates": [35.22088684322584, 31.750103397989044]}}, {"type": "Feature", "properties": {"id": "136164", "type": "מגרש ציבורי פנוי", "name": "מגרש ריק", "address": "השופט חיים כהן מגביל לאשר וינר", "target_population": "כללי", "use": "ציבורי", "gross_area": "2191", "taba_id": "5303", "planning_block": "30139", "planning_parcel": "382", "planning_plot": "23", "information_source": "לא ידוע", "position_source": "yiud_karka_taba", "match_landuse_xplan": [{"pl_number": "101-0092098", "num": "1", "mavat_code": 995, "mavat_name": "יעוד עפ\"י תכנית מאושרת אחרת", "is_hafrash": false}, {"pl_number": "101-0253286", "num": "1", "mavat_code": 995, "mavat_name": "יעוד עפ\"י תכנית מאושרת אחרת", "is_hafrash": false}, {"pl_number": "101-0292870", "num": "1", "mavat_code": 995, "mavat_name": "יעוד עפ\"י תכנית מאושרת אחרת", "is_hafrash": false}, {"pl_number": "101-0965152", "num": "1", "mavat_code": 995, "mavat_name": "יעוד עפ\"י תכנית מאושרת אחרת", "is_hafrash": false}, {"pl_number": "101-0615880", "num": "1", "mavat_code": 995, "mavat_name": "יעוד עפ\"י תכנית מאושרת אחרת", "is_hafrash": false}, {"pl_number": "101-1454198", "num": "1", "mavat_code": 995, "mavat_name": "יעוד עפ\"י תכנית מאושרת אחרת", "is_hafrash": false}, {"pl_number": "101-1207158", "num": "1", "mavat_code": 995, "mavat_name": "יעוד עפ\"י תכנית מאושרת אחרת", "is_hafrash": false}]}, "geometry": {"type": "Point", "coordinates": [35.2188144265896, 31.745741568667047]}}, {"type": "Feature", "properties": {"id": "138636", "type": "מגרש ציבורי פנוי", "name": "מגרש ריק", "address": "קנאי הגליל ליד 27", "target_population": "כללי", "use": "ציבורי", "gross_area": "750", "taba_id": "101-0112557", "planning_block": "30144", "planning_parcel": "217", "planning_plot": "90", "information_source": "לא ידוע", "position_source": "yiud_karka_taba", "match_landuse_xplan": [{"pl_number": "101-0092098", "num": "1", "mavat_code": 995, "mavat_name": "יעוד עפ\"י תכנית מאושרת אחרת", "is_hafrash": false}, {"pl_number": "101-0112557", "num": "91", "mavat_code": 400, "mavat_name": "מבנים ומוסדות ציבור", "is_hafrash": false}, {"pl_number": "101-0253286", "num": "1", "mavat_code": 995, "mavat_name": "יעוד עפ\"י תכנית מאושרת אחרת", "is_hafrash": false}, {"pl_number": "101-0292870", "num": "1", "mavat_code": 995, "mavat_name": "יעוד עפ\"י תכנית מאושרת אחרת", "is_hafrash": false}, {"pl_number": "101-0965152", "num": "1", "mavat_code": 995, "mavat_name": "יעוד עפ\"י תכנית מאושרת אחרת", "is_hafrash": false}, {"pl_number": "101-0615880", "num": "1", "mavat_code": 995, "mavat_name": "יעוד עפ\"י תכנית מאושרת אחרת", "is_hafrash": false}, {"pl_number": "101-1454198", "num": "1", "mavat_code": 995, "mavat_name": "יעוד עפ\"י תכנית מאושרת אחרת", "is_hafrash": false}, {"pl_number": "101-1207158", "num": "1", "mavat_code": 995, "mavat_name": "יעוד עפ\"י תכנית מאושרת אחרת", "is_hafrash": false}], "match_in_plans": [{"taba": "112557", "plan_name_he": "פינוי בינוי של 13 בנייני מגורים בין אלעזר בן יאיר וקנאי הגליל ירושלים זיהוי וסיו", "status": "אישור"}]}, "geometry": {"type": "Point", "coordinates": [35.20204575214489, 31.752611627281688]}}, {"type": "Feature", "properties": {"id": "134748", "type": "מגרש ציבורי פנוי", "name": "מגרש ריק", "address": "בית הערבה לבין קורא הדורות", "target_population": "כללי", "use": "ציבורי", "gross_area": "8978.9", "taba_id": "2966", "planning_block": "30139", "planning_parcel": "341", "planning_plot": "1", "information_source": "לא ידוע", "position_source": "yiud_karka_any", "match_future_shavaz": [{"TABA": "1258110", "MIGRASH": "101", "MAVAT_NAME": "מבנים ומוסדות ציבור", "match": "spatial"}], "match_landuse_xplan": [{"pl_number": "101-0092098", "num": "1", "mavat_code": 995, "mavat_name": "יעוד עפ\"י תכנית מאושרת אחרת", "is_hafrash": false}, {"pl_number": "101-0253286", "num": "1", "mavat_code": 995, "mavat_name": "יעוד עפ\"י תכנית מאושרת אחרת", "is_hafrash": false}, {"pl_number": "101-0292870", "num": "1", "mavat_code": 995, "mavat_name": "יעוד עפ\"י תכנית מאושרת אחרת", "is_hafrash": false}, {"pl_number": "101-0965152", "num": "1", "mavat_code": 995, "mavat_name": "יעוד עפ\"י תכנית מאושרת אחרת", "is_hafrash": false}, {"pl_number": "101-0615880", "num": "1", "mavat_code": 995, "mavat_name": "יעוד עפ\"י תכנית מאושרת אחרת", "is_hafrash": false}, {"pl_number": "101-1454198", "num": "1", "mavat_code": 995, "mavat_name": "יעוד עפ\"י תכנית מאושרת אחרת", "is_hafrash": false}, {"pl_number": "101-1207158", "num": "1", "mavat_code": 995, "mavat_name": "יעוד עפ\"י תכנית מאושרת אחרת", "is_hafrash": false}]}, "geometry": {"type": "Point", "coordinates": [35.220724321731815, 31.74717656916844]}}, {"type": "Feature", "properties": {"id": "137666", "type": "מגרש ציבורי פנוי", "name": "מגרש ריק", "address": "ניקנור סוף הרחוב", "target_population": "כללי", "use": "ציבורי", "gross_area": "1157", "taba_id": "2696", "planning_block": "30171", "planning_parcel": "110", "planning_plot": "2037", "information_source": "לא ידוע", "position_source": "yiud_karka_taba", "match_landuse_xplan": [{"pl_number": "101-0092098", "num": "1", "mavat_code": 995, "mavat_name": "יעוד עפ\"י תכנית מאושרת אחרת", "is_hafrash": false}, {"pl_number": "101-0253286", "num": "1", "mavat_code": 995, "mavat_name": "יעוד עפ\"י תכנית מאושרת אחרת", "is_hafrash": false}, {"pl_number": "101-0292870", "num": "1", "mavat_code": 995, "mavat_name": "יעוד עפ\"י תכנית מאושרת אחרת", "is_hafrash": false}, {"pl_number": "101-0965152", "num": "1", "mavat_code": 995, "mavat_name": "יעוד עפ\"י תכנית מאושרת אחרת", "is_hafrash": false}, {"pl_number": "101-0615880", "num": "1", "mavat_code": 995, "mavat_name": "יעוד עפ\"י תכנית מאושרת אחרת", "is_hafrash": false}, {"pl_number": "101-1454198", "num": "1", "mavat_code": 995, "mavat_name": "יעוד עפ\"י תכנית מאושרת אחרת", "is_hafrash": false}, {"pl_number": "101-1207158", "num": "1", "mavat_code": 995, "mavat_name": "יעוד עפ\"י תכנית מאושרת אחרת", "is_hafrash": false}]}, "geometry": {"type": "Point", "coordinates": [35.19973920970407, 31.75712504427123]}}, {"type": "Feature", "properties": {"id": "133631", "type": "מגרש ציבורי פנוי", "name": "מגרש ריק", "address": "רבן יוחנן בן זכאי פינת בן בבא", "target_population": "כללי", "use": "ציבורי", "gross_area": "4022", "taba_id": "3128 3128 3128 62", "planning_block": "30133", "planning_parcel": "114", "planning_plot": "10 12 17 2324", "information_source": "לא ידוע", "position_source": "yiud_karka_any", "match_landuse_xplan": [{"pl_number": "101-0092098", "num": "1", "mavat_code": 995, "mavat_name": "יעוד עפ\"י תכנית מאושרת אחרת", "is_hafrash": false}, {"pl_number": "101-0253286", "num": "1", "mavat_code": 995, "mavat_name": "יעוד עפ\"י תכנית מאושרת אחרת", "is_hafrash": false}, {"pl_number": "101-0292870", "num": "1", "mavat_code": 995, "mavat_name": "יעוד עפ\"י תכנית מאושרת אחרת", "is_hafrash": false}, {"pl_number": "101-0965152", "num": "1", "mavat_code": 995, "mavat_name": "יעוד עפ\"י תכנית מאושרת אחרת", "is_hafrash": false}, {"pl_number": "101-0615880", "num": "1", "mavat_code": 995, "mavat_name": "יעוד עפ\"י תכנית מאושרת אחרת", "is_hafrash": false}, {"pl_number": "101-1454198", "num": "1", "mavat_code": 995, "mavat_name": "יעוד עפ\"י תכנית מאושרת אחרת", "is_hafrash": false}, {"pl_number": "101-1207158", "num": "1", "mavat_code": 995, "mavat_name": "יעוד עפ\"י תכנית מאושרת אחרת", "is_hafrash": false}]}, "geometry": {"type": "Point", "coordinates": [35.20908770310328, 31.757681630222184]}}, {"type": "Feature", "properties": {"id": "133796", "type": "מגרש ציבורי פנוי", "name": "מגרש ריק", "address": "רבקה ממערב לרחוב", "target_population": "כללי", "use": "ציבורי", "gross_area": "2813", "taba_id": "3045", "planning_block": "30141", "planning_parcel": "203", "planning_plot": "ה", "information_source": "לא ידוע", "position_source": "yiud_karka_taba", "match_landuse_xplan": [{"pl_number": "101-0092098", "num": "1", "mavat_code": 995, "mavat_name": "יעוד עפ\"י תכנית מאושרת אחרת", "is_hafrash": false}, {"pl_number": "101-0253286", "num": "1", "mavat_code": 995, "mavat_name": "יעוד עפ\"י תכנית מאושרת אחרת", "is_hafrash": false}, {"pl_number": "101-0292870", "num": "1", "mavat_code": 995, "mavat_name": "יעוד עפ\"י תכנית מאושרת אחרת", "is_hafrash": false}, {"pl_number": "101-0965152", "num": "1", "mavat_code": 995, "mavat_name": "יעוד עפ\"י תכנית מאושרת אחרת", "is_hafrash": false}, {"pl_number": "101-0615880", "num": "1", "mavat_code": 995, "mavat_name": "יעוד עפ\"י תכנית מאושרת אחרת", "is_hafrash": false}, {"pl_number": "101-1454198", "num": "1", "mavat_code": 995, "mavat_name": "יעוד עפ\"י תכנית מאושרת אחרת", "is_hafrash": false}, {"pl_number": "101-1207158", "num": "1", "mavat_code": 995, "mavat_name": "יעוד עפ\"י תכנית מאושרת אחרת", "is_hafrash": false}]}, "geometry": {"type": "Point", "coordinates": [35.212867868378325, 31.755339193863094]}}, {"type": "Feature", "properties": {"id": "135954", "type": "מגרש ציבורי פנוי", "name": "מגרש ריק", "address": "עמק רפאים פינת מרטין לותר קינג", "target_population": "כללי", "use": "ציבורי", "gross_area": "2506", "taba_id": "101-0049056", "planning_block": "30197", "planning_parcel": "102", "planning_plot": "2", "information_source": "לא ידוע", "position_source": "yiud_karka_taba", "match_landuse_xplan": [{"pl_number": "101-0092098", "num": "1", "mavat_code": 995, "mavat_name": "יעוד עפ\"י תכנית מאושרת אחרת", "is_hafrash": false}, {"pl_number": "101-0253286", "num": "1", "mavat_code": 995, "mavat_name": "יעוד עפ\"י תכנית מאושרת אחרת", "is_hafrash": false}, {"pl_number": "101-0049056", "num": "2", "mavat_code": 140, "mavat_name": "מגורים ד'", "is_hafrash": false}, {"pl_number": "101-0292870", "num": "1", "mavat_code": 995, "mavat_name": "יעוד עפ\"י תכנית מאושרת אחרת", "is_hafrash": false}, {"pl_number": "101-0965152", "num": "1", "mavat_code": 995, "mavat_name": "יעוד עפ\"י תכנית מאושרת אחרת", "is_hafrash": false}, {"pl_number": "101-0615880", "num": "1", "mavat_code": 995, "mavat_name": "יעוד עפ\"י תכנית מאושרת אחרת", "is_hafrash": false}, {"pl_number": "101-1454198", "num": "1", "mavat_code": 995, "mavat_name": "יעוד עפ\"י תכנית מאושרת אחרת", "is_hafrash": false}, {"pl_number": "101-1207158", "num": "1", "mavat_code": 995, "mavat_name": "יעוד עפ\"י תכנית מאושרת אחרת", "is_hafrash": false}], "match_in_plans": [{"taba": "49056", "plan_name_he": "מתחם מלונאות, מסחר ומגורים, עומריה, ירושלים ירושלים זיהוי וסיווג תכנית עדכון אחר", "status": "אישור"}]}, "geometry": {"type": "Point", "coordinates": [35.2230063667573, 31.767438193555982]}}, {"type": "Feature", "properties": {"id": "136264", "type": "מגרש ציבורי פנוי", "name": "מגרש ריק", "address": "הרכבים 8", "target_population": "כללי", "use": "ציבורי", "gross_area": "2188", "taba_id": "3045", "planning_block": "30141", "planning_parcel": "141", "planning_plot": "ג", "information_source": "לא ידוע", "position_source": "yiud_karka_taba", "match_landuse_xplan": [{"pl_number": "101-0092098", "num": "1", "mavat_code": 995, "mavat_name": "יעוד עפ\"י תכנית מאושרת אחרת", "is_hafrash": false}, {"pl_number": "101-0253286", "num": "1", "mavat_code": 995, "mavat_name": "יעוד עפ\"י תכנית מאושרת אחרת", "is_hafrash": false}, {"pl_number": "101-0292870", "num": "1", "mavat_code": 995, "mavat_name": "יעוד עפ\"י תכנית מאושרת אחרת", "is_hafrash": false}, {"pl_number": "101-0965152", "num": "1", "mavat_code": 995, "mavat_name": "יעוד עפ\"י תכנית מאושרת אחרת", "is_hafrash": false}, {"pl_number": "101-0615880", "num": "1", "mavat_code": 995, "mavat_name": "יעוד עפ\"י תכנית מאושרת אחרת", "is_hafrash": false}, {"pl_number": "101-1454198", "num": "1", "mavat_code": 995, "mavat_name": "יעוד עפ\"י תכנית מאושרת אחרת", "is_hafrash": false}, {"pl_number": "101-1207158", "num": "1", "mavat_code": 995, "mavat_name": "יעוד עפ\"י תכנית מאושרת אחרת", "is_hafrash": false}]}, "geometry": {"type": "Point", "coordinates": [35.21261866106897, 31.75451363680236]}}, {"type": "Feature", "properties": {"id": "136452", "type": "מגרש ציבורי פנוי", "name": "מגרש ריק", "address": "דרך חברון ליד 144", "target_population": "כללי", "use": "ציבורי", "gross_area": "1897", "taba_id": "11401", "planning_block": "30092", "planning_parcel": "20", "planning_plot": "2", "information_source": "לא ידוע", "position_source": "yiud_karka_any", "match_landuse_xplan": [{"pl_number": "101-0092098", "num": "1", "mavat_code": 995, "mavat_name": "יעוד עפ\"י תכנית מאושרת אחרת", "is_hafrash": false}, {"pl_number": "101-0253286", "num": "1", "mavat_code": 995, "mavat_name": "יעוד עפ\"י תכנית מאושרת אחרת", "is_hafrash": false}, {"pl_number": "101-0454553", "num": "2", "mavat_code": 1250, "mavat_name": "מגורים ומבנים ומוסדות ציבור", "is_hafrash": true}, {"pl_number": "101-0292870", "num": "1", "mavat_code": 995, "mavat_name": "יעוד עפ\"י תכנית מאושרת אחרת", "is_hafrash": false}, {"pl_number": "101-0965152", "num": "1", "mavat_code": 995, "mavat_name": "יעוד עפ\"י תכנית מאושרת אחרת", "is_hafrash": false}, {"pl_number": "101-0615880", "num": "1", "mavat_code": 995, "mavat_name": "יעוד עפ\"י תכנית מאושרת אחרת", "is_hafrash": false}, {"pl_number": "101-1454198", "num": "1", "mavat_code": 995, "mavat_name": "יעוד עפ\"י תכנית מאושרת אחרת", "is_hafrash": false}, {"pl_number": "101-1207158", "num": "1", "mavat_code": 995, "mavat_name": "יעוד עפ\"י תכנית מאושרת אחרת", "is_hafrash": false}]}, "geometry": {"type": "Point", "coordinates": [35.216827747549104, 31.74662400361444]}}, {"type": "Feature", "properties": {"id": "137160", "type": "מגרש ציבורי פנוי", "name": "מגרש ריק", "address": "יוחנן בן זכאי 30", "target_population": "כללי", "use": "ציבורי", "gross_area": "1308", "taba_id": "2734", "planning_block": "30133", "planning_parcel": "114", "planning_plot": "ZC33", "information_source": "לא ידוע", "position_source": "yiud_karka_any", "match_landuse_xplan": [{"pl_number": "101-0092098", "num": "1", "mavat_code": 995, "mavat_name": "יעוד עפ\"י תכנית מאושרת אחרת", "is_hafrash": false}, {"pl_number": "101-0253286", "num": "1", "mavat_code": 995, "mavat_name": "יעוד עפ\"י תכנית מאושרת אחרת", "is_hafrash": false}, {"pl_number": "101-0292870", "num": "1", "mavat_code": 995, "mavat_name": "יעוד עפ\"י תכנית מאושרת אחרת", "is_hafrash": false}, {"pl_number": "101-0965152", "num": "1", "mavat_code": 995, "mavat_name": "יעוד עפ\"י תכנית מאושרת אחרת", "is_hafrash": false}, {"pl_number": "101-0615880", "num": "1", "mavat_code": 995, "mavat_name": "יעוד עפ\"י תכנית מאושרת אחרת", "is_hafrash": false}, {"pl_number": "101-1454198", "num": "1", "mavat_code": 995, "mavat_name": "יעוד עפ\"י תכנית מאושרת אחרת", "is_hafrash": false}, {"pl_number": "101-1207158", "num": "1", "mavat_code": 995, "mavat_name": "יעוד עפ\"י תכנית מאושרת אחרת", "is_hafrash": false}]}, "geometry": {"type": "Point", "coordinates": [35.20908770310328, 31.757681630222184]}}, {"type": "Feature", "properties": {"id": "137364", "type": "מגרש ציבורי פנוי", "name": "מגרש ריק", "address": "אל נהדה פינת אל יאמסין", "target_population": "כללי", "use": "ציבורי", "gross_area": "1290", "taba_id": "3855", "planning_block": "30284", "planning_parcel": "43", "planning_plot": "20", "information_source": "לא ידוע", "position_source": "yiud_karka_taba", "match_landuse_xplan": [{"pl_number": "101-0092098", "num": "1", "mavat_code": 995, "mavat_name": "יעוד עפ\"י תכנית מאושרת אחרת", "is_hafrash": false}, {"pl_number": "101-0253286", "num": "1", "mavat_code": 995, "mavat_name": "יעוד עפ\"י תכנית מאושרת אחרת", "is_hafrash": false}, {"pl_number": "101-0292870", "num": "1", "mavat_code": 995, "mavat_name": "יעוד עפ\"י תכנית מאושרת אחרת", "is_hafrash": false}, {"pl_number": "101-0965152", "num": "1", "mavat_code": 995, "mavat_name": "יעוד עפ\"י תכנית מאושרת אחרת", "is_hafrash": false}, {"pl_number": "101-0615880", "num": "1", "mavat_code": 995, "mavat_name": "יעוד עפ\"י תכנית מאושרת אחרת", "is_hafrash": false}, {"pl_number": "101-1454198", "num": "1", "mavat_code": 995, "mavat_name": "יעוד עפ\"י תכנית מאושרת אחרת", "is_hafrash": false}, {"pl_number": "101-1207158", "num": "1", "mavat_code": 995, "mavat_name": "יעוד עפ\"י תכנית מאושרת אחרת", "is_hafrash": false}]}, "geometry": {"type": "Point", "coordinates": [35.20381549240001, 31.744933052805965]}}, {"type": "Feature", "properties": {"id": "137593", "type": "מגרש ציבורי פנוי", "name": "מגרש ריק", "address": "בר יוחאי בין 3 ל-5", "target_population": "כללי", "use": "ציבורי", "gross_area": "1188", "taba_id": "2004-05-06 00:00:00", "planning_block": "30200", "planning_parcel": "16", "planning_plot": "907", "information_source": "לא ידוע", "position_source": "landuse_xplan_any", "match_landuse_xplan": [{"pl_number": "101-0092098", "num": "1", "mavat_code": 995, "mavat_name": "יעוד עפ\"י תכנית מאושרת אחרת", "is_hafrash": false}, {"pl_number": "101-0253286", "num": "1", "mavat_code": 995, "mavat_name": "יעוד עפ\"י תכנית מאושרת אחרת", "is_hafrash": false}, {"pl_number": "101-0292870", "num": "1", "mavat_code": 995, "mavat_name": "יעוד עפ\"י תכנית מאושרת אחרת", "is_hafrash": false}, {"pl_number": "101-0965152", "num": "1", "mavat_code": 995, "mavat_name": "יעוד עפ\"י תכנית מאושרת אחרת", "is_hafrash": false}, {"pl_number": "101-0615880", "num": "1", "mavat_code": 995, "mavat_name": "יעוד עפ\"י תכנית מאושרת אחרת", "is_hafrash": false}, {"pl_number": "101-1454198", "num": "1", "mavat_code": 995, "mavat_name": "יעוד עפ\"י תכנית מאושרת אחרת", "is_hafrash": false}, {"pl_number": "101-1207158", "num": "1", "mavat_code": 995, "mavat_name": "יעוד עפ\"י תכנית מאושרת אחרת", "is_hafrash": false}, {"pl_number": "101-1261510", "num": "401", "mavat_code": 670, "mavat_name": "שטח ציבורי פתוח", "is_hafrash": false}]}, "geometry": {"type": "Point", "coordinates": [35.19889615141288, 31.753552106087007]}}, {"type": "Feature", "properties": {"id": "137865", "type": "מגרש ציבורי פנוי", "name": "מגרש ריק", "address": "הצפירה ליד 28", "target_population": "כללי", "use": "ציבורי", "gross_area": "1091", "taba_id": "2878", "planning_block": "30009", "planning_parcel": "70", "planning_plot": "300009/70", "information_source": "לא ידוע", "position_source": "yiud_karka_any", "match_landuse_xplan": [{"pl_number": "101-0092098", "num": "1", "mavat_code": 995, "mavat_name": "יעוד עפ\"י תכנית מאושרת אחרת", "is_hafrash": false}, {"pl_number": "101-0253286", "num": "1", "mavat_code": 995, "mavat_name": "יעוד עפ\"י תכנית מאושרת אחרת", "is_hafrash": false}, {"pl_number": "101-0292870", "num": "1", "mavat_code": 995, "mavat_name": "יעוד עפ\"י תכנית מאושרת אחרת", "is_hafrash": false}, {"pl_number": "101-0965152", "num": "1", "mavat_code": 995, "mavat_name": "יעוד עפ\"י תכנית מאושרת אחרת", "is_hafrash": false}, {"pl_number": "101-0615880", "num": "1", "mavat_code": 995, "mavat_name": "יעוד עפ\"י תכנית מאושרת אחרת", "is_hafrash": false}, {"pl_number": "101-0588897", "num": "4", "mavat_code": 1604, "mavat_name": "מבנים מוסדות ציבור ותחבורה", "is_hafrash": true}, {"pl_number": "101-1454198", "num": "1", "mavat_code": 995, "mavat_name": "יעוד עפ\"י תכנית מאושרת אחרת", "is_hafrash": false}, {"pl_number": "101-1207158", "num": "1", "mavat_code": 995, "mavat_name": "יעוד עפ\"י תכנית מאושרת אחרת", "is_hafrash": false}]}, "geometry": {"type": "Point", "coordinates": [35.21612546689084, 31.765646228093832]}}, {"type": "Feature", "properties": {"id": "137973", "type": "מגרש ציבורי פנוי", "name": "מגרש ריק", "address": "קנאי הגליל ליד בית כנסת אור החיים", "target_population": "כללי", "use": "ציבורי", "gross_area": "1044", "taba_id": "1850א", "planning_block": "30172", "planning_parcel": "14", "planning_plot": "2001", "information_source": "לא ידוע", "position_source": "yiud_karka_any", "match_future_shavaz": [{"TABA": "1056019", "MIGRASH": "1", "MAVAT_NAME": "*בתיאום מחלקת מבני ציבור*", "match": "spatial"}], "match_landuse_xplan": [{"pl_number": "101-0092098", "num": "1", "mavat_code": 995, "mavat_name": "יעוד עפ\"י תכנית מאושרת אחרת", "is_hafrash": false}, {"pl_number": "101-0253286", "num": "1", "mavat_code": 995, "mavat_name": "יעוד עפ\"י תכנית מאושרת אחרת", "is_hafrash": false}, {"pl_number": "101-0292870", "num": "1", "mavat_code": 995, "mavat_name": "יעוד עפ\"י תכנית מאושרת אחרת", "is_hafrash": false}, {"pl_number": "101-0965152", "num": "1", "mavat_code": 995, "mavat_name": "יעוד עפ\"י תכנית מאושרת אחרת", "is_hafrash": false}, {"pl_number": "101-0615880", "num": "1", "mavat_code": 995, "mavat_name": "יעוד עפ\"י תכנית מאושרת אחרת", "is_hafrash": false}, {"pl_number": "101-1056019", "num": "1", "mavat_code": 400, "mavat_name": "מבנים ומוסדות ציבור", "is_hafrash": false}, {"pl_number": "101-1454198", "num": "1", "mavat_code": 995, "mavat_name": "יעוד עפ\"י תכנית מאושרת אחרת", "is_hafrash": false}, {"pl_number": "101-1207158", "num": "1", "mavat_code": 995, "mavat_name": "יעוד עפ\"י תכנית מאושרת אחרת", "is_hafrash": false}]}, "geometry": {"type": "Point", "coordinates": [35.20024476046388, 31.755714388821296]}}, {"type": "Feature", "properties": {"id": "138069", "type": "מגרש ציבורי פנוי", "name": "מגרש ריק", "address": "הילדסהיימר עזריאל המגיד", "target_population": "כללי", "use": "ציבורי", "gross_area": "1017", "taba_id": "2878", "planning_block": "30012", "planning_parcel": "21", "planning_plot": "2021-12-21 00:00:00", "information_source": "לא ידוע", "position_source": "yiud_karka_any", "match_future_shavaz": [{"TABA": "410282", "MIGRASH": "1", "MAVAT_NAME": "מבנים ומוסדות ציבור", "match": "spatial"}], "match_landuse_xplan": [{"pl_number": "101-0092098", "num": "1", "mavat_code": 995, "mavat_name": "יעוד עפ\"י תכנית מאושרת אחרת", "is_hafrash": false}, {"pl_number": "101-0253286", "num": "1", "mavat_code": 995, "mavat_name": "יעוד עפ\"י תכנית מאושרת אחרת", "is_hafrash": false}, {"pl_number": "101-0410282", "num": "1", "mavat_code": 400, "mavat_name": "מבנים ומוסדות ציבור", "is_hafrash": false}, {"pl_number": "101-0292870", "num": "1", "mavat_code": 995, "mavat_name": "יעוד עפ\"י תכנית מאושרת אחרת", "is_hafrash": false}, {"pl_number": "101-0965152", "num": "1", "mavat_code": 995, "mavat_name": "יעוד עפ\"י תכנית מאושרת אחרת", "is_hafrash": false}, {"pl_number": "101-0615880", "num": "1", "mavat_code": 995, "mavat_name": "יעוד עפ\"י תכנית מאושרת אחרת", "is_hafrash": false}, {"pl_number": "101-1454198", "num": "1", "mavat_code": 995, "mavat_name": "יעוד עפ\"י תכנית מאושרת אחרת", "is_hafrash": false}, {"pl_number": "101-1207158", "num": "1", "mavat_code": 995, "mavat_name": "יעוד עפ\"י תכנית מאושרת אחרת", "is_hafrash": false}]}, "geometry": {"type": "Point", "coordinates": [35.219832799892295, 31.76571964606415]}}, {"type": "Feature", "properties": {"id": "138360", "type": "מגרש ציבורי פנוי", "name": "מגרש ריק", "address": "כ\"ט בנובמבר ליד מגרש הכדורסל", "target_population": "כללי", "use": "ציבורי", "gross_area": "876", "taba_id": "2878", "planning_block": "30009", "planning_parcel": "174", "planning_plot": "30009/50", "information_source": "לא ידוע", "position_source": "yiud_karka_taba", "match_landuse_xplan": [{"pl_number": "101-0092098", "num": "1", "mavat_code": 995, "mavat_name": "יעוד עפ\"י תכנית מאושרת אחרת", "is_hafrash": false}, {"pl_number": "101-0253286", "num": "1", "mavat_code": 995, "mavat_name": "יעוד עפ\"י תכנית מאושרת אחרת", "is_hafrash": false}, {"pl_number": "101-0292870", "num": "1", "mavat_code": 995, "mavat_name": "יעוד עפ\"י תכנית מאושרת אחרת", "is_hafrash": false}, {"pl_number": "101-0965152", "num": "1", "mavat_code": 995, "mavat_name": "יעוד עפ\"י תכנית מאושרת אחרת", "is_hafrash": false}, {"pl_number": "101-0615880", "num": "1", "mavat_code": 995, "mavat_name": "יעוד עפ\"י תכנית מאושרת אחרת", "is_hafrash": false}, {"pl_number": "101-1454198", "num": "1", "mavat_code": 995, "mavat_name": "יעוד עפ\"י תכנית מאושרת אחרת", "is_hafrash": false}, {"pl_number": "101-1207158", "num": "1", "mavat_code": 995, "mavat_name": "יעוד עפ\"י תכנית מאושרת אחרת", "is_hafrash": false}]}, "geometry": {"type": "Point", "coordinates": [35.216132600045164, 31.76623110179197]}}, {"type": "Feature", "properties": {"id": "138589", "type": "מגרש ציבורי פנוי", "name": "מגרש ריק", "address": "אבן עזרא מול 11-15", "target_population": "כללי", "use": "ציבורי", "gross_area": "758", "taba_id": "5981", "planning_plot": "40", "information_source": "לא ידוע", "position_source": "yiud_karka_any", "match_landuse_xplan": [{"pl_number": "101-0092098", "num": "1", "mavat_code": 995, "mavat_name": "יעוד עפ\"י תכנית מאושרת אחרת", "is_hafrash": false}, {"pl_number": "101-0253286", "num": "1", "mavat_code": 995, "mavat_name": "יעוד עפ\"י תכנית מאושרת אחרת", "is_hafrash": false}, {"pl_number": "101-0292870", "num": "1", "mavat_code": 995, "mavat_name": "יעוד עפ\"י תכנית מאושרת אחרת", "is_hafrash": false}, {"pl_number": "101-0965152", "num": "1", "mavat_code": 995, "mavat_name": "יעוד עפ\"י תכנית מאושרת אחרת", "is_hafrash": false}, {"pl_number": "101-0615880", "num": "1", "mavat_code": 995, "mavat_name": "יעוד עפ\"י תכנית מאושרת אחרת", "is_hafrash": false}, {"pl_number": "101-1454198", "num": "1", "mavat_code": 995, "mavat_name": "יעוד עפ\"י תכנית מאושרת אחרת", "is_hafrash": false}, {"pl_number": "101-1207158", "num": "1", "mavat_code": 995, "mavat_name": "יעוד עפ\"י תכנית מאושרת אחרת", "is_hafrash": false}]}, "geometry": {"type": "Point", "coordinates": [35.21431259345661, 31.77552828327173]}}, {"type": "Feature", "properties": {"id": "138848", "type": "מגרש ציבורי פנוי", "name": "מגרש ריק", "address": "גד ליד 17", "target_population": "כללי", "use": "ציבורי", "gross_area": "602", "taba_id": "3770", "planning_block": "30001", "planning_parcel": "87", "planning_plot": "30001/87", "information_source": "לא ידוע", "position_source": "yiud_karka_taba", "match_landuse_xplan": [{"pl_number": "101-0092098", "num": "1", "mavat_code": 995, "mavat_name": "יעוד עפ\"י תכנית מאושרת אחרת", "is_hafrash": false}, {"pl_number": "101-0253286", "num": "1", "mavat_code": 995, "mavat_name": "יעוד עפ\"י תכנית מאושרת אחרת", "is_hafrash": false}, {"pl_number": "101-0292870", "num": "1", "mavat_code": 995, "mavat_name": "יעוד עפ\"י תכנית מאושרת אחרת", "is_hafrash": false}, {"pl_number": "101-0965152", "num": "1", "mavat_code": 995, "mavat_name": "יעוד עפ\"י תכנית מאושרת אחרת", "is_hafrash": false}, {"pl_number": "101-0615880", "num": "1", "mavat_code": 995, "mavat_name": "יעוד עפ\"י תכנית מאושרת אחרת", "is_hafrash": false}, {"pl_number": "101-1454198", "num": "1", "mavat_code": 995, "mavat_name": "יעוד עפ\"י תכנית מאושרת אחרת", "is_hafrash": false}, {"pl_number": "101-1207158", "num": "1", "mavat_code": 995, "mavat_name": "יעוד עפ\"י תכנית מאושרת אחרת", "is_hafrash": false}]}, "geometry": {"type": "Point", "coordinates": [35.21859919161553, 31.755947990575365]}}, {"type": "Feature", "properties": {"id": "138896", "type": "מגרש ציבורי פנוי", "name": "מגרש ריק", "address": "ברניקי 6", "target_population": "כללי", "use": "ציבורי", "gross_area": "571", "taba_id": "2696", "planning_block": "30171", "planning_parcel": "56", "planning_plot": "23", "information_source": "לא ידוע", "position_source": "yiud_karka_taba", "match_landuse_xplan": [{"pl_number": "101-0092098", "num": "1", "mavat_code": 995, "mavat_name": "יעוד עפ\"י תכנית מאושרת אחרת", "is_hafrash": false}, {"pl_number": "101-0253286", "num": "1", "mavat_code": 995, "mavat_name": "יעוד עפ\"י תכנית מאושרת אחרת", "is_hafrash": false}, {"pl_number": "101-0292870", "num": "1", "mavat_code": 995, "mavat_name": "יעוד עפ\"י תכנית מאושרת אחרת", "is_hafrash": false}, {"pl_number": "101-0965152", "num": "1", "mavat_code": 995, "mavat_name": "יעוד עפ\"י תכנית מאושרת אחרת", "is_hafrash": false}, {"pl_number": "101-0615880", "num": "1", "mavat_code": 995, "mavat_name": "יעוד עפ\"י תכנית מאושרת אחרת", "is_hafrash": false}, {"pl_number": "101-1454198", "num": "1", "mavat_code": 995, "mavat_name": "יעוד עפ\"י תכנית מאושרת אחרת", "is_hafrash": false}, {"pl_number": "101-1207158", "num": "1", "mavat_code": 995, "mavat_name": "יעוד עפ\"י תכנית מאושרת אחרת", "is_hafrash": false}]}, "geometry": {"type": "Point", "coordinates": [35.200014750831784, 31.756987225474933]}}, {"type": "Feature", "properties": {"id": "139092", "type": "מגרש ציבורי פנוי", "name": "מגרש ריק", "address": "גדליהו אלון פינת כ\"ט בנובמבר", "target_population": "כללי", "use": "ציבורי", "gross_area": "490", "taba_id": "2878", "planning_block": "30009", "planning_parcel": "174", "planning_plot": "9/43", "information_source": "לא ידוע", "position_source": "yiud_karka_taba", "match_landuse_xplan": [{"pl_number": "101-0092098", "num": "1", "mavat_code": 995, "mavat_name": "יעוד עפ\"י תכנית מאושרת אחרת", "is_hafrash": false}, {"pl_number": "101-0253286", "num": "1", "mavat_code": 995, "mavat_name": "יעוד עפ\"י תכנית מאושרת אחרת", "is_hafrash": false}, {"pl_number": "101-0292870", "num": "1", "mavat_code": 995, "mavat_name": "יעוד עפ\"י תכנית מאושרת אחרת", "is_hafrash": false}, {"pl_number": "101-0965152", "num": "1", "mavat_code": 995, "mavat_name": "יעוד עפ\"י תכנית מאושרת אחרת", "is_hafrash": false}, {"pl_number": "101-0615880", "num": "1", "mavat_code": 995, "mavat_name": "יעוד עפ\"י תכנית מאושרת אחרת", "is_hafrash": false}, {"pl_number": "101-1454198", "num": "1", "mavat_code": 995, "mavat_name": "יעוד עפ\"י תכנית מאושרת אחרת", "is_hafrash": false}, {"pl_number": "101-1207158", "num": "1", "mavat_code": 995, "mavat_name": "יעוד עפ\"י תכנית מאושרת אחרת", "is_hafrash": false}]}, "geometry": {"type": "Point", "coordinates": [35.216132600045164, 31.76623110179197]}}, {"type": "Feature", "properties": {"id": "139256", "type": "מגרש ציבורי פנוי", "name": "מגרש ריק", "address": "מקור חיים מזרחית לרחוב", "target_population": "כללי", "use": "ציבורי", "gross_area": "334", "taba_id": "3532", "planning_block": "30141", "planning_parcel": "215", "planning_plot": "9", "information_source": "לא ידוע", "position_source": "yiud_karka_any", "match_landuse_xplan": [{"pl_number": "101-0092098", "num": "1", "mavat_code": 995, "mavat_name": "יעוד עפ\"י תכנית מאושרת אחרת", "is_hafrash": false}, {"pl_number": "101-0253286", "num": "1", "mavat_code": 995, "mavat_name": "יעוד עפ\"י תכנית מאושרת אחרת", "is_hafrash": false}, {"pl_number": "101-0613570", "num": "1", "mavat_code": 140, "mavat_name": "מגורים ד'", "is_hafrash": false}, {"pl_number": "101-0292870", "num": "1", "mavat_code": 995, "mavat_name": "יעוד עפ\"י תכנית מאושרת אחרת", "is_hafrash": false}, {"pl_number": "101-0965152", "num": "1", "mavat_code": 995, "mavat_name": "יעוד עפ\"י תכנית מאושרת אחרת", "is_hafrash": false}, {"pl_number": "101-0615880", "num": "1", "mavat_code": 995, "mavat_name": "יעוד עפ\"י תכנית מאושרת אחרת", "is_hafrash": false}, {"pl_number": "101-1454198", "num": "1", "mavat_code": 995, "mavat_name": "יעוד עפ\"י תכנית מאושרת אחרת", "is_hafrash": false}, {"pl_number": "101-1207158", "num": "1", "mavat_code": 995, "mavat_name": "יעוד עפ\"י תכנית מאושרת אחרת", "is_hafrash": false}]}, "geometry": {"type": "Point", "coordinates": [35.21276196254352, 31.7557354737117]}}, {"type": "Feature", "properties": {"id": "139275", "type": "מגרש ציבורי פנוי", "name": "מגרש ריק", "address": "יצחק אלחנן ליד בי\"ס לאומנויות צ'רלס סמית", "target_population": "כללי", "use": "ציבורי", "gross_area": "318", "taba_id": "3599/א", "planning_block": "30197", "planning_parcel": "13", "planning_plot": "35", "information_source": "לא ידוע", "position_source": "landuse_xplan_any", "match_landuse_xplan": [{"pl_number": "101-0092098", "num": "1", "mavat_code": 995, "mavat_name": "יעוד עפ\"י תכנית מאושרת אחרת", "is_hafrash": false}, {"pl_number": "101-0253286", "num": "1", "mavat_code": 995, "mavat_name": "יעוד עפ\"י תכנית מאושרת אחרת", "is_hafrash": false}, {"pl_number": "101-0292870", "num": "1", "mavat_code": 995, "mavat_name": "יעוד עפ\"י תכנית מאושרת אחרת", "is_hafrash": false}, {"pl_number": "101-0965152", "num": "1", "mavat_code": 995, "mavat_name": "יעוד עפ\"י תכנית מאושרת אחרת", "is_hafrash": false}, {"pl_number": "101-0615880", "num": "1", "mavat_code": 995, "mavat_name": "יעוד עפ\"י תכנית מאושרת אחרת", "is_hafrash": false}, {"pl_number": "101-1454198", "num": "1", "mavat_code": 995, "mavat_name": "יעוד עפ\"י תכנית מאושרת אחרת", "is_hafrash": false}, {"pl_number": "101-1207158", "num": "1", "mavat_code": 995, "mavat_name": "יעוד עפ\"י תכנית מאושרת אחרת", "is_hafrash": false}]}, "geometry": {"type": "Point", "coordinates": [35.20851904535361, 31.77962685043328]}}, {"type": "Feature", "properties": {"id": "139314", "type": "מגרש ציבורי פנוי", "name": "מגרש ריק", "address": "גנרל קניג פייר 14", "target_population": "כללי", "use": "ציבורי", "gross_area": "260", "taba_id": "1969", "planning_block": "30198", "planning_parcel": "43", "planning_plot": "ד2", "information_source": "לא ידוע", "position_source": "yiud_karka_any", "match_landuse_xplan": [{"pl_number": "101-0092098", "num": "1", "mavat_code": 995, "mavat_name": "יעוד עפ\"י תכנית מאושרת אחרת", "is_hafrash": false}, {"pl_number": "101-0253286", "num": "1", "mavat_code": 995, "mavat_name": "יעוד עפ\"י תכנית מאושרת אחרת", "is_hafrash": false}, {"pl_number": "101-0292870", "num": "1", "mavat_code": 995, "mavat_name": "יעוד עפ\"י תכנית מאושרת אחרת", "is_hafrash": false}, {"pl_number": "101-0965152", "num": "1", "mavat_code": 995, "mavat_name": "יעוד עפ\"י תכנית מאושרת אחרת", "is_hafrash": false}, {"pl_number": "101-0615880", "num": "1", "mavat_code": 995, "mavat_name": "יעוד עפ\"י תכנית מאושרת אחרת", "is_hafrash": false}, {"pl_number": "101-1048347", "num": "820", "mavat_code": 820, "mavat_name": "דרך מאושרת", "is_hafrash": false}, {"pl_number": "101-1454198", "num": "1", "mavat_code": 995, "mavat_name": "יעוד עפ\"י תכנית מאושרת אחרת", "is_hafrash": false}, {"pl_number": "101-1207158", "num": "1", "mavat_code": 995, "mavat_name": "יעוד עפ\"י תכנית מאושרת אחרת", "is_hafrash": false}]}, "geometry": {"type": "Point", "coordinates": [35.21398637892643, 31.756572258913234]}}, {"type": "Feature", "properties": {"id": "150191", "type": "מגרש ציבורי פנוי", "name": "מגרש חום ריק", "address": "השופט חיים כהן 20", "target_population": "כללי", "use": "ציבורי", "gross_area": "1005", "taba_id": "5303", "planning_block": "30139", "planning_parcel": "384", "planning_plot": "25", "information_source": "סיסטם", "position_source": "yiud_karka_any", "match_future_shavaz": [{"TABA": "889428", "MIGRASH": "1", "MAVAT_NAME": "מקווה, 2 בתי כנסת", "match": "spatial"}], "match_landuse_xplan": [{"pl_number": "101-0092098", "num": "1", "mavat_code": 995, "mavat_name": "יעוד עפ\"י תכנית מאושרת אחרת", "is_hafrash": false}, {"pl_number": "101-0253286", "num": "1", "mavat_code": 995, "mavat_name": "יעוד עפ\"י תכנית מאושרת אחרת", "is_hafrash": false}, {"pl_number": "101-0292870", "num": "1", "mavat_code": 995, "mavat_name": "יעוד עפ\"י תכנית מאושרת אחרת", "is_hafrash": false}, {"pl_number": "101-0965152", "num": "1", "mavat_code": 995, "mavat_name": "יעוד עפ\"י תכנית מאושרת אחרת", "is_hafrash": false}, {"pl_number": "101-0615880", "num": "1", "mavat_code": 995, "mavat_name": "יעוד עפ\"י תכנית מאושרת אחרת", "is_hafrash": false}, {"pl_number": "101-0889428", "num": "1", "mavat_code": 400, "mavat_name": "מבנים ומוסדות ציבור", "is_hafrash": false}, {"pl_number": "101-1454198", "num": "1", "mavat_code": 995, "mavat_name": "יעוד עפ\"י תכנית מאושרת אחרת", "is_hafrash": false}, {"pl_number": "101-1207158", "num": "1", "mavat_code": 995, "mavat_name": "יעוד עפ\"י תכנית מאושרת אחרת", "is_hafrash": false}]}, "geometry": {"type": "Point", "coordinates": [35.21948321721151, 31.744080881227415]}}, {"type": "Feature", "properties": {"id": "135016", "type": "מגרש ציבורי פנוי", "name": "מגרש ריק", "address": "אל בראעם פינת אל ג'מעיה", "target_population": "כללי", "use": "ציבורי", "gross_area": "6528", "taba_id": "מק/14295", "planning_block": "30282", "planning_parcel": "45", "planning_plot": "403", "information_source": "לא ידוע", "position_source": "yiud_karka_any", "match_landuse_xplan": [{"pl_number": "101-0092098", "num": "1", "mavat_code": 995, "mavat_name": "יעוד עפ\"י תכנית מאושרת אחרת", "is_hafrash": false}, {"pl_number": "101-0253286", "num": "1", "mavat_code": 995, "mavat_name": "יעוד עפ\"י תכנית מאושרת אחרת", "is_hafrash": false}, {"pl_number": "101-0292870", "num": "1", "mavat_code": 995, "mavat_name": "יעוד עפ\"י תכנית מאושרת אחרת", "is_hafrash": false}, {"pl_number": "101-0965152", "num": "1", "mavat_code": 995, "mavat_name": "יעוד עפ\"י תכנית מאושרת אחרת", "is_hafrash": false}, {"pl_number": "101-0615880", "num": "1", "mavat_code": 995, "mavat_name": "יעוד עפ\"י תכנית מאושרת אחרת", "is_hafrash": false}, {"pl_number": "101-1153048", "num": "403", "mavat_code": 400, "mavat_name": "מבנים ומוסדות ציבור", "is_hafrash": false}, {"pl_number": "101-1454198", "num": "1", "mavat_code": 995, "mavat_name": "יעוד עפ\"י תכנית מאושרת אחרת", "is_hafrash": false}, {"pl_number": "101-1207158", "num": "1", "mavat_code": 995, "mavat_name": "יעוד עפ\"י תכנית מאושרת אחרת", "is_hafrash": false}]}, "geometry": {"type": "Point", "coordinates": [35.20513669069122, 31.740780293520324]}}, {"type": "Feature", "properties": {"id": "137982", "type": "מגרש ציבורי פנוי", "name": "מגרש ריק", "address": "אליעזר הגדול מול 28", "target_population": "כללי", "use": "ציבורי", "gross_area": "1170", "taba_id": "ג1784", "planning_block": "30143", "planning_parcel": "213", "planning_plot": "3", "information_source": "לא ידוע", "position_source": "yiud_karka_any", "match_landuse_xplan": [{"pl_number": "101-0092098", "num": "1", "mavat_code": 995, "mavat_name": "יעוד עפ\"י תכנית מאושרת אחרת", "is_hafrash": false}, {"pl_number": "101-0253286", "num": "1", "mavat_code": 995, "mavat_name": "יעוד עפ\"י תכנית מאושרת אחרת", "is_hafrash": false}, {"pl_number": "101-0292870", "num": "1", "mavat_code": 995, "mavat_name": "יעוד עפ\"י תכנית מאושרת אחרת", "is_hafrash": false}, {"pl_number": "101-0965152", "num": "1", "mavat_code": 995, "mavat_name": "יעוד עפ\"י תכנית מאושרת אחרת", "is_hafrash": false}, {"pl_number": "101-0615880", "num": "1", "mavat_code": 995, "mavat_name": "יעוד עפ\"י תכנית מאושרת אחרת", "is_hafrash": false}, {"pl_number": "101-1454198", "num": "1", "mavat_code": 995, "mavat_name": "יעוד עפ\"י תכנית מאושרת אחרת", "is_hafrash": false}, {"pl_number": "101-1207158", "num": "1", "mavat_code": 995, "mavat_name": "יעוד עפ\"י תכנית מאושרת אחרת", "is_hafrash": false}, {"pl_number": "101-1322452", "num": "2", "mavat_code": 670, "mavat_name": "שטח ציבורי פתוח", "is_hafrash": false}]}, "geometry": {"type": "Point", "coordinates": [35.205865343858974, 31.75458203918703]}}, {"type": "Feature", "properties": {"id": "138980", "type": "מגרש ציבורי מעורב פנוי", "name": "מגרש ריק", "address": "אל בדריה ליד 12", "target_population": "כללי", "use": "ציבורי", "gross_area": "538", "taba_id": "4552", "planning_plot": "ד", "information_source": "לא ידוע", "position_source": "yiud_karka_taba", "match_landuse_xplan": [{"pl_number": "101-0092098", "num": "1", "mavat_code": 995, "mavat_name": "יעוד עפ\"י תכנית מאושרת אחרת", "is_hafrash": false}, {"pl_number": "101-0253286", "num": "1", "mavat_code": 995, "mavat_name": "יעוד עפ\"י תכנית מאושרת אחרת", "is_hafrash": false}, {"pl_number": "101-0292870", "num": "1", "mavat_code": 995, "mavat_name": "יעוד עפ\"י תכנית מאושרת אחרת", "is_hafrash": false}, {"pl_number": "101-0965152", "num": "1", "mavat_code": 995, "mavat_name": "יעוד עפ\"י תכנית מאושרת אחרת", "is_hafrash": false}, {"pl_number": "101-0615880", "num": "1", "mavat_code": 995, "mavat_name": "יעוד עפ\"י תכנית מאושרת אחרת", "is_hafrash": false}, {"pl_number": "101-1454198", "num": "1", "mavat_code": 995, "mavat_name": "יעוד עפ\"י תכנית מאושרת אחרת", "is_hafrash": false}, {"pl_number": "101-1207158", "num": "1", "mavat_code": 995, "mavat_name": "יעוד עפ\"י תכנית מאושרת אחרת", "is_hafrash": false}]}, "geometry": {"type": "Point", "coordinates": [35.19165270545237, 31.74274632921395]}}, {"type": "Feature", "properties": {"id": "139388", "type": "מגרש ציבורי מעורב פנוי", "name": "מגרש ריק", "address": "אביגד נחמן גרנות - בין הרחובות", "target_population": "כללי", "use": "ציבורי", "gross_area": "135", "taba_id": "4029", "planning_block": "30146", "planning_parcel": "82", "planning_plot": "6", "information_source": "לא ידוע", "position_source": "landuse_xplan_any", "match_landuse_xplan": [{"pl_number": "101-0092098", "num": "1", "mavat_code": 995, "mavat_name": "יעוד עפ\"י תכנית מאושרת אחרת", "is_hafrash": false}, {"pl_number": "101-0253286", "num": "1", "mavat_code": 995, "mavat_name": "יעוד עפ\"י תכנית מאושרת אחרת", "is_hafrash": false}, {"pl_number": "101-0292870", "num": "1", "mavat_code": 995, "mavat_name": "יעוד עפ\"י תכנית מאושרת אחרת", "is_hafrash": false}, {"pl_number": "101-0965152", "num": "1", "mavat_code": 995, "mavat_name": "יעוד עפ\"י תכנית מאושרת אחרת", "is_hafrash": false}, {"pl_number": "101-0615880", "num": "1", "mavat_code": 995, "mavat_name": "יעוד עפ\"י תכנית מאושרת אחרת", "is_hafrash": false}, {"pl_number": "101-1454198", "num": "1", "mavat_code": 995, "mavat_name": "יעוד עפ\"י תכנית מאושרת אחרת", "is_hafrash": false}, {"pl_number": "101-1207158", "num": "1", "mavat_code": 995, "mavat_name": "יעוד עפ\"י תכנית מאושרת אחרת", "is_hafrash": false}]}, "geometry": {"type": "Point", "coordinates": [35.20851904535361, 31.77962685043328]}}, {"type": "Feature", "properties": {"id": "150443", "type": "מגרש ציבורי פנוי", "name": "מגרש חום ריק", "address": "שמואל מוהליבר מול 5", "target_population": "כללי", "use": "ציבורי", "gross_area": "4103", "taba_id": "2878", "planning_block": "30012", "planning_parcel": "20", "planning_plot": "30012/20", "information_source": "סיסטם", "position_source": "yiud_karka_any", "match_landuse_xplan": [{"pl_number": "101-0092098", "num": "1", "mavat_code": 995, "mavat_name": "יעוד עפ\"י תכנית מאושרת אחרת", "is_hafrash": false}, {"pl_number": "101-0253286", "num": "1", "mavat_code": 995, "mavat_name": "יעוד עפ\"י תכנית מאושרת אחרת", "is_hafrash": false}, {"pl_number": "101-0410282", "num": "2", "mavat_code": 400, "mavat_name": "מבנים ומוסדות ציבור", "is_hafrash": false}, {"pl_number": "101-0292870", "num": "1", "mavat_code": 995, "mavat_name": "יעוד עפ\"י תכנית מאושרת אחרת", "is_hafrash": false}, {"pl_number": "101-0965152", "num": "1", "mavat_code": 995, "mavat_name": "יעוד עפ\"י תכנית מאושרת אחרת", "is_hafrash": false}, {"pl_number": "101-0615880", "num": "1", "mavat_code": 995, "mavat_name": "יעוד עפ\"י תכנית מאושרת אחרת", "is_hafrash": false}, {"pl_number": "101-1454198", "num": "1", "mavat_code": 995, "mavat_name": "יעוד עפ\"י תכנית מאושרת אחרת", "is_hafrash": false}, {"pl_number": "101-1207158", "num": "1", "mavat_code": 995, "mavat_name": "יעוד עפ\"י תכנית מאושרת אחרת", "is_hafrash": false}]}, "geometry": {"type": "Point", "coordinates": [35.21992598445221, 31.766281291921125]}}, {"type": "Feature", "properties": {"id": "150459", "type": "מגרש ציבורי פנוי", "name": "מגרש חום ריק", "address": "יהושע בן נון 22", "target_population": "כללי", "use": "ציבורי", "gross_area": "727", "taba_id": "1258", "planning_block": "30004", "planning_parcel": "66", "planning_plot": "66", "information_source": "סיסטם", "position_source": "yiud_karka_taba", "match_landuse_xplan": [{"pl_number": "101-0092098", "num": "1", "mavat_code": 995, "mavat_name": "יעוד עפ\"י תכנית מאושרת אחרת", "is_hafrash": false}, {"pl_number": "101-0253286", "num": "1", "mavat_code": 995, "mavat_name": "יעוד עפ\"י תכנית מאושרת אחרת", "is_hafrash": false}, {"pl_number": "101-0292870", "num": "1", "mavat_code": 995, "mavat_name": "יעוד עפ\"י תכנית מאושרת אחרת", "is_hafrash": false}, {"pl_number": "101-0965152", "num": "1", "mavat_code": 995, "mavat_name": "יעוד עפ\"י תכנית מאושרת אחרת", "is_hafrash": false}, {"pl_number": "101-0615880", "num": "1", "mavat_code": 995, "mavat_name": "יעוד עפ\"י תכנית מאושרת אחרת", "is_hafrash": false}, {"pl_number": "101-1454198", "num": "1", "mavat_code": 995, "mavat_name": "יעוד עפ\"י תכנית מאושרת אחרת", "is_hafrash": false}, {"pl_number": "101-1207158", "num": "1", "mavat_code": 995, "mavat_name": "יעוד עפ\"י תכנית מאושרת אחרת", "is_hafrash": false}]}, "geometry": {"type": "Point", "coordinates": [35.21511687551597, 31.76137400887116]}}, {"type": "Feature", "properties": {"id": "155224", "type": "מגרש ציבורי פנוי", "name": "מגרש חום ריק", "address": "עמינדב 5", "target_population": "כללי", "use": "ציבורי", "gross_area": "828", "taba_id": "2395", "planning_block": "30018", "planning_parcel": "10", "planning_plot": "4", "information_source": "סיסטם", "position_source": "yiud_karka_any", "match_landuse_xplan": [{"pl_number": "101-0092098", "num": "1", "mavat_code": 995, "mavat_name": "יעוד עפ\"י תכנית מאושרת אחרת", "is_hafrash": false}, {"pl_number": "101-0253286", "num": "1", "mavat_code": 995, "mavat_name": "יעוד עפ\"י תכנית מאושרת אחרת", "is_hafrash": false}, {"pl_number": "101-0292870", "num": "1", "mavat_code": 995, "mavat_name": "יעוד עפ\"י תכנית מאושרת אחרת", "is_hafrash": false}, {"pl_number": "101-0965152", "num": "1", "mavat_code": 995, "mavat_name": "יעוד עפ\"י תכנית מאושרת אחרת", "is_hafrash": false}, {"pl_number": "101-0615880", "num": "1", "mavat_code": 995, "mavat_name": "יעוד עפ\"י תכנית מאושרת אחרת", "is_hafrash": false}, {"pl_number": "101-1454198", "num": "1", "mavat_code": 995, "mavat_name": "יעוד עפ\"י תכנית מאושרת אחרת", "is_hafrash": false}, {"pl_number": "101-1207158", "num": "1", "mavat_code": 995, "mavat_name": "יעוד עפ\"י תכנית מאושרת אחרת", "is_hafrash": false}]}, "geometry": {"type": "Point", "coordinates": [35.226219485018994, 31.76585122769282]}}]}