{"type": "FeatureCollection", "features": [{"type": "Feature", "properties": {"name": "מינה\"ק גוננים (union of 4 sub-neighborhoods)"}, "geometry": {"type": "Polygon", "coordinates": [[[35.19818825235272, 31.75182408652493], [35.197227607417176, 31.752143778238295], [35.19694834446545, 31.752291702431734], [35.195747556657665, 31.75235843881045], [35.19429545343788, 31.752296292266994], [35.19359173643609, 31.752310550491895], [35.19320078526959, 31.752315289654053], [35.192407619535686, 31.75300242496903], [35.19227949831456, 31.753123509060128], [35.19203860830522, 31.753368063954365], [35.19176978550078, 31.7536633234599], [35.19167202580102, 31.75381542955113], [35.19151492685054, 31.753928754231758], [35.19104015562251, 31.754173283363297], [35.1907898521816, 31.75429630046169], [35.19080631765736, 31.754320221691465], [35.19089501885846, 31.75446361536389], [35.19095756120745, 31.754594910513504], [35.19105054500883, 31.754754905858096], [35.19119011693671, 31.755160562655682], [35.19116564057483, 31.755443914494748], [35.19114704383112, 31.755543713254323], [35.191168776917145, 31.755557481162658], [35.191439397801325, 31.75572893151055], [35.191666304865606, 31.755877758668717], [35.19187524017396, 31.756001358171172], [35.19221824904556, 31.75616914343565], [35.1925391599823, 31.75631614722968], [35.19264156848948, 31.75635582883711], [35.19277234653078, 31.756402763778485], [35.1928473777587, 31.756427995177784], [35.19294022515626, 31.756456889622033], [35.19308172904562, 31.756497485244008], [35.19324729801962, 31.756538993677623], [35.19339192758034, 31.75656965992387], [35.193701146653865, 31.756627386222615], [35.19372753330082, 31.75663189765372], [35.19377403742101, 31.756637330637744], [35.19390382793317, 31.756651779908037], [35.19402817302521, 31.75666009399316], [35.194158402583675, 31.756653916171455], [35.19468341987762, 31.756682935258688], [35.19521083384826, 31.756725221856136], [35.19535940896318, 31.756735735812285], [35.19554725266466, 31.7567511073896], [35.19563794930633, 31.756766408926563], [35.19574564888736, 31.756792551719577], [35.19591353142412, 31.75683046660224], [35.19611934564869, 31.756887269248], [35.19621650224691, 31.756917950836893], [35.19627042043219, 31.756928847758402], [35.19637355578077, 31.756967547391692], [35.19659644595345, 31.757037934334523], [35.19683805091106, 31.75713081176397], [35.19698696514735, 31.757195780328576], [35.197127174439665, 31.75727210457098], [35.19740870060386, 31.75740755532898], [35.19747359923748, 31.75743877988119], [35.19800188592567, 31.757801384630493], [35.198140204982096, 31.757924309107615], [35.19825020807736, 31.758005675398753], [35.19844348091982, 31.758173445570787], [35.19859124413141, 31.75829161196837], [35.1987853214069, 31.758442147414385], [35.19886566291203, 31.758504468333857], [35.199171743309485, 31.758786730401404], [35.19923773081703, 31.758841718504154], [35.199463980324374, 31.759030239860905], [35.19966138262572, 31.759235912812063], [35.199841959912696, 31.759460460441133], [35.19996432530263, 31.75970122004661], [35.20003721184946, 31.759867215906596], [35.200063597168025, 31.759926684376975], [35.20010894353115, 31.760133262216506], [35.20013631234197, 31.76038577934821], [35.20012887723074, 31.76070769126609], [35.20012474116753, 31.760902507371313], [35.20011357779684, 31.761041003107565], [35.20011281737644, 31.761050445383677], [35.20010383391865, 31.76106868035772], [35.20008036069621, 31.761255135709686], [35.20007995495712, 31.76133768017447], [35.200078197559705, 31.761695207285115], [35.200081327387046, 31.761806179223193], [35.20008774715258, 31.761990137455637], [35.20008345561989, 31.76211999373789], [35.20011098381613, 31.762360812991812], [35.20010815137918, 31.762464342969714], [35.20021384111741, 31.762939704946323], [35.200475942600086, 31.763496865105928], [35.20082116473279, 31.763944779287137], [35.20124311107948, 31.764343534504935], [35.20183128981549, 31.764709519571664], [35.20242586884542, 31.765048190206574], [35.20319946602921, 31.765457868963356], [35.203941104313536, 31.765933088873396], [35.20422594785345, 31.766246564450686], [35.20426243779237, 31.76628390740272], [35.20426892565763, 31.766293862077905], [35.20431831971822, 31.76634822080019], [35.204371555146494, 31.766450784381835], [35.20437211315098, 31.766451587088287], [35.20443017109176, 31.766553540404328], [35.2044968112068, 31.766668949178623], [35.2045866797525, 31.76686524173029], [35.20466279714978, 31.767011887921726], [35.204773423419944, 31.767268419045358], [35.20511715986222, 31.76798062933737], [35.20538977872111, 31.768362047307452], [35.20591921587861, 31.768817723479813], [35.20624715089783, 31.768976363894605], [35.206804247179406, 31.769148499983988], [35.20742060814493, 31.7693408857073], [35.2083451545127, 31.7695872651955], [35.20896941913777, 31.769641250225988], [35.20897661042478, 31.769474896279938], [35.20889747886117, 31.769281329415335], [35.2086349272727, 31.769063189905584], [35.208300448915836, 31.76884505262721], [35.20811928860028, 31.768736598631712], [35.207867962391475, 31.768645299704144], [35.20757036219691, 31.76860541703197], [35.207178347085275, 31.7684364369974], [35.20723228908895, 31.76835040573466], [35.20745167238704, 31.76835347430917], [35.20790482236089, 31.768359607726637], [35.20839753014894, 31.76834422926177], [35.20872502681539, 31.768277391695324], [35.209168057520785, 31.76820305860213], [35.209372378150185, 31.76819440939781], [35.20990795477135, 31.768379443918086], [35.209955904691626, 31.768334378330056], [35.210104533988776, 31.767954403985897], [35.21042276489198, 31.76716110304366], [35.210091159605426, 31.76707083662853], [35.20979461813519, 31.766941208025056], [35.2094952098421, 31.76676608598729], [35.209201195597316, 31.7665333555207], [35.20892335959489, 31.766183097450675], [35.20860775525638, 31.765618534540007], [35.20828975804129, 31.765084637603948], [35.207931013668905, 31.764688293495354], [35.207429320476294, 31.764358778172983], [35.206919542869194, 31.764107036177997], [35.206963207968634, 31.763957403328437], [35.20693841530686, 31.76381956285387], [35.206803549198476, 31.76356147398237], [35.20668756660321, 31.763434734797798], [35.206464193999054, 31.763112039057063], [35.20621245057819, 31.76276791958617], [35.20597150236713, 31.762580499694643], [35.205705382224586, 31.76245145667598], [35.20540689681871, 31.762399226370366], [35.20507964396964, 31.762380792631717], [35.205072451159566, 31.762337778420665], [35.20545004560909, 31.76185846237423], [35.2055738087022, 31.761702657153812], [35.20577447508229, 31.761632601532675], [35.20596789028754, 31.761611312604696], [35.20615848802374, 31.76172192077614], [35.20626277779348, 31.761721919283794], [35.20637066072692, 31.761638960604945], [35.20643179349174, 31.76153449188679], [35.20651810035199, 31.76149147621704], [35.20664037030596, 31.76151912829759], [35.20674465705886, 31.76148532709726], [35.206852539443595, 31.76138393261823], [35.20725170544018, 31.761125831019143], [35.20749375278369, 31.761002888069786], [35.207396426192076, 31.7608231040656], [35.20713749571281, 31.76054312723159], [35.206801698127954, 31.76015772579569], [35.206805741378524, 31.760033287367964], [35.206908900894966, 31.759903663505195], [35.20702824119095, 31.75978613682978], [35.20703433175697, 31.759647616945003], [35.20736310984615, 31.759441206701958], [35.20789511237518, 31.75910832782747], [35.20796632185389, 31.758947259978655], [35.20803689727431, 31.75878908357486], [35.208588298595274, 31.758928356432417], [35.209269159471525, 31.75905942592786], [35.20953901120071, 31.759079849352243], [35.209526435784944, 31.75916660687538], [35.21038279727473, 31.759234457364368], [35.211715735534035, 31.759350053974504], [35.21215310493867, 31.759367822882737], [35.21403791859423, 31.75903848994688], [35.214225358535764, 31.759011783385272], [35.2148085335743, 31.759189685189156], [35.215058467874755, 31.759278638583655], [35.21527085178052, 31.759183563648808], [35.21421838980384, 31.758500267802], [35.21346077718178, 31.758021010264375], [35.212498522155585, 31.757000716046562], [35.21170097628447, 31.75616941748293], [35.21119749726583, 31.755534458194063], [35.21053097645209, 31.75439970719641], [35.21005147926867, 31.753650033183746], [35.209104807952905, 31.753073347518814], [35.20844224667459, 31.75271562466197], [35.208165075576325, 31.75258177606571], [35.20786301497842, 31.752237662419446], [35.207196570485074, 31.751479787932965], [35.206208909412574, 31.750316344972322], [35.20571449088314, 31.749817192713394], [35.20545357469813, 31.74964955072076], [35.20530592533601, 31.749594247252542], [35.20522267240116, 31.74982436474985], [35.204885967252956, 31.750608199436645], [35.204794876947474, 31.750772067041936], [35.20464625304364, 31.75078845355301], [35.2040565492792, 31.750759776433867], [35.20345246387039, 31.75087038485095], [35.202975027695146, 31.750983038964453], [35.202999465900355, 31.750637950325867], [35.2029894201985, 31.750365463008176], [35.20297144931973, 31.74988000331032], [35.2029971039609, 31.74962931222763], [35.203051715607394, 31.74943228683862], [35.203077888667046, 31.749212844355228], [35.20285338148325, 31.749193831213507], [35.20283518124365, 31.749114327812105], [35.20235786045749, 31.748863718330004], [35.20183204235038, 31.748857222454475], [35.20165405504179, 31.74895400309205], [35.20146138812123, 31.74886643329625], [35.20118331618363, 31.74910403398149], [35.20057444346606, 31.749185951703403], [35.20029828025873, 31.749055760155965], [35.19997464878797, 31.749521236662165], [35.199190246060404, 31.75064832241574], [35.1987610026215, 31.751143481686412], [35.198597458467525, 31.75124315343295], [35.19886962643358, 31.751790711503727], [35.19818825235272, 31.75182408652493]]]}}]}