{"type": "FeatureCollection", "name": "mosadot_shchuna", "crs": {"type": "name", "properties": {"name": "urn:ogc:def:crs:OGC:1.3:CRS84"}}, "features": [{"type": "Feature", "properties": {"קוד סטטיסטי": "1212", "עד כיתה": "ו", "מכיתה": "א", "הרכב מינים": "מעורב - כיתות מעורבות", "פיקוח": "ממלכתי", "שלב חינוך": "יסודי", "סוג חינוך": "רגיל", "מעמד משפטי": "רשמי", "כיתות מקדמות": "1.0", "כיתות רגילות": 9.0, "מספר תלמידים": "212.0", "כתובת": "מרגולין 3", "סמל חינוך": "111203.0", "סמל עירייה": "21333.0", "שם מוסד": " מ\"מ בית חינוך  יער \" גבעת גונן\"", "_orig_lon": 35.1948, "_orig_lat": 31.7547, "_position_source": "moch_lot_landuse_xplan_any", "_lot_taba": "2001-05-06 00:00:00"}, "geometry": {"type": "Point", "coordinates": [35.194357294809095, 31.754384052137482]}}, {"type": "Feature", "properties": {"קוד סטטיסטי": "1314", "עד כיתה": "יב", "מכיתה": "ז", "הרכב מינים": "מעורב - כיתות מעורבות", "פיקוח": "ממלכתי", "שלב חינוך": "על יסודי", "סוג חינוך": "רגיל", "מעמד משפטי": "רשמי", "כיתות מקדמות": "3.0", "כיתות רגילות": 12.0, "מספר תלמידים": "336.0", "כתובת": "כט בנובמבר 13", "סמל חינוך": "641522.0", "סמל עירייה": "52550.0", "שם מוסד": "אדם תיכון"}, "geometry": {"type": "Point", "coordinates": [35.21643368020135, 31.76616419031158]}}, {"type": "Feature", "properties": {"קוד סטטיסטי": "1314", "עד כיתה": "יב", "מכיתה": "ז", "הרכב מינים": "מעורב - כיתות מעורבות", "פיקוח": "ממלכתי", "שלב חינוך": "על יסודי", "סוג חינוך": "מיוחד", "מעמד משפטי": "רשמי", "כיתות מקדמות": "15.0", "כיתות רגילות": null, "מספר תלמידים": "85.0", "כתובת": "כט בנובמבר 15", "סמל חינוך": "146878.0", "סמל עירייה": "31483.0", "שם מוסד": "בית הצייר", "_orig_lon": 35.2155446280236, "_orig_lat": 31.766138782848866, "_position_source": "moch_lot_yiud_karka_taba", "_lot_taba": "2878"}, "geometry": {"type": "Point", "coordinates": [35.216132600045164, 31.76623110179197]}}, {"type": "Feature", "properties": {"קוד סטטיסטי": "1314", "עד כיתה": "יב", "מכיתה": "ז", "הרכב מינים": "מעורב - כיתות מעורבות", "פיקוח": "ממלכתי", "שלב חינוך": "על יסודי", "סוג חינוך": "רגיל", "מעמד משפטי": "רשמי", "כיתות מקדמות": "3.0", "כיתות רגילות": 7.0, "מספר תלמידים": "182.0", "כתובת": "עמק רפאים 22", "סמל חינוך": "140046.0", "סמל עירייה": "51503.0", "שם מוסד": "בית חינוך", "_orig_lon": 35.22103835935171, "_orig_lat": 31.765172171664798, "_position_source": "moch_lot_yiud_karka_taba", "_lot_taba": "2878"}, "geometry": {"type": "Point", "coordinates": [35.21370141445291, 31.76365394858886]}}, {"type": "Feature", "properties": {"קוד סטטיסטי": "1346", "עד כיתה": "יב", "מכיתה": "ז", "הרכב מינים": "מעורב - כיתות מעורבות", "פיקוח": "ממלכתי", "שלב חינוך": "על יסודי", "סוג חינוך": "מיוחד", "מעמד משפטי": "רשמי", "כיתות מקדמות": "14.0", "כיתות רגילות": null, "מספר תלמידים": "79.0", "כתובת": "גנרל פייר קניג 14", "סמל חינוך": "120212.0", "סמל עירייה": "31464.0", "שם מוסד": "בית רחל שטראוס", "_orig_lon": 35.21390268996384, "_orig_lat": 31.75562238104176, "_position_source": "moch_lot_yiud_karka_any", "_lot_taba": "1718"}, "geometry": {"type": "Point", "coordinates": [35.21380389359196, 31.755773852587218]}}, {"type": "Feature", "properties": {"קוד סטטיסטי": "1335", "עד כיתה": "ו", "מכיתה": "א", "הרכב מינים": "מעורב - כיתות מעורבות", "פיקוח": "ממלכתי", "שלב חינוך": "יסודי", "סוג חינוך": "רגיל", "מעמד משפטי": "רשמי", "כיתות מקדמות": "5.0", "כיתות רגילות": 11.0, "מספר תלמידים": "295.0", "כתובת": "קבוץ גלויות 4", "סמל חינוך": "110171.0", "סמל עירייה": "21327.0", "שם מוסד": "גאולים -ממלכתי יהודי", "_orig_lon": 35.21866966742249, "_orig_lat": 31.756055239875643, "_position_source": "moch_lot_yiud_karka_taba", "_lot_taba": "3770"}, "geometry": {"type": "Point", "coordinates": [35.21859919161553, 31.755947990575365]}}, {"type": "Feature", "properties": {"קוד סטטיסטי": "1212", "עד כיתה": "יב", "מכיתה": "ז", "הרכב מינים": "מעורב - כיתות מעורבות", "פיקוח": "ממלכתי", "שלב חינוך": "על יסודי", "סוג חינוך": "רגיל", "מעמד משפטי": "רשמי", "כיתות מקדמות": "6.0", "כיתות רגילות": 12.0, "מספר תלמידים": "313.0", "כתובת": "רבי צדוק 12", "סמל חינוך": "140871.0", "סמל עירייה": "54025.0", "שם מוסד": "גבעת גונן", "_orig_lon": 35.1940945, "_orig_lat": 31.7549849, "_position_source": "moch_lot_yiud_karka_any", "_lot_taba": "2004-05-06 00:00:00"}, "geometry": {"type": "Point", "coordinates": [35.19425933956673, 31.7551875067965]}}, {"type": "Feature", "properties": {"קוד סטטיסטי": "1214", "עד כיתה": "יג", "מכיתה": "ט", "הרכב מינים": "מעורב - כיתות מעורבות", "פיקוח": "ממלכתי", "שלב חינוך": "על יסודי", "סוג חינוך": "רגיל", "מעמד משפטי": "מוכר שאינו רשמי", "כיתות מקדמות": "7.0", "כיתות רגילות": 7.0, "מספר תלמידים": "204.0", "כתובת": "יהודה הנשיא 26", "סמל חינוך": "140269.0", "סמל עירייה": "51511.0", "שם מוסד": "דנמרק-תיכון עירוני מקיף", "_orig_lon": 35.203670842380745, "_orig_lat": 31.754615939585992, "_position_source": "moch_lot_yiud_karka_taba", "_lot_taba": "1365"}, "geometry": {"type": "Point", "coordinates": [35.204044451839216, 31.75447684308311]}}, {"type": "Feature", "properties": {"קוד סטטיסטי": "1336", "עד כיתה": "יב", "מכיתה": "ז", "הרכב מינים": "מעורב - כיתות מעורבות", "פיקוח": "ממלכתי", "שלב חינוך": "על יסודי", "סוג חינוך": "רגיל", "מעמד משפטי": "רשמי", "כיתות מקדמות": "6.0", "כיתות רגילות": 15.0, "מספר תלמידים": "389.0", "כתובת": "ביתר 8", "סמל חינוך": "140962.0", "סמל עירייה": "51514.0", "שם מוסד": "המסורתי", "_orig_lon": 35.223603366518454, "_orig_lat": 31.75467311606657, "_position_source": "moch_lot_yiud_karka_any", "_lot_taba": "במ/2954ג"}, "geometry": {"type": "Point", "coordinates": [35.22343744492629, 31.754588162607764]}}, {"type": "Feature", "properties": {"קוד סטטיסטי": "1222", "עד כיתה": "יב", "מכיתה": "ז", "הרכב מינים": "מעורב - כיתות מעורבות", "פיקוח": "ממלכתי", "שלב חינוך": "על יסודי", "סוג חינוך": "רגיל", "מעמד משפטי": "רשמי", "כיתות מקדמות": null, "כיתות רגילות": 18.0, "מספר תלמידים": "500.0", "כתובת": "שד ש\"י עגנון 20", "סמל חינוך": "140095.0", "סמל עירייה": "51533.0", "שם מוסד": "חוות הנוער הציוני", "_orig_lon": 35.20396613119576, "_orig_lat": 31.761185592347307, "_position_source": "moch_lot_yiud_karka_taba", "_lot_taba": "1682"}, "geometry": {"type": "Point", "coordinates": [35.203767959434224, 31.76007200985284]}}, {"type": "Feature", "properties": {"קוד סטטיסטי": "1312", "עד כיתה": "יב", "מכיתה": "י", "הרכב מינים": "מעורב - כיתות מעורבות", "פיקוח": "ממלכתי", "שלב חינוך": "על יסודי", "סוג חינוך": "רגיל", "מעמד משפטי": "רשמי", "כיתות מקדמות": "2.0", "כיתות רגילות": 3.0, "מספר תלמידים": "48.0", "כתובת": "רחל אמנו 27", "סמל חינוך": "140046.0", "סמל עירייה": "51562.0", "שם מוסד": "ליפתא", "_orig_lon": 35.21374, "_orig_lat": 31.76373, "_position_source": "moch_lot_yiud_karka_taba", "_lot_taba": "2878"}, "geometry": {"type": "Point", "coordinates": [35.21370141445291, 31.76365394858886]}}, {"type": "Feature", "properties": {"קוד סטטיסטי": "1314", "עד כיתה": "ו", "מכיתה": "א", "הרכב מינים": "מעורב - כיתות מעורבות", "פיקוח": "ממלכתי", "שלב חינוך": "יסודי", "סוג חינוך": "רגיל", "מעמד משפטי": "רשמי", "כיתות מקדמות": null, "כיתות רגילות": 12.0, "מספר תלמידים": "339.0", "כתובת": "כט בנובמבר 13", "סמל חינוך": "114215.0", "סמל עירייה": "21405.0", "שם מוסד": "מ\"מ אדם", "_orig_lon": 35.2162, "_orig_lat": 31.7664, "_position_source": "moch_lot_yiud_karka_taba", "_lot_taba": "1175א"}, "geometry": {"type": "Point", "coordinates": [35.22033026480533, 31.765012076237422]}}, {"type": "Feature", "properties": {"קוד סטטיסטי": "1213", "עד כיתה": "ו", "מכיתה": "א", "הרכב מינים": "מעורב - כיתות מעורבות", "פיקוח": "ממלכתי", "שלב חינוך": "יסודי", "סוג חינוך": "רגיל", "מעמד משפטי": "רשמי", "כיתות מקדמות": null, "כיתות רגילות": 12.0, "מספר תלמידים": "266.0", "כתובת": "אריה בעהם  7", "סמל חינוך": "162594.0", "סמל עירייה": "21415.0", "שם מוסד": "מ\"מ דו לשוני (יהודי-ערבי)", "_orig_lon": 35.199652934610654, "_orig_lat": 31.750397509377613, "_position_source": "moch_lot_yiud_karka_any", "_lot_taba": "101-209593 101-209593"}, "geometry": {"type": "Point", "coordinates": [35.19964404011842, 31.750768289397655]}}, {"type": "Feature", "properties": {"קוד סטטיסטי": "1344", "עד כיתה": "ו", "מכיתה": "א", "הרכב מינים": "מעורב - כיתות מעורבות", "פיקוח": "ממלכתי", "שלב חינוך": "יסודי", "סוג חינוך": "רגיל", "מעמד משפטי": "רשמי", "כיתות מקדמות": "4.0", "כיתות רגילות": 13.0, "מספר תלמידים": "300.0", "כתובת": "דרך בית לחם 117", "סמל חינוך": "111112.0", "סמל עירייה": "21328.0", "שם מוסד": "מ\"מ זלמן ארן", "_orig_lon": 35.21696530136643, "_orig_lat": 31.748380836408643, "_position_source": "moch_lot_yiud_karka_any", "_lot_taba": "920 920"}, "geometry": {"type": "Point", "coordinates": [35.21734348804242, 31.748239042081174]}}, {"type": "Feature", "properties": {"קוד סטטיסטי": "1222", "עד כיתה": "ו", "מכיתה": "א", "הרכב מינים": "מעורב - כיתות מעורבות", "פיקוח": "ממלכתי", "שלב חינוך": "יסודי", "סוג חינוך": "רגיל", "מעמד משפטי": "רשמי", "כיתות מקדמות": "4.0", "כיתות רגילות": 11.0, "מספר תלמידים": "251.0", "כתובת": "הפלמח 79", "סמל חינוך": "110270.0", "סמל עירייה": "21342.0", "שם מוסד": "מ\"מ לוריא לאומנויות", "_orig_lon": 35.20462542993711, "_orig_lat": 31.763396715497468, "_position_source": "moch_lot_yiud_karka_any", "_lot_taba": "1097"}, "geometry": {"type": "Point", "coordinates": [35.204461183832045, 31.76274466141662]}}, {"type": "Feature", "properties": {"קוד סטטיסטי": "1312", "עד כיתה": "ו", "מכיתה": "א", "הרכב מינים": "מעורב - כיתות מעורבות", "פיקוח": "ממלכתי", "שלב חינוך": "יסודי", "סוג חינוך": "רגיל", "מעמד משפטי": "רשמי", "כיתות מקדמות": "3.0", "כיתות רגילות": 12.0, "מספר תלמידים": "300.0", "כתובת": "כט בנובמבר 6", "סמל חינוך": "110130.0", "סמל עירייה": "21348.0", "שם מוסד": "מ\"מ סאלד", "_orig_lon": 35.21562224470526, "_orig_lat": 31.766541493212408, "_position_source": "moch_lot_yiud_karka_taba", "_lot_taba": "2878"}, "geometry": {"type": "Point", "coordinates": [35.21546715807769, 31.766676104040457]}}, {"type": "Feature", "properties": {"קוד סטטיסטי": "1214", "עד כיתה": "ו", "מכיתה": "א", "הרכב מינים": "מעורב - כיתות מעורבות", "פיקוח": "ממלכתי", "שלב חינוך": "יסודי", "סוג חינוך": "רגיל", "מעמד משפטי": "רשמי", "כיתות מקדמות": "3.0", "כיתות רגילות": 12.0, "מספר תלמידים": "381.0", "כתובת": "אלכסנדריון 23", "סמל חינוך": "114389.0", "סמל עירייה": "21412.0", "שם מוסד": "מ\"מ קשת- בי\"ס משלב", "_orig_lon": 35.20377227301272, "_orig_lat": 31.753392493123513, "_position_source": "moch_lot_yiud_karka_any", "_lot_taba": "1365"}, "geometry": {"type": "Point", "coordinates": [35.204559217682174, 31.75301852869038]}}, {"type": "Feature", "properties": {"קוד סטטיסטי": "863", "עד כיתה": "ו", "מכיתה": "א", "הרכב מינים": "מעורב - כיתות מעורבות", "פיקוח": "ממלכתי", "שלב חינוך": "יסודי", "סוג חינוך": "רגיל", "מעמד משפטי": "רשמי", "כיתות מקדמות": "3.0", "כיתות רגילות": 17.0, "מספר תלמידים": "446.0", "כתובת": "דונש בן לברט 15", "סמל חינוך": "110205.0", "סמל עירייה": "21353.0", "שם מוסד": "מ\"מ רחביה ע\"ש פולה בן-גוריון", "_orig_lon": 35.20943791848522, "_orig_lat": 31.77130567405703, "_position_source": "moch_lot_yiud_karka_taba", "_lot_taba": "9988"}, "geometry": {"type": "Point", "coordinates": [35.20962300940452, 31.770831556038484]}}, {"type": "Feature", "properties": {"קוד סטטיסטי": "1335", "עד כיתה": "ח", "מכיתה": "א", "הרכב מינים": "מעורב - כיתות מעורבות", "פיקוח": "ממלכתי", "שלב חינוך": "יסודי", "סוג חינוך": "רגיל", "מעמד משפטי": "מוכר שאינו רשמי", "כיתות מקדמות": null, "כיתות רגילות": 8.0, "מספר תלמידים": "45.0", "כתובת": "ליפשיץ נחום 6", "סמל חינוך": "347757.0", "סמל עירייה": "21418.0", "שם מוסד": "מוכר הדמוקרטי", "_orig_lon": 35.217470416267034, "_orig_lat": 31.7556271623431, "_position_source": "moch_lot_yiud_karka_any", "_lot_taba": "3995"}, "geometry": {"type": "Point", "coordinates": [35.2127809569167, 31.75599300515951]}}, {"type": "Feature", "properties": {"קוד סטטיסטי": "1335", "עד כיתה": "יב", "מכיתה": "ט", "הרכב מינים": "מעורב - כיתות מעורבות", "פיקוח": "ממלכתי", "שלב חינוך": "על יסודי", "סוג חינוך": "רגיל", "מעמד משפטי": "מוכר שאינו רשמי", "כיתות מקדמות": null, "כיתות רגילות": 4.0, "מספר תלמידים": "30.0", "כתובת": "ליפשיץ נחום 6", "סמל חינוך": "347757.0", "סמל עירייה": "51529.0", "שם מוסד": "סאדברי ירושלים", "_orig_lon": 35.21741076172462, "_orig_lat": 31.75567304770456, "_position_source": "moch_lot_yiud_karka_any", "_lot_taba": "3995"}, "geometry": {"type": "Point", "coordinates": [35.2127809569167, 31.75599300515951]}}, {"type": "Feature", "properties": {"קוד סטטיסטי": "1214", "עד כיתה": "יג", "מכיתה": "ט", "הרכב מינים": "מעורב - כיתות מעורבות", "פיקוח": "ממלכתי", "שלב חינוך": "על יסודי", "סוג חינוך": "רגיל", "מעמד משפטי": "מוכר שאינו רשמי", "כיתות מקדמות": "5.0", "כיתות רגילות": 4.0, "מספר תלמידים": "110.0", "כתובת": "טוביה 3", "סמל חינוך": "170175.0", "סמל עירייה": "51515.0", "שם מוסד": "עמל ע\"ש ליידי דיוויס", "_orig_lon": 35.203205494032986, "_orig_lat": 31.754447712171487, "_position_source": "moch_lot_landuse_xplan_any", "_lot_taba": "1042"}, "geometry": {"type": "Point", "coordinates": [35.20851904535361, 31.77962685043328]}}, {"type": "Feature", "properties": {"קוד סטטיסטי": "1212", "עד כיתה": "יב", "מכיתה": "ז", "הרכב מינים": "בנות", "פיקוח": "ממלכתי", "שלב חינוך": "על יסודי", "סוג חינוך": "רגיל", "מעמד משפטי": "מוכר שאינו רשמי", "כיתות מקדמות": "3.0", "כיתות רגילות": 8.0, "מספר תלמידים": "166.0", "כתובת": "רבי צדוק 6", "סמל חינוך": "661637.0", "סמל עירייה": "51597.0", "שם מוסד": "ענבר"}, "geometry": {"type": "Point", "coordinates": [35.194, 31.7543]}}, {"type": "Feature", "properties": {"קוד סטטיסטי": "1211", "עד כיתה": "יב", "מכיתה": "ז", "הרכב מינים": "מעורב - כיתות מעורבות", "פיקוח": "ממלכתי", "שלב חינוך": "על יסודי", "סוג חינוך": "רגיל", "מעמד משפטי": "רשמי", "כיתות מקדמות": null, "כיתות רגילות": 6.0, "מספר תלמידים": "129.0", "כתובת": "בר יוחאי 5", "סמל חינוך": "144592.0", "סמל עירייה": "52527.0", "שם מוסד": "קדמה", "_orig_lon": 35.198068805308495, "_orig_lat": 31.753631929657868, "_position_source": "moch_lot_yiud_karka_any", "_lot_taba": "2004-05-06 00:00:00"}, "geometry": {"type": "Point", "coordinates": [35.19842826636122, 31.752475911304728]}}, {"type": "Feature", "properties": {"קוד סטטיסטי": "1214", "עד כיתה": "יב", "מכיתה": "ז", "הרכב מינים": "מעורב - כיתות מעורבות", "פיקוח": "ממלכתי", "שלב חינוך": "על יסודי", "סוג חינוך": "רגיל", "מעמד משפטי": "רשמי", "כיתות מקדמות": "8.0", "כיתות רגילות": 12.0, "מספר תלמידים": "390.0", "כתובת": "אלכסנדריון 23", "סמל חינוך": "160242.0", "סמל עירייה": "51527.0", "שם מוסד": "קשת", "_orig_lon": 35.20417795858989, "_orig_lat": 31.753061144168573, "_position_source": "moch_lot_yiud_karka_any", "_lot_taba": "1365"}, "geometry": {"type": "Point", "coordinates": [35.204559217682174, 31.75301852869038]}}, {"type": "Feature", "properties": {"קוד סטטיסטי": "1213", "עד כיתה": "יב", "מכיתה": "ז", "הרכב מינים": "מעורב - כיתות מעורבות", "פיקוח": "ממלכתי", "שלב חינוך": "על יסודי", "סוג חינוך": "רגיל", "מעמד משפטי": "מוכר שאינו רשמי", "כיתות מקדמות": null, "כיתות רגילות": 11.0, "מספר תלמידים": "249.0", "כתובת": "אריה בעהם  7", "סמל חינוך": "346494.0", "סמל עירייה": "52532.0", "שם מוסד": "תיכון יד ביד", "_orig_lon": 35.199447079573375, "_orig_lat": 31.751080593149123, "_position_source": "moch_lot_yiud_karka_any", "_lot_taba": "101-209593 101-209593"}, "geometry": {"type": "Point", "coordinates": [35.19964404011842, 31.750768289397655]}}, {"type": "Feature", "properties": {"קוד סטטיסטי": "1321", "עד כיתה": "יב", "מכיתה": "ז", "הרכב מינים": "מעורב - כיתות מעורבות", "פיקוח": "ממלכתי", "שלב חינוך": "על יסודי", "סוג חינוך": "רגיל", "מעמד משפטי": "מוכר שאינו רשמי", "כיתות מקדמות": "11.0", "כיתות רגילות": 22.0, "מספר תלמידים": "627.0", "כתובת": "יצחק אלחנן 3", "סמל חינוך": "140806.0", "סמל עירייה": "51517.0", "שם מוסד": "תיכון לאומנויות", "_orig_lon": 35.2219836, "_orig_lat": 31.7698105, "_position_source": "moch_lot_landuse_xplan_any", "_lot_taba": "62"}, "geometry": {"type": "Point", "coordinates": [35.20851904535361, 31.77962685043328]}}, {"type": "Feature", "properties": {"קוד סטטיסטי": "1211", "עד כיתה": "יד", "מכיתה": "ז", "הרכב מינים": "בנים", "פיקוח": "ממלכתי דתי", "שלב חינוך": "על יסודי", "סוג חינוך": "רגיל", "מעמד משפטי": "רשמי", "כיתות מקדמות": "5.0", "כיתות רגילות": 18.0, "מספר תלמידים": "535.0", "כתובת": "דב יוסף 2", "סמל חינוך": "170514.0", "סמל עירייה": "54039.0", "שם מוסד": "אורט פלך בנים", "_orig_lon": 35.19843575510826, "_orig_lat": 31.752964149104727, "_position_source": "moch_lot_landuse_xplan_any", "_lot_taba": "2004-05-06 00:00:00"}, "geometry": {"type": "Point", "coordinates": [35.19817656182694, 31.753340196230553]}}, {"type": "Feature", "properties": {"קוד סטטיסטי": "1343", "עד כיתה": "ה", "מכיתה": "א", "הרכב מינים": "מעורב - כיתות מעורבות", "פיקוח": "ממלכתי דתי", "שלב חינוך": "יסודי", "סוג חינוך": "רגיל", "מעמד משפטי": "רשמי", "כיתות מקדמות": "1.0", "כיתות רגילות": 10.0, "מספר תלמידים": "288.0", "כתובת": "השופט חיים כהן 16", "סמל חינוך": "647552.0", "סמל עירייה": "22435.0", "שם מוסד": "בית חינוך  יסודי ארנונה"}, "geometry": {"type": "Point", "coordinates": [35.2185, 31.7443]}}, {"type": "Feature", "properties": {"קוד סטטיסטי": "1333", "עד כיתה": "יב", "מכיתה": "ז", "הרכב מינים": "בנים", "פיקוח": "ממלכתי דתי", "שלב חינוך": "על יסודי", "סוג חינוך": "מיוחד", "מעמד משפטי": "רשמי", "כיתות מקדמות": "9.0", "כיתות רגילות": null, "מספר תלמידים": "54.0", "כתובת": "גדעון 14", "סמל חינוך": "641670.0", "סמל עירייה": "33493.0", "שם מוסד": "גורן"}, "geometry": {"type": "Point", "coordinates": [35.2201, 31.7602]}}, {"type": "Feature", "properties": {"קוד סטטיסטי": "1314", "עד כיתה": "יב", "מכיתה": "ז", "הרכב מינים": "בנים", "פיקוח": "ממלכתי דתי", "שלב חינוך": "על יסודי", "סוג חינוך": "רגיל", "מעמד משפטי": "רשמי", "כיתות מקדמות": "6.0", "כיתות רגילות": 17.0, "מספר תלמידים": "520.0", "כתובת": "קליין 7", "סמל חינוך": "144220.0", "סמל עירייה": "59719.0", "שם מוסד": "הרטמן"}, "geometry": {"type": "Point", "coordinates": [35.217656926780116, 31.766571883634665]}}, {"type": "Feature", "properties": {"קוד סטטיסטי": "1215", "עד כיתה": "יב", "מכיתה": "ז", "הרכב מינים": "בנות", "פיקוח": "ממלכתי דתי", "שלב חינוך": "על יסודי", "סוג חינוך": "רגיל", "מעמד משפטי": "רשמי", "כיתות מקדמות": "2.0", "כיתות רגילות": 16.0, "מספר תלמידים": "451.0", "כתובת": "רבן יוחנן בן זכאי 33", "סמל חינוך": "141390.0", "סמל עירייה": "52522.0", "שם מוסד": "מדרשייה עלמא אמונה", "_orig_lon": 35.20736392408712, "_orig_lat": 31.75799058023683, "_position_source": "moch_lot_yiud_karka_any", "_lot_taba": "62"}, "geometry": {"type": "Point", "coordinates": [35.207212200617214, 31.75752645295582]}}, {"type": "Feature", "properties": {"קוד סטטיסטי": "1312", "עד כיתה": "יב", "מכיתה": "ז", "הרכב מינים": "בנות", "פיקוח": "ממלכתי דתי", "שלב חינוך": "על יסודי", "סוג חינוך": "רגיל", "מעמד משפטי": "רשמי", "כיתות מקדמות": "2.0", "כיתות רגילות": 13.0, "מספר תלמידים": "394.0", "כתובת": "רחל אמנו 18", "סמל חינוך": "442855.0", "סמל עירייה": "52534.0", "שם מוסד": "מדרשיית הרטמן לבנות", "_orig_lon": 35.21516249654043, "_orig_lat": 31.763911126549413, "_position_source": "moch_lot_yiud_karka_taba", "_lot_taba": "2878"}, "geometry": {"type": "Point", "coordinates": [35.21482686117393, 31.764022048678505]}}, {"type": "Feature", "properties": {"קוד סטטיסטי": "1212", "עד כיתה": "יב", "מכיתה": "ז", "הרכב מינים": "בנות", "פיקוח": "ממלכתי דתי", "שלב חינוך": "על יסודי", "סוג חינוך": "רגיל", "מעמד משפטי": "מוכר שאינו רשמי", "כיתות מקדמות": "1.0", "כיתות רגילות": 4.0, "מספר תלמידים": "107.0", "כתובת": "מרגולין 3", "סמל חינוך": "770727.0", "סמל עירייה": "59658.0", "שם מוסד": "מדרשיית עורי", "_orig_lon": 35.1942, "_orig_lat": 31.7544, "_position_source": "moch_lot_landuse_xplan_any", "_lot_taba": "2009-05-27 00:00:00"}, "geometry": {"type": "Point", "coordinates": [35.20851904535361, 31.77962685043328]}}, {"type": "Feature", "properties": {"קוד סטטיסטי": "1344", "עד כיתה": "ח", "מכיתה": "א", "הרכב מינים": "בנות", "פיקוח": "ממלכתי דתי", "שלב חינוך": "יסודי", "סוג חינוך": "רגיל", "מעמד משפטי": "רשמי", "כיתות מקדמות": "2.0", "כיתות רגילות": 9.0, "מספר תלמידים": "228.0", "כתובת": "דרך חברון 132", "סמל חינוך": "246041.0", "סמל עירייה": "22403.0", "שם מוסד": "ממ\"ד אהבת ישראל- בנות", "_orig_lon": 35.21792887296132, "_orig_lat": 31.749219309290844, "_position_source": "moch_lot_yiud_karka_any", "_lot_taba": "920"}, "geometry": {"type": "Point", "coordinates": [35.21786149679079, 31.748887794211726]}}, {"type": "Feature", "properties": {"קוד סטטיסטי": "863", "עד כיתה": "ו", "מכיתה": "א", "הרכב מינים": "בנות", "פיקוח": "ממלכתי דתי", "שלב חינוך": "יסודי", "סוג חינוך": "רגיל", "מעמד משפטי": "רשמי", "כיתות מקדמות": "2.0", "כיתות רגילות": 14.0, "מספר תלמידים": "385.0", "כתובת": "דונש בן לברט 15", "סמל חינוך": "110619.0", "סמל עירייה": "22402.0", "שם מוסד": "ממ\"ד אוולינה דה רוטשילד", "_orig_lon": 35.209712346230454, "_orig_lat": 31.77027593104676, "_position_source": "moch_lot_yiud_karka_taba", "_lot_taba": "9988"}, "geometry": {"type": "Point", "coordinates": [35.20962300940452, 31.770831556038484]}}, {"type": "Feature", "properties": {"קוד סטטיסטי": "1335", "עד כיתה": "ו", "מכיתה": "א", "הרכב מינים": "מעורב - כיתות מעורבות", "פיקוח": "ממלכתי דתי", "שלב חינוך": "יסודי", "סוג חינוך": "רגיל", "מעמד משפטי": "רשמי", "כיתות מקדמות": "8.0", "כיתות רגילות": 18.0, "מספר תלמידים": "535.0", "כתובת": "יהודה 31", "סמל חינוך": "112227.0", "סמל עירייה": "22385.0", "שם מוסד": "ממ\"ד אפרתה", "_orig_lon": 35.2176, "_orig_lat": 31.7574, "_position_source": "moch_lot_yiud_karka_taba", "_lot_taba": "3770"}, "geometry": {"type": "Point", "coordinates": [35.21762915827161, 31.757251021491243]}}, {"type": "Feature", "properties": {"קוד סטטיסטי": "1217", "עד כיתה": "ו", "מכיתה": "א", "הרכב מינים": "מעורב - כיתות מעורבות", "פיקוח": "ממלכתי דתי", "שלב חינוך": "יסודי", "סוג חינוך": "רגיל", "מעמד משפטי": "רשמי", "כיתות מקדמות": "1.0", "כיתות רגילות": 21.0, "מספר תלמידים": "620.0", "כתובת": "הורקניה 21", "סמל חינוך": "436725.0", "סמל עירייה": "22421.0", "שם מוסד": "ממ\"ד גוננים", "_orig_lon": 35.20144245193298, "_orig_lat": 31.757065349690162, "_position_source": "moch_lot_yiud_karka_taba", "_lot_taba": "1104"}, "geometry": {"type": "Point", "coordinates": [35.201538646962575, 31.758079842856308]}}, {"type": "Feature", "properties": {"קוד סטטיסטי": "1312", "עד כיתה": "ו", "מכיתה": "א", "הרכב מינים": "בנות", "פיקוח": "ממלכתי דתי", "שלב חינוך": "יסודי", "סוג חינוך": "רגיל", "מעמד משפטי": "רשמי", "כיתות מקדמות": null, "כיתות רגילות": 12.0, "מספר תלמידים": "304.0", "כתובת": "בוסתנאי 10", "סמל חינוך": "447466.0", "סמל עירייה": "23476.0", "שם מוסד": "ממ\"ד חורב בנות"}, "geometry": {"type": "Point", "coordinates": [35.21290727739957, 31.7657260739481]}}, {"type": "Feature", "properties": {"קוד סטטיסטי": "1312", "עד כיתה": "ו", "מכיתה": "א", "הרכב מינים": "בנים", "פיקוח": "ממלכתי דתי", "שלב חינוך": "יסודי", "סוג חינוך": "רגיל", "מעמד משפטי": "רשמי", "כיתות מקדמות": "2.0", "כיתות רגילות": 12.0, "מספר תלמידים": "338.0", "כתובת": "כובשי קטמון 15", "סמל חינוך": "430884.0", "סמל עירייה": "23436.0", "שם מוסד": "ממ\"ד חורב בנים", "_orig_lon": 35.21210173347439, "_orig_lat": 31.765323408036483, "_position_source": "moch_lot_yiud_karka_any", "_lot_taba": "1514"}, "geometry": {"type": "Point", "coordinates": [35.2120506146132, 31.76518995113875]}}, {"type": "Feature", "properties": {"קוד סטטיסטי": "1314", "עד כיתה": "ו", "מכיתה": "א", "הרכב מינים": "מעורב - כיתות נפרדות", "פיקוח": "ממלכתי דתי", "שלב חינוך": "יסודי", "סוג חינוך": "רגיל", "מעמד משפטי": "רשמי", "כיתות מקדמות": "3.0", "כיתות רגילות": 13.0, "מספר תלמידים": "366.0", "כתובת": "הצפירה 29", "סמל חינוך": "110452.0", "סמל עירייה": "22383.0", "שם מוסד": "ממ\"ד יהודה-הלוי", "_orig_lon": 35.214953785620445, "_orig_lat": 31.76497656069984, "_position_source": "moch_lot_yiud_karka_taba", "_lot_taba": "2878"}, "geometry": {"type": "Point", "coordinates": [35.21506756859184, 31.7650955818186]}}, {"type": "Feature", "properties": {"קוד סטטיסטי": "1216", "עד כיתה": "ה", "מכיתה": "א", "הרכב מינים": "מעורב - כיתות מעורבות", "פיקוח": "ממלכתי דתי", "שלב חינוך": "יסודי", "סוג חינוך": "רגיל", "מעמד משפטי": "רשמי", "כיתות מקדמות": "1.0", "כיתות רגילות": 13.0, "מספר תלמידים": "319.0", "כתובת": "אלעזר המודעי 17", "סמל חינוך": "647578.0", "סמל עירייה": "22433.0", "שם מוסד": "ממ\"ד יונתן זקס חוקר ויוצר"}, "geometry": {"type": "Point", "coordinates": [35.2134149, 31.7622301]}}, {"type": "Feature", "properties": {"קוד סטטיסטי": "1214", "עד כיתה": "ו", "מכיתה": "א", "הרכב מינים": "מעורב - כיתות מעורבות", "פיקוח": "ממלכתי דתי", "שלב חינוך": "יסודי", "סוג חינוך": "רגיל", "מעמד משפטי": "רשמי", "כיתות מקדמות": null, "כיתות רגילות": 13.0, "מספר תלמידים": "318.0", "כתובת": "אליעזר הגדול 4", "סמל חינוך": "616920.0", "סמל עירייה": "22427.0", "שם מוסד": "ממ\"ד פלא"}, "geometry": {"type": "Point", "coordinates": [35.2042, 31.7538]}}, {"type": "Feature", "properties": {"קוד סטטיסטי": "1321", "עד כיתה": "ג", "מכיתה": "א", "הרכב מינים": "מעורב - כיתות מעורבות", "פיקוח": "ממלכתי דתי", "שלב חינוך": "יסודי", "סוג חינוך": "רגיל", "מעמד משפטי": "רשמי", "כיתות מקדמות": null, "כיתות רגילות": 3.0, "מספר תלמידים": "82.0", "כתובת": "זאב ז'בוטינסקי 33", "סמל חינוך": "177071.0", "סמל עירייה": "22436.0", "שם מוסד": "ממ\"ד שובך"}, "geometry": {"type": "Point", "coordinates": [35.21787535165371, 31.770960966554608]}}, {"type": "Feature", "properties": {"קוד סטטיסטי": "1346", "עד כיתה": "ו", "מכיתה": "א", "הרכב מינים": "מעורב - כיתות נפרדות", "פיקוח": "ממלכתי דתי", "שלב חינוך": "יסודי", "סוג חינוך": "רגיל", "מעמד משפטי": "רשמי", "כיתות מקדמות": "2.0", "כיתות רגילות": 16.0, "מספר תלמידים": "410.0", "כתובת": "גנרל פייר קניג 16", "סמל חינוך": "113399.0", "סמל עירייה": "22413.0", "שם מוסד": "ממ\"ד תורני מקור חיים", "_orig_lon": 35.21479166682597, "_orig_lat": 31.755877196269463, "_position_source": "moch_lot_yiud_karka_any", "_lot_taba": "1718"}, "geometry": {"type": "Point", "coordinates": [35.21380389359196, 31.755773852587218]}}, {"type": "Feature", "properties": {"קוד סטטיסטי": "1335", "עד כיתה": "יב", "מכיתה": "ז", "הרכב מינים": "בנות", "פיקוח": "ממלכתי דתי", "שלב חינוך": "על יסודי", "סוג חינוך": "רגיל", "מעמד משפטי": "מוכר שאינו רשמי", "כיתות מקדמות": "3.0", "כיתות רגילות": 18.0, "מספר תלמידים": "556.0", "כתובת": "יהודה 31", "סמל חינוך": "140236.0", "סמל עירייה": "52511.0", "שם מוסד": "פלך - תורני ניסויי לבנות", "_orig_lon": 35.21702317784736, "_orig_lat": 31.757238078726996, "_position_source": "moch_lot_yiud_karka_taba", "_lot_taba": "3770"}, "geometry": {"type": "Point", "coordinates": [35.21762915827161, 31.757251021491243]}}, {"type": "Feature", "properties": {"קוד סטטיסטי": "1214", "עד כיתה": "יב", "מכיתה": "ז", "הרכב מינים": "מעורב - כיתות נפרדות", "פיקוח": "ממלכתי דתי", "שלב חינוך": "על יסודי", "סוג חינוך": "רגיל", "מעמד משפטי": "מוכר שאינו רשמי", "כיתות מקדמות": "3.0", "כיתות רגילות": 11.0, "מספר תלמידים": "240.0", "כתובת": "אליעזר הגדול 4", "סמל חינוך": "170043.0", "סמל עירייה": "52515.0", "שם מוסד": "שחרית -תיכון ניסויי דתי ברוח הייטק היי (דרור)", "_orig_lon": 35.20439273222684, "_orig_lat": 31.754452815348937, "_position_source": "moch_lot_landuse_xplan_any", "_lot_taba": "62"}, "geometry": {"type": "Point", "coordinates": [35.20851904535361, 31.77962685043328]}}, {"type": "Feature", "properties": {"קוד סטטיסטי": "1343", "עד כיתה": "ו", "מכיתה": "א", "הרכב מינים": "מעורב - כיתות מעורבות", "פיקוח": "ממלכתי דתי", "שלב חינוך": "יסודי", "סוג חינוך": "מיוחד", "מעמד משפטי": "רשמי", "כיתות מקדמות": "20.0", "כיתות רגילות": null, "מספר תלמידים": "163.0", "כתובת": "השופט חיים כהן 20", "סמל חינוך": "120444.0", "סמל עירייה": "32483.0", "שם מוסד": "תדהר", "_orig_lon": 35.219258525079304, "_orig_lat": 31.74486572412665, "_position_source": "moch_lot_yiud_karka_any", "_lot_taba": "ג1784"}, "geometry": {"type": "Point", "coordinates": [35.20654503445352, 31.75506465410047]}}, {"type": "Feature", "properties": {"קוד סטטיסטי": "1345", "עד כיתה": "יב", "מכיתה": "ז", "הרכב מינים": "בנים", "פיקוח": "ממלכתי דתי", "שלב חינוך": "על יסודי", "סוג חינוך": "רגיל", "מעמד משפטי": "רשמי", "כיתות מקדמות": null, "כיתות רגילות": 2.0, "מספר תלמידים": "57.0", "כתובת": "יעקב בן דב 1", "סמל חינוך": "682351.0", "סמל עירייה": "44551.0", "שם מוסד": "תיכון תורני \"מסע\"- התיכון הצומח החדש"}, "geometry": {"type": "Point", "coordinates": [35.2133, 31.7547]}}, {"type": "Feature", "properties": {"קוד סטטיסטי": "2911", "עד כיתה": "יב", "מכיתה": "ז", "הרכב מינים": "מעורב - כיתות מעורבות", "פיקוח": "ערבי", "שלב חינוך": "על יסודי", "סוג חינוך": "מיוחד", "מעמד משפטי": "רשמי", "כיתות מקדמות": "19.0", "כיתות רגילות": null, "מספר תלמידים": "250.0", "כתובת": "אל טואל 38", "סמל חינוך": "195404.0", "סמל עירייה": "71939.0", "שם מוסד": "אל סלאם", "_orig_lon": 35.2037, "_orig_lat": 31.7443, "_position_source": "moch_lot_yiud_karka_taba", "_lot_taba": "1760"}, "geometry": {"type": "Point", "coordinates": [35.20476628726588, 31.7436418603674]}}, {"type": "Feature", "properties": {"קוד סטטיסטי": "2911", "עד כיתה": "ח", "מכיתה": "א", "הרכב מינים": "מעורב - כיתות נפרדות", "פיקוח": "ערבי", "שלב חינוך": "יסודי", "סוג חינוך": "רגיל", "מעמד משפטי": "רשמי", "כיתות מקדמות": null, "כיתות רגילות": 16.0, "מספר תלמידים": "400.0", "כתובת": "אל טואל 20", "סמל חינוך": "634840.0", "סמל עירייה": "70983.0", "שם מוסד": "אלחיואר יסודי"}, "geometry": {"type": "Point", "coordinates": [35.2034, 31.7438]}}, {"type": "Feature", "properties": {"קוד סטטיסטי": "1222", "עד כיתה": "ח", "מכיתה": "א", "הרכב מינים": "מעורב - כיתות מעורבות", "פיקוח": "ערבי", "שלב חינוך": "יסודי", "סוג חינוך": "רגיל", "מעמד משפטי": "מוכר שאינו רשמי", "כיתות מקדמות": null, "כיתות רגילות": 8.0, "מספר תלמידים": "72.0", "כתובת": "שד ש\"י עגנון 20", "סמל חינוך": "645986.0", "סמל עירייה": "70872.0", "שם מוסד": "בית הספר האמריקאי יר"}, "geometry": {"type": "Point", "coordinates": [35.20509676653063, 31.760194090278596]}}, {"type": "Feature", "properties": {"קוד סטטיסטי": "2911", "עד כיתה": "ו", "מכיתה": "א", "הרכב מינים": "מעורב - כיתות מעורבות", "פיקוח": "ערבי", "שלב חינוך": "יסודי", "סוג חינוך": "רגיל", "מעמד משפטי": "רשמי", "כיתות מקדמות": "3.0", "כיתות רגילות": 23.0, "מספר תלמידים": "676.0", "כתובת": "אל וועד 15", "סמל חינוך": "359828.0", "סמל עירייה": "70844.0", "שם מוסד": "בית צפאפא יסודי  ב", "_orig_lon": 35.2051, "_orig_lat": 31.7468, "_position_source": "moch_lot_yiud_karka_any", "_lot_taba": "2317"}, "geometry": {"type": "Point", "coordinates": [35.20156862678064, 31.745736163812623]}}, {"type": "Feature", "properties": {"קוד סטטיסטי": "2911", "עד כיתה": "ו", "מכיתה": "א", "הרכב מינים": "מעורב - כיתות נפרדות", "פיקוח": "ערבי", "שלב חינוך": "יסודי", "סוג חינוך": "רגיל", "מעמד משפטי": "רשמי", "כיתות מקדמות": "3.0", "כיתות רגילות": 20.0, "מספר תלמידים": "585.0", "כתובת": "אל בראעם 35", "סמל חינוך": "118091.0", "סמל עירייה": "70908.0", "שם מוסד": "בית צפאפא יסודי א", "_orig_lon": 35.2052, "_orig_lat": 31.7404, "_position_source": "moch_lot_yiud_karka_any", "_lot_taba": "מק/14295"}, "geometry": {"type": "Point", "coordinates": [35.205441780102895, 31.74002939276942]}}, {"type": "Feature", "properties": {"קוד סטטיסטי": "2911", "עד כיתה": "יב", "מכיתה": "ז", "הרכב מינים": "מעורב - כיתות נפרדות", "פיקוח": "ערבי", "שלב חינוך": "על יסודי", "סוג חינוך": "רגיל", "מעמד משפטי": "רשמי", "כיתות מקדמות": "8.0", "כיתות רגילות": 40.0, "מספר תלמידים": "1174.0", "כתובת": "אל מדרסה אל ג'דידה 24", "סמל חינוך": "148056.0", "סמל עירייה": "70944.0", "שם מוסד": "מקיף בית צפאפא", "_orig_lon": 35.2053, "_orig_lat": 31.744, "_position_source": "moch_lot_yiud_karka_taba", "_lot_taba": "1760"}, "geometry": {"type": "Point", "coordinates": [35.20476628726588, 31.7436418603674]}}, {"type": "Feature", "properties": {"קוד סטטיסטי": null, "עד כיתה": null, "מכיתה": null, "הרכב מינים": "", "פיקוח": "ממלכתי", "שלב חינוך": "יסודי", "סוג חינוך": "גני", "מעמד משפטי": "רשמי", "כיתות מקדמות": null, "כיתות רגילות": 4.0, "מספר תלמידים": null, "כתובת": "בן דוסא 1", "סמל חינוך": null, "סמל עירייה": null, "שם מוסד": "4 גנ\"י חינוך רגיל בשכונת גונן - פת"}, "geometry": {"type": "Point", "coordinates": [35.2048252533986, 31.751185190978205]}}, {"type": "Feature", "properties": {"קוד סטטיסטי": null, "עד כיתה": null, "מכיתה": null, "הרכב מינים": "", "פיקוח": "ממלכתי", "שלב חינוך": "יסודי", "סוג חינוך": "גני", "מעמד משפטי": "רשמי", "כיתות מקדמות": null, "כיתות רגילות": 4.0, "מספר תלמידים": null, "כתובת": "בן דוסא 1", "סמל חינוך": null, "סמל עירייה": null, "שם מוסד": "4 גנ\"י חינוך מיוחד בשכונת גונן - פת"}, "geometry": {"type": "Point", "coordinates": [35.2049, 31.751]}}, {"type": "Feature", "properties": {"קוד סטטיסטי": null, "עד כיתה": null, "מכיתה": null, "הרכב מינים": "", "פיקוח": "ערבי", "שלב חינוך": "יסודי", "סוג חינוך": "ביהס", "מעמד משפטי": "רשמי", "כיתות מקדמות": null, "כיתות רגילות": 9.0, "מספר תלמידים": null, "כתובת": "רבעה אל עדוויה 75", "סמל חינוך": null, "סמל עירייה": null, "שם מוסד": "בי\"ס א-טור מכין לבנות"}, "geometry": {"type": "Point", "coordinates": [35.2472, 31.781]}}, {"type": "Feature", "properties": {"קוד סטטיסטי": null, "עד כיתה": null, "מכיתה": null, "הרכב מינים": "", "פיקוח": "ממלכתי דתי", "שלב חינוך": "יסודי", "סוג חינוך": "ביהס", "מעמד משפטי": "רשמי", "כיתות מקדמות": null, "כיתות רגילות": 6.0, "מספר תלמידים": null, "כתובת": "תורה ועבודה 6", "סמל חינוך": null, "סמל עירייה": null, "שם מוסד": "בי\"ס ממ\"ד הימלפרב, השלמה ל-24"}, "geometry": {"type": "Point", "coordinates": [35.1813517, 31.7673343]}}, {"type": "Feature", "properties": {"קוד סטטיסטי": null, "עד כיתה": null, "מכיתה": null, "הרכב מינים": "", "פיקוח": "ממלכתי", "שלב חינוך": "יסודי", "סוג חינוך": "ביהס", "מעמד משפטי": "רשמי", "כיתות מקדמות": null, "כיתות רגילות": 12.0, "מספר תלמידים": null, "כתובת": "אליהו לינקין 18", "סמל חינוך": null, "סמל עירייה": null, "שם מוסד": "בי\"ס יסודי לחינוך מיוחד ארזים"}, "geometry": {"type": "Point", "coordinates": [35.2267792, 31.7500159]}}, {"type": "Feature", "properties": {"קוד סטטיסטי": null, "עד כיתה": null, "מכיתה": null, "הרכב מינים": "", "פיקוח": "ערבי", "שלב חינוך": "על יסודי", "סוג חינוך": "ביהס", "מעמד משפטי": "רשמי", "כיתות מקדמות": null, "כיתות רגילות": 18.0, "מספר תלמידים": null, "כתובת": "אלנהדה 48 בית צפאפא", "סמל חינוך": null, "סמל עירייה": null, "שם מוסד": "בית צפאפא תיכון"}, "geometry": {"type": "Point", "coordinates": [35.2056, 31.7444]}}, {"type": "Feature", "properties": {"קוד סטטיסטי": null, "עד כיתה": null, "מכיתה": null, "הרכב מינים": "", "פיקוח": "ממלכתי", "שלב חינוך": "יסודי", "סוג חינוך": "גני", "מעמד משפטי": "רשמי", "כיתות מקדמות": null, "כיתות רגילות": 3.0, "מספר תלמידים": null, "כתובת": "ליפשיץ 5", "סמל חינוך": null, "סמל עירייה": null, "שם מוסד": "3 גנ\"י בקעה (ליפשיץ)"}, "geometry": {"type": "Point", "coordinates": [35.21648247350403, 31.756918317940176]}}, {"type": "Feature", "properties": {"קוד סטטיסטי": null, "עד כיתה": null, "מכיתה": null, "הרכב מינים": "", "פיקוח": "ממלכתי", "שלב חינוך": "יסודי", "סוג חינוך": "גני", "מעמד משפטי": "רשמי", "כיתות מקדמות": null, "כיתות רגילות": 2.0, "מספר תלמידים": null, "כתובת": "וולטר אבלס 3", "סמל חינוך": null, "סמל עירייה": null, "שם מוסד": "2 גנ\"י תלפיות ארנונה (וולטר אבלס)"}, "geometry": {"type": "Point", "coordinates": [35.22181112515623, 31.75364167702222]}}, {"type": "Feature", "properties": {"קוד סטטיסטי": null, "עד כיתה": null, "מכיתה": null, "הרכב מינים": "", "פיקוח": "ממלכתי", "שלב חינוך": "יסודי", "סוג חינוך": "גני", "מעמד משפטי": "רשמי", "כיתות מקדמות": null, "כיתות רגילות": 2.0, "מספר תלמידים": null, "כתובת": "כצנלסון 3", "סמל חינוך": null, "סמל עירייה": null, "שם מוסד": "2 גנ\"י גונן   (כצנלסון)"}, "geometry": {"type": "Point", "coordinates": [35.202515321428024, 31.762398876221717]}}, {"type": "Feature", "properties": {"קוד סטטיסטי": null, "עד כיתה": null, "מכיתה": null, "הרכב מינים": "", "פיקוח": "ממלכתי", "שלב חינוך": "יסודי", "סוג חינוך": "ביהס", "מעמד משפטי": "רשמי", "כיתות מקדמות": null, "כיתות רגילות": 13.0, "מספר תלמידים": null, "כתובת": "הרב אטון 2", "סמל חינוך": null, "סמל עירייה": null, "שם מוסד": "הרחבת ישיבת חורב"}, "geometry": {"type": "Point", "coordinates": [35.2157, 31.8005]}}, {"type": "Feature", "properties": {"קוד סטטיסטי": null, "עד כיתה": null, "מכיתה": null, "הרכב מינים": "", "פיקוח": "ממלכתי", "שלב חינוך": "על יסודי", "סוג חינוך": "ביהס", "מעמד משפטי": "רשמי", "כיתות מקדמות": null, "כיתות רגילות": 18.0, "מספר תלמידים": null, "כתובת": "תורה ועבודה", "סמל חינוך": null, "סמל עירייה": null, "שם מוסד": "על יסודי חדש- בית וגן"}, "geometry": {"type": "Point", "coordinates": [35.1793354561748, 31.76546488313076]}}, {"type": "Feature", "properties": {"קוד סטטיסטי": null, "עד כיתה": null, "מכיתה": null, "הרכב מינים": "", "פיקוח": "ממלכתי", "שלב חינוך": "יסודי", "סוג חינוך": "גני", "מעמד משפטי": "רשמי", "כיתות מקדמות": null, "כיתות רגילות": 2.0, "מספר תלמידים": null, "כתובת": "קורץ 1", "סמל חינוך": null, "סמל עירייה": null, "שם מוסד": "גני ילדים תלפ\"ז"}, "geometry": {"type": "Point", "coordinates": [35.23972961672138, 31.73911657741268]}}, {"type": "Feature", "properties": {"קוד סטטיסטי": null, "עד כיתה": null, "מכיתה": null, "הרכב מינים": "", "פיקוח": "ממלכתי", "שלב חינוך": "יסודי", "סוג חינוך": "גני", "מעמד משפטי": "רשמי", "כיתות מקדמות": null, "כיתות רגילות": 3.0, "מספר תלמידים": null, "כתובת": "יהושוע בן נון 22", "סמל חינוך": null, "סמל עירייה": null, "שם מוסד": "גני ילדים גונן (אמציה)"}, "geometry": {"type": "Point", "coordinates": [35.21511524806445, 31.761372540796653]}}, {"type": "Feature", "properties": {"קוד סטטיסטי": null, "עד כיתה": null, "מכיתה": null, "הרכב מינים": "", "פיקוח": "ממלכתי", "שלב חינוך": "יסודי", "סוג חינוך": "גני", "מעמד משפטי": "רשמי", "כיתות מקדמות": null, "כיתות רגילות": 2.0, "מספר תלמידים": null, "כתובת": "צבי נוימן 1", "סמל חינוך": null, "סמל עירייה": null, "שם מוסד": "גני תלפיות ארנונה -  מקבת"}, "geometry": {"type": "Point", "coordinates": [35.21849962026064, 31.746530720546126]}}, {"type": "Feature", "properties": {"קוד סטטיסטי": null, "עד כיתה": null, "מכיתה": null, "הרכב מינים": "", "פיקוח": "ערבי", "שלב חינוך": "על יסודי", "סוג חינוך": "ביהס", "מעמד משפטי": "רשמי", "כיתות מקדמות": null, "כיתות רגילות": 12.0, "מספר תלמידים": null, "כתובת": "רבעה אל עדוויה 23", "סמל חינוך": null, "סמל עירייה": null, "שם מוסד": "תוספת לאלטור תיכון בנים"}, "geometry": {"type": "Point", "coordinates": [35.2475, 31.7802]}}, {"type": "Feature", "properties": {"קוד סטטיסטי": null, "עד כיתה": null, "מכיתה": null, "הרכב מינים": "", "פיקוח": "ממלכתי", "שלב חינוך": "יסודי", "סוג חינוך": "ביהס", "מעמד משפטי": "רשמי", "כיתות מקדמות": null, "כיתות רגילות": 7.0, "מספר תלמידים": null, "כתובת": "אחלמה 8", "סמל חינוך": null, "סמל עירייה": null, "שם מוסד": "תוספת לבית ספר יד אשר בנות לטובת התאמות + גני ילדים"}, "geometry": {"type": "Point", "coordinates": [35.190293146240826, 31.727457132767668]}}]}