{
"type": "FeatureCollection",
"name": "projector_talpiot",
"crs": { "type": "name", "properties": { "name": "urn:ogc:def:crs:OGC:1.3:CRS84" } },
"features": [
{ "type": "Feature", "properties": { "name": "פרוייקטור תלפיות" }, "geometry": { "type": "Polygon", "coordinates": [ [ [ 35.214450545601238, 31.742616348465909, 0.0 ], [ 35.214341965020687, 31.742675254760194, 0.0 ], [ 35.213741158221382, 31.743001196790676, 0.0 ], [ 35.213706861794677, 31.743019802584108, 0.0 ], [ 35.213518419772093, 31.742785283034742, 0.0 ], [ 35.213468421819265, 31.742789333190824, 0.0 ], [ 35.213200489409331, 31.742811033283925, 0.0 ], [ 35.213168271697633, 31.742849389218652, 0.0 ], [ 35.213066302373832, 31.742870450702807, 0.0 ], [ 35.212216688158087, 31.742966848146228, 0.0 ], [ 35.211992196132911, 31.743021264703206, 0.0 ], [ 35.211957181053123, 31.742992711635786, 0.0 ], [ 35.211899151919653, 31.742945392500367, 0.0 ], [ 35.211787463787388, 31.742941580618645, 0.0 ], [ 35.211699224342411, 31.743048691657272, 0.0 ], [ 35.211500448738867, 31.743289972878905, 0.0 ], [ 35.211408851153202, 31.743474980847239, 0.0 ], [ 35.211401534557695, 31.743489758898779, 0.0 ], [ 35.211288000031296, 31.743728218587176, 0.0 ], [ 35.211219232520456, 31.743865362400136, 0.0 ], [ 35.211174930439242, 31.743953715007279, 0.0 ], [ 35.211310933265217, 31.744077936065569, 0.0 ], [ 35.211660819623233, 31.744397510019109, 0.0 ], [ 35.211819989317263, 31.744529931489016, 0.0 ], [ 35.211986342653404, 31.744965373424911, 0.0 ], [ 35.212019041382234, 31.745050965654553, 0.0 ], [ 35.212213786743952, 31.745560721248488, 0.0 ], [ 35.212335251853638, 31.745553554879368, 0.0 ], [ 35.212645198583843, 31.745528480093519, 0.0 ], [ 35.213089162088295, 31.745378123690383, 0.0 ], [ 35.213239938291878, 31.745302949873981, 0.0 ], [ 35.21330695147239, 31.745281470450131, 0.0 ], [ 35.213340464938206, 31.745342313828562, 0.0 ], [ 35.213311161493984, 31.745492642744786, 0.0 ], [ 35.213259816614602, 31.745586515842714, 0.0 ], [ 35.213194901896593, 31.745659297490143, 0.0 ], [ 35.212441002123271, 31.745955228502709, 0.0 ], [ 35.211162149209287, 31.746403897155169, 0.0 ], [ 35.209987328050588, 31.746762845445605, 0.0 ], [ 35.208861397681801, 31.747120466287328, 0.0 ], [ 35.207351260990983, 31.747599824987827, 0.0 ], [ 35.206593788450377, 31.747862028458524, 0.0 ], [ 35.206215052108135, 31.748070966774502, 0.0 ], [ 35.205869877680492, 31.7484150937923, 0.0 ], [ 35.205649349342586, 31.748751026320587, 0.0 ], [ 35.205568177891742, 31.748933426201663, 0.0 ], [ 35.205390466678459, 31.749332760272395, 0.0 ], [ 35.205342336515699, 31.749481626420174, 0.0 ], [ 35.205327802980953, 31.749526578098088, 0.0 ], [ 35.205312581328258, 31.749573659035377, 0.0 ], [ 35.20530592508247, 31.749594247306288, 0.0 ], [ 35.205308410574652, 31.749595178894356, 0.0 ], [ 35.205097542216286, 31.750122936390841, 0.0 ], [ 35.204981614636075, 31.750455643853332, 0.0 ], [ 35.205005766306293, 31.750541900704555, 0.0 ], [ 35.205095522482665, 31.750581793351056, 0.0 ], [ 35.205117635760978, 31.750602278635373, 0.0 ], [ 35.205161373554304, 31.750627186434123, 0.0 ], [ 35.205164560925532, 31.750628070222806, 0.0 ], [ 35.205188885213943, 31.750634817676378, 0.0 ], [ 35.205218267084604, 31.750642968363188, 0.0 ], [ 35.205300721845518, 31.750661004698649, 0.0 ], [ 35.205549482838947, 31.750731035444922, 0.0 ], [ 35.205797333499234, 31.750808998343221, 0.0 ], [ 35.205920123919498, 31.750850386198138, 0.0 ], [ 35.206064091609015, 31.75089885855153, 0.0 ], [ 35.206115708475451, 31.750921403985704, 0.0 ], [ 35.206139291075587, 31.750934931337923, 0.0 ], [ 35.206208885619361, 31.750989760731095, 0.0 ], [ 35.206236588785778, 31.751011586783299, 0.0 ], [ 35.206316076968996, 31.751065696301065, 0.0 ], [ 35.206622119910037, 31.751272358082272, 0.0 ], [ 35.207024887694253, 31.751547320181039, 0.0 ], [ 35.207065442298827, 31.751575225120693, 0.0 ], [ 35.207163566607278, 31.751681189790649, 0.0 ], [ 35.207254184870074, 31.751785880245631, 0.0 ], [ 35.207536029325354, 31.75206298705481, 0.0 ], [ 35.207643716218577, 31.752178656763672, 0.0 ], [ 35.207950366792801, 31.752508038334497, 0.0 ], [ 35.208055485345916, 31.752559349414614, 0.0 ], [ 35.208058431095729, 31.752559745239612, 0.0 ], [ 35.208157417169993, 31.752573051773634, 0.0 ], [ 35.208165075801013, 31.752581775992581, 0.0 ], [ 35.208209387245702, 31.75260317454438, 0.0 ], [ 35.20844224668695, 31.752715624676053, 0.0 ], [ 35.209104808104399, 31.753073347416642, 0.0 ], [ 35.210051479285156, 31.753650033064858, 0.0 ], [ 35.210530976666469, 31.754399706974457, 0.0 ], [ 35.211197496997855, 31.755534458461803, 0.0 ], [ 35.21170097643391, 31.756169417290046, 0.0 ], [ 35.212498522094762, 31.757000716003422, 0.0 ], [ 35.213460777484798, 31.758021010054748, 0.0 ], [ 35.214218389641999, 31.758500267652284, 0.0 ], [ 35.215311694124097, 31.759210079393416, 0.0 ], [ 35.215381652728119, 31.759255297233249, 0.0 ], [ 35.215923301531163, 31.759629857192863, 0.0 ], [ 35.216628066258025, 31.760110536336935, 0.0 ], [ 35.216636861691526, 31.760116535457318, 0.0 ], [ 35.21667266414233, 31.760140954837592, 0.0 ], [ 35.216722279355331, 31.760102616277841, 0.0 ], [ 35.217620978388034, 31.759634707317385, 0.0 ], [ 35.217610199455876, 31.759583054436067, 0.0 ], [ 35.217444397198427, 31.759221417766298, 0.0 ], [ 35.217210411016296, 31.758720511489017, 0.0 ], [ 35.217122738907527, 31.758532825834788, 0.0 ], [ 35.217106538447254, 31.758498144341644, 0.0 ], [ 35.217067802959249, 31.758401842098806, 0.0 ], [ 35.216876377182153, 31.757819112008473, 0.0 ], [ 35.21697444106303, 31.757791863062902, 0.0 ], [ 35.217440366219904, 31.757679850447072, 0.0 ], [ 35.21812872090765, 31.757520833472192, 0.0 ], [ 35.218337211223442, 31.757472663167317, 0.0 ], [ 35.218609325552706, 31.757410752154055, 0.0 ], [ 35.218813005462231, 31.757362451741162, 0.0 ], [ 35.218931389776472, 31.757335491182666, 0.0 ], [ 35.219385651502272, 31.757211579257241, 0.0 ], [ 35.219514802251467, 31.757176346978255, 0.0 ], [ 35.220144835350631, 31.757007864764397, 0.0 ], [ 35.220382568610852, 31.756945168701069, 0.0 ], [ 35.220754223281268, 31.756853468889549, 0.0 ], [ 35.220995614316365, 31.756768570514634, 0.0 ], [ 35.221218126998075, 31.756622442567867, 0.0 ], [ 35.22150703719209, 31.756475071602164, 0.0 ], [ 35.221624520126014, 31.75640717936378, 0.0 ], [ 35.221762141924152, 31.756324555352723, 0.0 ], [ 35.221929311797133, 31.756197664614646, 0.0 ], [ 35.221958663599601, 31.756241901438418, 0.0 ], [ 35.222006791391784, 31.756319467820667, 0.0 ], [ 35.222131913943997, 31.756271313621575, 0.0 ], [ 35.222146100416502, 31.756264381874349, 0.0 ], [ 35.222222671658599, 31.756226962682081, 0.0 ], [ 35.222437027051775, 31.756132758318088, 0.0 ], [ 35.222688554679472, 31.756047876934659, 0.0 ], [ 35.223017070569476, 31.755952313199099, 0.0 ], [ 35.223230617421642, 31.755906666515116, 0.0 ], [ 35.223600988701591, 31.755843886131576, 0.0 ], [ 35.223927990505288, 31.755803924381603, 0.0 ], [ 35.224204940743022, 31.755781069455733, 0.0 ], [ 35.224683988982719, 31.755751933917022, 0.0 ], [ 35.224744731213434, 31.755745062995324, 0.0 ], [ 35.224745493952554, 31.755748193174835, 0.0 ], [ 35.22475785233943, 31.755747333545695, 0.0 ], [ 35.224739629903027, 31.75566217530508, 0.0 ], [ 35.224719019680144, 31.755580307369655, 0.0 ], [ 35.224671133534827, 31.755390087183724, 0.0 ], [ 35.224649007261696, 31.755276786593175, 0.0 ], [ 35.224647884042632, 31.755271033005087, 0.0 ], [ 35.224619025929869, 31.755123258674192, 0.0 ], [ 35.224613533484181, 31.755095133726876, 0.0 ], [ 35.224525977278333, 31.754418560489036, 0.0 ], [ 35.224507437720106, 31.754275299115015, 0.0 ], [ 35.224504676244834, 31.754253962813049, 0.0 ], [ 35.224472651379799, 31.753969930143278, 0.0 ], [ 35.224468774630758, 31.753930548106805, 0.0 ], [ 35.22441772453881, 31.753411887310055, 0.0 ], [ 35.224395770699701, 31.753188838437943, 0.0 ], [ 35.224361163756939, 31.752830572558814, 0.0 ], [ 35.224314653824003, 31.752349066921958, 0.0 ], [ 35.22431209111177, 31.752328847062039, 0.0 ], [ 35.224312693751642, 31.752328776623891, 0.0 ], [ 35.224306076264831, 31.752260268121322, 0.0 ], [ 35.224284722577508, 31.751993385832282, 0.0 ], [ 35.224254014033392, 31.751609569983646, 0.0 ], [ 35.22424838835925, 31.751539257625975, 0.0 ], [ 35.224211508371525, 31.751350388197078, 0.0 ], [ 35.224190794150559, 31.751244303797765, 0.0 ], [ 35.224082031023876, 31.750818263865185, 0.0 ], [ 35.22404362626191, 31.7505779299164, 0.0 ], [ 35.224156430499846, 31.750543707288703, 0.0 ], [ 35.224220436048547, 31.750522744777868, 0.0 ], [ 35.224337385893577, 31.750488809032948, 0.0 ], [ 35.224439930882291, 31.75045769912494, 0.0 ], [ 35.224770737406978, 31.750346574503844, 0.0 ], [ 35.224785651437294, 31.750341564171876, 0.0 ], [ 35.224751401277231, 31.750212170220991, 0.0 ], [ 35.224717151212531, 31.75008277625826, 0.0 ], [ 35.22467755636935, 31.749889214152443, 0.0 ], [ 35.224551584526225, 31.749333107751092, 0.0 ], [ 35.22436337830986, 31.748550188750542, 0.0 ], [ 35.224015493261028, 31.747852387690884, 0.0 ], [ 35.223873198983377, 31.747566965544245, 0.0 ], [ 35.223606915597323, 31.747032838418338, 0.0 ], [ 35.223602933063795, 31.747024854079033, 0.0 ], [ 35.223474770029121, 31.746756885440075, 0.0 ], [ 35.223389776764463, 31.746561828953055, 0.0 ], [ 35.22287774357644, 31.745168825106131, 0.0 ], [ 35.222859796497076, 31.745127876697058, 0.0 ], [ 35.22284976946812, 31.745100822777452, 0.0 ], [ 35.222499735500172, 31.744721827225202, 0.0 ], [ 35.22246374801523, 31.744721832335049, 0.0 ], [ 35.222386817499995, 31.744723834499876, 0.0 ], [ 35.222429751553982, 31.744648885040903, 0.0 ], [ 35.222488726005864, 31.744547862729746, 0.0 ], [ 35.222729832961477, 31.744342845906409, 0.0 ], [ 35.222680749087729, 31.7442908092404, 0.0 ], [ 35.222664709881634, 31.744279816236926, 0.0 ], [ 35.222622804453955, 31.74424888171194, 0.0 ], [ 35.222563699556574, 31.744209843836551, 0.0 ], [ 35.222502687982178, 31.744166834475262, 0.0 ], [ 35.222488753368076, 31.744156825965916, 0.0 ], [ 35.222456776168912, 31.744133833433736, 0.0 ], [ 35.22238573892372, 31.744079916709026, 0.0 ], [ 35.2223126984915, 31.744024820611585, 0.0 ], [ 35.222270795581018, 31.743994795029884, 0.0 ], [ 35.222216752812635, 31.743957823312318, 0.0 ], [ 35.222124719126505, 31.743894797125119, 0.0 ], [ 35.222057802830591, 31.743865857166963, 0.0 ], [ 35.222007777201085, 31.743841882206603, 0.0 ], [ 35.221799749601118, 31.743724847589132, 0.0 ], [ 35.22175172920057, 31.743711867559611, 0.0 ], [ 35.221653673799715, 31.743668862830489, 0.0 ], [ 35.221556678475942, 31.743593845958166, 0.0 ], [ 35.22143973045776, 31.743503853824375, 0.0 ], [ 35.221342729868027, 31.743432797695512, 0.0 ], [ 35.221226731942167, 31.743353811366209, 0.0 ], [ 35.221205736485466, 31.743373835120167, 0.0 ], [ 35.221176717083274, 31.743386825529164, 0.0 ], [ 35.221132717251763, 31.743417858428284, 0.0 ], [ 35.221063813213213, 31.743458807664641, 0.0 ], [ 35.220871762395902, 31.743574813653176, 0.0 ], [ 35.220846738704402, 31.743541809324718, 0.0 ], [ 35.220811797123844, 31.743473818252731, 0.0 ], [ 35.220793741351997, 31.743431884739682, 0.0 ], [ 35.220774737537646, 31.743375882548033, 0.0 ], [ 35.220763756057494, 31.743341880757743, 0.0 ], [ 35.220749715524434, 31.74331590939607, 0.0 ], [ 35.220727758575002, 31.743281909011063, 0.0 ], [ 35.220701789433399, 31.743248904773839, 0.0 ], [ 35.220682791318971, 31.743224925314966, 0.0 ], [ 35.220636664273059, 31.743173796534858, 0.0 ], [ 35.220610806174911, 31.743147826663481, 0.0 ], [ 35.220560669634708, 31.743112834195031, 0.0 ], [ 35.220531751625465, 31.743089840787594, 0.0 ], [ 35.220519717188353, 31.74306883651343, 0.0 ], [ 35.220506732473822, 31.743032854498942, 0.0 ], [ 35.220495748354168, 31.742982803431502, 0.0 ], [ 35.220476728774031, 31.742882874074795, 0.0 ], [ 35.220462688771882, 31.742846892188009, 0.0 ], [ 35.220425764533765, 31.742893886628526, 0.0 ], [ 35.220371740521593, 31.742945839749925, 0.0 ], [ 35.220319717543717, 31.742998874813125, 0.0 ], [ 35.220312312064941, 31.743003788996091, 0.0 ], [ 35.220295656593521, 31.74301484049424, 0.0 ], [ 35.220234771592814, 31.743059846590924, 0.0 ], [ 35.220211666167835, 31.743084837812482, 0.0 ], [ 35.220050711082244, 31.742959861833405, 0.0 ], [ 35.219940514740109, 31.742993348248536, 0.0 ], [ 35.219860997388444, 31.743017511169672, 0.0 ], [ 35.219626923696325, 31.743088640919229, 0.0 ], [ 35.219389874806154, 31.743160675139993, 0.0 ], [ 35.21928650927007, 31.74328050292317, 0.0 ], [ 35.219041237446511, 31.74349291068685, 0.0 ], [ 35.218632395304063, 31.743740143105612, 0.0 ], [ 35.218103951688256, 31.74392721056152, 0.0 ], [ 35.217910502911849, 31.743961621327578, 0.0 ], [ 35.217720898588972, 31.744040094687477, 0.0 ], [ 35.217420617923992, 31.74416437396491, 0.0 ], [ 35.216912512297306, 31.744374667740257, 0.0 ], [ 35.216608052628878, 31.74450067705153, 0.0 ], [ 35.215585026827597, 31.742833970303735, 0.0 ], [ 35.215507997006831, 31.74270847253808, 0.0 ], [ 35.215449484585598, 31.742613141673932, 0.0 ], [ 35.21539947457844, 31.742531663305574, 0.0 ], [ 35.215399145253038, 31.742531126735575, 0.0 ], [ 35.215399022811539, 31.742530927438157, 0.0 ], [ 35.215365972670824, 31.742526895430068, 0.0 ], [ 35.21530277247679, 31.742519185565325, 0.0 ], [ 35.215260516739882, 31.742506192672927, 0.0 ], [ 35.215153821605689, 31.742492042747244, 0.0 ], [ 35.21514892703734, 31.742492342573581, 0.0 ], [ 35.215083497972735, 31.742465718369068, 0.0 ], [ 35.215083448369626, 31.742465694023377, 0.0 ], [ 35.21502128499128, 31.742433958750571, 0.0 ], [ 35.215021201615002, 31.742433910057816, 0.0 ], [ 35.214962839011761, 31.742397345954814, 0.0 ], [ 35.214962768299131, 31.742397294555428, 0.0 ], [ 35.214908676129063, 31.74235620190338, 0.0 ], [ 35.214908644466163, 31.742356173948753, 0.0 ], [ 35.214859274447619, 31.742310885497133, 0.0 ], [ 35.214815082526066, 31.742261810652227, 0.0 ], [ 35.214815035029751, 31.742261750232419, 0.0 ], [ 35.214776477159035, 31.742209400309125, 0.0 ], [ 35.214776428605418, 31.742209321852481, 0.0 ], [ 35.214743804539047, 31.742154122502885, 0.0 ], [ 35.21474378237216, 31.742154076510516, 0.0 ], [ 35.214717353870981, 31.742096466015134, 0.0 ], [ 35.214679516360555, 31.742000994226292, 0.0 ], [ 35.214491189234408, 31.741525795847462, 0.0 ], [ 35.214279117412978, 31.740990682132004, 0.0 ], [ 35.214088608190515, 31.741045819429338, 0.0 ], [ 35.214063182241382, 31.741093019490737, 0.0 ], [ 35.214031869466673, 31.741137559545667, 0.0 ], [ 35.213997113422948, 31.7411742222246, 0.0 ], [ 35.213936955906313, 31.741230548853334, 0.0 ], [ 35.213952224585547, 31.74125523484944, 0.0 ], [ 35.213912613417662, 31.741285929450061, 0.0 ], [ 35.213938840766232, 31.7413340878837, 0.0 ], [ 35.213971327335088, 31.741393737166526, 0.0 ], [ 35.213931664929859, 31.741336941863022, 0.0 ], [ 35.213964056499258, 31.741396419803998, 0.0 ], [ 35.214167463389991, 31.741832362252605, 0.0 ], [ 35.214197980055296, 31.741862521252425, 0.0 ], [ 35.214420601257295, 31.742171415105688, 0.0 ], [ 35.214461646014954, 31.742299042942467, 0.0 ], [ 35.214537966574511, 31.742410800877337, 0.0 ], [ 35.214627179414997, 31.742543816046393, 0.0 ], [ 35.214638404811595, 31.742561936840115, 0.0 ], [ 35.214450545601238, 31.742616348465909, 0.0 ] ] ] } }
]
}
