{
"type": "FeatureCollection",
"name": "projector_talpiot_subs",
"crs": { "type": "name", "properties": { "name": "urn:ogc:def:crs:OGC:1.3:CRS84" } },
"features": [
{ "type": "Feature", "properties": { "CODE": 48.0, "name": "תלפיות-ארנונה", "code": "110", "East_West": "מערב" }, "geometry": { "type": "Polygon", "coordinates": [ [ [ 35.216088371982373, 31.744562101623909, 0.0 ], [ 35.216088847191166, 31.744562892290638, 0.0 ], [ 35.216101730828967, 31.744584326615239, 0.0 ], [ 35.216833359220544, 31.745801515081375, 0.0 ], [ 35.217242385525601, 31.746600681714138, 0.0 ], [ 35.217884805819573, 31.747855722534243, 0.0 ], [ 35.218586022645511, 31.749207959919261, 0.0 ], [ 35.219052956150399, 31.750478305649121, 0.0 ], [ 35.219404390564279, 31.751347203366702, 0.0 ], [ 35.219673135056269, 31.752067929519971, 0.0 ], [ 35.219758778638813, 31.752371788574013, 0.0 ], [ 35.219924159380952, 31.752836363888257, 0.0 ], [ 35.220068868091751, 31.753117618608567, 0.0 ], [ 35.220234248833854, 31.753521922013263, 0.0 ], [ 35.220451010515276, 31.753895535892795, 0.0 ], [ 35.220451805524306, 31.753895299862481, 0.0 ], [ 35.220840262206004, 31.754468787670135, 0.0 ], [ 35.221511663947666, 31.755394552497631, 0.0 ], [ 35.222080176249946, 31.756163613858448, 0.0 ], [ 35.22212073069344, 31.756213809166191, 0.0 ], [ 35.222142802299992, 31.756261709893234, 0.0 ], [ 35.222219373796484, 31.756224290483853, 0.0 ], [ 35.222433729789572, 31.756130086142722, 0.0 ], [ 35.222685257170831, 31.756045205070443, 0.0 ], [ 35.223013772866864, 31.75594964092025, 0.0 ], [ 35.223227319477878, 31.755903994874672, 0.0 ], [ 35.223597691276268, 31.755841214434447, 0.0 ], [ 35.223924692412723, 31.75580125204327, 0.0 ], [ 35.224201643014808, 31.755778397287489, 0.0 ], [ 35.224680691199659, 31.755749262258764, 0.0 ], [ 35.224741433482521, 31.755742390781183, 0.0 ], [ 35.224742196152192, 31.755745520985244, 0.0 ], [ 35.224754555173888, 31.75574466166859, 0.0 ], [ 35.224736331950034, 31.75565950296982, 0.0 ], [ 35.224715721902463, 31.755577635572298, 0.0 ], [ 35.224667835409626, 31.755387415177413, 0.0 ], [ 35.224645709904152, 31.75527411472833, 0.0 ], [ 35.224644586111744, 31.755268360714798, 0.0 ], [ 35.224615727733259, 31.755120586402434, 0.0 ], [ 35.224610235433602, 31.755092461730186, 0.0 ], [ 35.224522679337809, 31.754415888158242, 0.0 ], [ 35.224504139906969, 31.754272626833622, 0.0 ], [ 35.224501378485762, 31.754251290996745, 0.0 ], [ 35.224469353545906, 31.753967257772917, 0.0 ], [ 35.224465477315462, 31.753927875864122, 0.0 ], [ 35.22441442695618, 31.753409215088869, 0.0 ], [ 35.224392473028949, 31.753186166497095, 0.0 ], [ 35.224357866330934, 31.752827900308034, 0.0 ], [ 35.224311356057115, 31.752346394648058, 0.0 ], [ 35.224308793163594, 31.752326175138208, 0.0 ], [ 35.22430939593314, 31.752326104862611, 0.0 ], [ 35.224302778044461, 31.752257596058215, 0.0 ], [ 35.224281425090155, 31.75199071395777, 0.0 ], [ 35.224250716182148, 31.751606897767275, 0.0 ], [ 35.224245090931859, 31.751536585693472, 0.0 ], [ 35.224208210597851, 31.751347715925689, 0.0 ], [ 35.224187496345721, 31.751241631435235, 0.0 ], [ 35.224078732822704, 31.750815591866122, 0.0 ], [ 35.224040328047664, 31.750575258069489, 0.0 ], [ 35.224153133091143, 31.750541035490773, 0.0 ], [ 35.224217138055138, 31.750520073095174, 0.0 ], [ 35.224334087925364, 31.750486136951171, 0.0 ], [ 35.224436633309992, 31.750455027153187, 0.0 ], [ 35.224767439709993, 31.750343902313354, 0.0 ], [ 35.224782353540341, 31.750338892014032, 0.0 ], [ 35.224748103473509, 31.750209498018641, 0.0 ], [ 35.224713853406669, 31.750080103842365, 0.0 ], [ 35.224674258363905, 31.749886542375325, 0.0 ], [ 35.224548286713301, 31.749330435999678, 0.0 ], [ 35.22436008067811, 31.748547516558698, 0.0 ], [ 35.224012195507932, 31.747849715208019, 0.0 ], [ 35.223869900570293, 31.747564293427953, 0.0 ], [ 35.223603617462189, 31.747030166808837, 0.0 ], [ 35.223603450375556, 31.747030158405867, 0.0 ], [ 35.223599635230521, 31.747022181668751, 0.0 ], [ 35.22347147169063, 31.746754213473881, 0.0 ], [ 35.223386478488351, 31.746559156952159, 0.0 ], [ 35.222874445064619, 31.745166153035427, 0.0 ], [ 35.222856498521871, 31.745125204393297, 0.0 ], [ 35.222846471526672, 31.745098150762985, 0.0 ], [ 35.222496437586301, 31.744719155415744, 0.0 ], [ 35.222460450177707, 31.744719159999331, 0.0 ], [ 35.222383519355084, 31.744721162254471, 0.0 ], [ 35.222426453435787, 31.74464621325307, 0.0 ], [ 35.222485427834172, 31.744545190520267, 0.0 ], [ 35.222726534758131, 31.744340173796122, 0.0 ], [ 35.222677450810991, 31.744288137087295, 0.0 ], [ 35.22266141139162, 31.744277144112086, 0.0 ], [ 35.222619506780219, 31.744246209460211, 0.0 ], [ 35.222560401227796, 31.744207171769631, 0.0 ], [ 35.222499389450327, 31.74416416237738, 0.0 ], [ 35.222485455681948, 31.744154154096606, 0.0 ], [ 35.222453478352797, 31.744131161249545, 0.0 ], [ 35.222382440478434, 31.744077244383536, 0.0 ], [ 35.222309400259299, 31.744022148736445, 0.0 ], [ 35.222267497444555, 31.743992123080833, 0.0 ], [ 35.222213454797078, 31.743955150961458, 0.0 ], [ 35.222121420599578, 31.743892124835003, 0.0 ], [ 35.222054505094086, 31.743863185452856, 0.0 ], [ 35.222004478814235, 31.743839210112913, 0.0 ], [ 35.221796451452292, 31.743722175926475, 0.0 ], [ 35.221748431110477, 31.743709195885803, 0.0 ], [ 35.221650375505639, 31.743666190845921, 0.0 ], [ 35.221553379912841, 31.743591173764191, 0.0 ], [ 35.221436432737576, 31.743501181910062, 0.0 ], [ 35.221339431754863, 31.74343012571639, 0.0 ], [ 35.22122343409886, 31.743351139015211, 0.0 ], [ 35.221202438674041, 31.743371163388701, 0.0 ], [ 35.221173418598802, 31.743384153408005, 0.0 ], [ 35.221129419116174, 31.743415186131941, 0.0 ], [ 35.221060514740607, 31.743456135530241, 0.0 ], [ 35.220868463916041, 31.743572141793059, 0.0 ], [ 35.220843440445464, 31.743539137398464, 0.0 ], [ 35.220808498675865, 31.743471146154295, 0.0 ], [ 35.220790443436968, 31.743429212809787, 0.0 ], [ 35.220771439577142, 31.743373210745418, 0.0 ], [ 35.220760457672789, 31.743339208575161, 0.0 ], [ 35.220746417004889, 31.743313237689421, 0.0 ], [ 35.220724460382733, 31.743279237025053, 0.0 ], [ 35.220698490986173, 31.743246232526126, 0.0 ], [ 35.220679493414558, 31.743222253206753, 0.0 ], [ 35.220633365823034, 31.743171124195335, 0.0 ], [ 35.220607507817547, 31.743145154790316, 0.0 ], [ 35.220557371943251, 31.743110162468515, 0.0 ], [ 35.220528453377618, 31.743087168598308, 0.0 ], [ 35.220516418647769, 31.743066164790328, 0.0 ], [ 35.220503434398658, 31.743030182369971, 0.0 ], [ 35.220492449799352, 31.742980131175152, 0.0 ], [ 35.220473430668171, 31.742880202119384, 0.0 ], [ 35.220459390898569, 31.742844220390733, 0.0 ], [ 35.220422466547134, 31.74289121435902, 0.0 ], [ 35.220368442764261, 31.742943167819067, 0.0 ], [ 35.220316419529517, 31.742996202992082, 0.0 ], [ 35.220309013818316, 31.743001116668065, 0.0 ], [ 35.22029235815463, 31.7430121686183, 0.0 ], [ 35.220231473039625, 31.743057174725145, 0.0 ], [ 35.220208368370542, 31.743082165545768, 0.0 ], [ 35.220047412729514, 31.742957189984732, 0.0 ], [ 35.219937216393596, 31.742990675870264, 0.0 ], [ 35.21985769932126, 31.743014839359674, 0.0 ], [ 35.219623625307676, 31.74308596921027, 0.0 ], [ 35.219386576972205, 31.743158001984359, 0.0 ], [ 35.219283211425719, 31.743277830611834, 0.0 ], [ 35.219037939013823, 31.743490238497341, 0.0 ], [ 35.218629096863395, 31.743737471455596, 0.0 ], [ 35.218100653914348, 31.743924538582387, 0.0 ], [ 35.217907203514535, 31.743958947714699, 0.0 ], [ 35.217717598802473, 31.744037421298035, 0.0 ], [ 35.217417318952442, 31.744161700986684, 0.0 ], [ 35.216909213861449, 31.744371994576341, 0.0 ], [ 35.216604754150381, 31.744498004117034, 0.0 ], [ 35.216309424915927, 31.744620234330611, 0.0 ], [ 35.216234039195569, 31.744523228311333, 0.0 ], [ 35.216222390741308, 31.744508238483853, 0.0 ], [ 35.216087791670709, 31.74456114060084, 0.0 ], [ 35.216088371982373, 31.744562101623909, 0.0 ] ] ] } },
{ "type": "Feature", "properties": { "CODE": 94.0, "name": "בקעה דרום", "code": "40", "East_West": "מערב" }, "geometry": { "type": "Polygon", "coordinates": [ [ [ 35.222142802299992, 31.756261709893234, 0.0 ], [ 35.22212073069344, 31.756213809166191, 0.0 ], [ 35.222080176249946, 31.756163613858448, 0.0 ], [ 35.221511663947666, 31.755394552497631, 0.0 ], [ 35.220840262206004, 31.754468787670135, 0.0 ], [ 35.220451805524306, 31.753895299862481, 0.0 ], [ 35.220237035407884, 31.753959188443599, 0.0 ], [ 35.219713936536472, 31.754123213236589, 0.0 ], [ 35.219097725489213, 31.754331561595912, 0.0 ], [ 35.21807070947267, 31.754704106643302, 0.0 ], [ 35.217811500597428, 31.754780143621158, 0.0 ], [ 35.217486318549426, 31.754864276522234, 0.0 ], [ 35.217157382441819, 31.75493771248086, 0.0 ], [ 35.216506536848797, 31.755033025607574, 0.0 ], [ 35.216064242335534, 31.755051500673275, 0.0 ], [ 35.21549098423359, 31.755072840908795, 0.0 ], [ 35.214840442271154, 31.755113058737724, 0.0 ], [ 35.214459278112933, 31.755149960711559, 0.0 ], [ 35.214669172174013, 31.756348226131397, 0.0 ], [ 35.214906619361493, 31.757343703192216, 0.0 ], [ 35.215151278224084, 31.758492805579305, 0.0 ], [ 35.215308397160513, 31.759207407643238, 0.0 ], [ 35.215378355259901, 31.759252625854909, 0.0 ], [ 35.21592000434191, 31.759627185109501, 0.0 ], [ 35.216624768614921, 31.760107864655769, 0.0 ], [ 35.216633564019865, 31.760113863548614, 0.0 ], [ 35.21666936637552, 31.760138282261636, 0.0 ], [ 35.2167189821253, 31.76009994480291, 0.0 ], [ 35.217617680990045, 31.759632035270926, 0.0 ], [ 35.217606902104947, 31.759580382948581, 0.0 ], [ 35.217441100052966, 31.759218745614859, 0.0 ], [ 35.217207113175974, 31.758717839518095, 0.0 ], [ 35.217119441197482, 31.758530153800745, 0.0 ], [ 35.217103240979654, 31.758495472818847, 0.0 ], [ 35.217064505624613, 31.758399170297732, 0.0 ], [ 35.216873080027462, 31.757816440177272, 0.0 ], [ 35.216971143717139, 31.757789190898109, 0.0 ], [ 35.217437068413965, 31.757677178899691, 0.0 ], [ 35.21812542316168, 31.757518161912916, 0.0 ], [ 35.218333914054291, 31.757469991442832, 0.0 ], [ 35.218606028126899, 31.757408080531743, 0.0 ], [ 35.218809707642826, 31.757359780154314, 0.0 ], [ 35.218928092122546, 31.757332819466193, 0.0 ], [ 35.219382353992053, 31.757208907287769, 0.0 ], [ 35.219511503882117, 31.757173675092854, 0.0 ], [ 35.220141536408356, 31.757005192666206, 0.0 ], [ 35.220379271056707, 31.756942496993823, 0.0 ], [ 35.22075092564932, 31.756850797211467, 0.0 ], [ 35.220992316440899, 31.756765898468139, 0.0 ], [ 35.221214829136763, 31.756619770308188, 0.0 ], [ 35.221503739908535, 31.756472399928331, 0.0 ], [ 35.221621222479705, 31.756404507549096, 0.0 ], [ 35.221758844381235, 31.756321883088919, 0.0 ], [ 35.221926014567423, 31.756194992898955, 0.0 ], [ 35.221955366121023, 31.756239229529292, 0.0 ], [ 35.222003493362351, 31.756316795966057, 0.0 ], [ 35.222128616105032, 31.756268641675046, 0.0 ], [ 35.222142802299992, 31.756261709893234, 0.0 ] ] ] } },
{ "type": "Feature", "properties": { "CODE": 420.0, "name": "מקור חיים", "code": "46", "East_West": "מערב" }, "geometry": { "type": "Polygon", "coordinates": [ [ [ 35.214459278112933, 31.755149960711559, 0.0 ], [ 35.213285736992063, 31.755322633888579, 0.0 ], [ 35.213165818189836, 31.754740911007957, 0.0 ], [ 35.212873348292895, 31.754708158080216, 0.0 ], [ 35.212513761667829, 31.754753244816911, 0.0 ], [ 35.212350750681431, 31.754769641516162, 0.0 ], [ 35.212206907048234, 31.754691814075485, 0.0 ], [ 35.212173334311117, 31.754560722021605, 0.0 ], [ 35.212245227381622, 31.754278043287773, 0.0 ], [ 35.212240411513385, 31.754011759760424, 0.0 ], [ 35.212138388049929, 31.753701352986987, 0.0 ], [ 35.212219293917677, 31.753684066972504, 0.0 ], [ 35.212101947890439, 31.753321132488637, 0.0 ], [ 35.21204531270503, 31.753324591233053, 0.0 ], [ 35.212008898596693, 31.753238179109122, 0.0 ], [ 35.211896167215038, 31.752912873702059, 0.0 ], [ 35.21160794365445, 31.752955665149944, 0.0 ], [ 35.21146531634016, 31.752553845647441, 0.0 ], [ 35.212539992474106, 31.752304074987336, 0.0 ], [ 35.213183964158567, 31.752176931033475, 0.0 ], [ 35.213744223638351, 31.752078377696822, 0.0 ], [ 35.213865580643329, 31.752062813136401, 0.0 ], [ 35.213728210270091, 31.75129930926316, 0.0 ], [ 35.213641873188152, 31.750901935210727, 0.0 ], [ 35.212726144960563, 31.750783195044541, 0.0 ], [ 35.211359749921222, 31.750627602908008, 0.0 ], [ 35.210770051751297, 31.750684076481708, 0.0 ], [ 35.210437649943316, 31.750764207328633, 0.0 ], [ 35.210002979431856, 31.750997281519808, 0.0 ], [ 35.209764345569901, 31.751288613503313, 0.0 ], [ 35.20950867156531, 31.751754737270264, 0.0 ], [ 35.209270039499948, 31.752169878254385, 0.0 ], [ 35.208835364496935, 31.752483065280394, 0.0 ], [ 35.208438949640126, 31.752712952895305, 0.0 ], [ 35.209101511061085, 31.753070675661558, 0.0 ], [ 35.210048181758637, 31.753647361488714, 0.0 ], [ 35.210527679101098, 31.754397035624642, 0.0 ], [ 35.211194199397532, 31.755531786925999, 0.0 ], [ 35.211697679063143, 31.756166745575904, 0.0 ], [ 35.212495224931921, 31.756998044012818, 0.0 ], [ 35.21345748050134, 31.758018338181294, 0.0 ], [ 35.214215092662521, 31.758497596222629, 0.0 ], [ 35.215308397160513, 31.759207407643238, 0.0 ], [ 35.215151278224084, 31.758492805579305, 0.0 ], [ 35.214906619361493, 31.757343703192216, 0.0 ], [ 35.214669172174013, 31.756348226131397, 0.0 ], [ 35.214459278112933, 31.755149960711559, 0.0 ] ] ] } },
{ "type": "Feature", "properties": { "CODE": 712.0, "name": "א.ת. תלפיות", "code": "33", "East_West": "מערב" }, "geometry": { "type": "Polygon", "coordinates": [ [ [ 35.205302627352694, 31.749591575985484, 0.0 ], [ 35.205305112991098, 31.749592507164664, 0.0 ], [ 35.205094245156268, 31.750120265021277, 0.0 ], [ 35.204978316670505, 31.750452972314221, 0.0 ], [ 35.205002468775234, 31.750539228914683, 0.0 ], [ 35.205092224845188, 31.750579121772709, 0.0 ], [ 35.205114338672537, 31.750599607494163, 0.0 ], [ 35.205158075847088, 31.750624515308175, 0.0 ], [ 35.205161263069726, 31.750625399116451, 0.0 ], [ 35.205185587650959, 31.750632146461538, 0.0 ], [ 35.205214969747288, 31.750640297052094, 0.0 ], [ 35.205297424310579, 31.75065833300016, 0.0 ], [ 35.20554618577907, 31.750728363869818, 0.0 ], [ 35.205794036355833, 31.750806326793398, 0.0 ], [ 35.20591682617372, 31.750847714444411, 0.0 ], [ 35.206060793774412, 31.750896187036396, 0.0 ], [ 35.206112410970633, 31.750918732099656, 0.0 ], [ 35.206135993543477, 31.750932259593259, 0.0 ], [ 35.206205587825174, 31.750987089119448, 0.0 ], [ 35.206233290970196, 31.7510089153532, 0.0 ], [ 35.206312779296425, 31.751063024499267, 0.0 ], [ 35.206618822737333, 31.751269686237091, 0.0 ], [ 35.207021590479783, 31.751544648359172, 0.0 ], [ 35.20706214492332, 31.751572553350439, 0.0 ], [ 35.207160268800102, 31.751678518297954, 0.0 ], [ 35.207250887252698, 31.751783208989494, 0.0 ], [ 35.207532731876469, 31.752060315289977, 0.0 ], [ 35.207640418319457, 31.752175985366804, 0.0 ], [ 35.207947069021472, 31.75250536704856, 0.0 ], [ 35.208052188079392, 31.752556678052652, 0.0 ], [ 35.208055133655201, 31.752557073733826, 0.0 ], [ 35.208154119914703, 31.752570380231603, 0.0 ], [ 35.208161778052492, 31.752579104312769, 0.0 ], [ 35.208206090148813, 31.752600503171777, 0.0 ], [ 35.208393957519128, 31.752691225601573, 0.0 ], [ 35.208438949640126, 31.752712952895305, 0.0 ], [ 35.208835364496935, 31.752483065280394, 0.0 ], [ 35.209270039499948, 31.752169878254385, 0.0 ], [ 35.20950867156531, 31.751754737270264, 0.0 ], [ 35.209764345569901, 31.751288613503313, 0.0 ], [ 35.210002979431856, 31.750997281519808, 0.0 ], [ 35.210437649943316, 31.750764207328633, 0.0 ], [ 35.210770051751297, 31.750684076481708, 0.0 ], [ 35.211359749921222, 31.750627602908008, 0.0 ], [ 35.212726144960563, 31.750783195044541, 0.0 ], [ 35.213641873188152, 31.750901935210727, 0.0 ], [ 35.213728210270091, 31.75129930926316, 0.0 ], [ 35.213865580643329, 31.752062813136401, 0.0 ], [ 35.213744223638351, 31.752078377696822, 0.0 ], [ 35.213183964158567, 31.752176931033475, 0.0 ], [ 35.212539992474106, 31.752304074987336, 0.0 ], [ 35.21146531634016, 31.752553845647441, 0.0 ], [ 35.21160794365445, 31.752955665149944, 0.0 ], [ 35.211896167215038, 31.752912873702059, 0.0 ], [ 35.212008898596693, 31.753238179109122, 0.0 ], [ 35.21204531270503, 31.753324591233053, 0.0 ], [ 35.212101947890439, 31.753321132488637, 0.0 ], [ 35.212219293917677, 31.753684066972504, 0.0 ], [ 35.212138388049929, 31.753701352986987, 0.0 ], [ 35.212240411513385, 31.754011759760424, 0.0 ], [ 35.212245227381622, 31.754278043287773, 0.0 ], [ 35.212173334311117, 31.754560722021605, 0.0 ], [ 35.212206907048234, 31.754691814075485, 0.0 ], [ 35.212350750681431, 31.754769641516162, 0.0 ], [ 35.212513761667829, 31.754753244816911, 0.0 ], [ 35.212873348292895, 31.754708158080216, 0.0 ], [ 35.213165818189836, 31.754740911007957, 0.0 ], [ 35.213285736992063, 31.755322633888579, 0.0 ], [ 35.214459278112933, 31.755149960711559, 0.0 ], [ 35.214840442271154, 31.755113058737724, 0.0 ], [ 35.21549098423359, 31.755072840908795, 0.0 ], [ 35.216064242335534, 31.755051500673275, 0.0 ], [ 35.216506536848797, 31.755033025607574, 0.0 ], [ 35.217157382441819, 31.75493771248086, 0.0 ], [ 35.217486318549426, 31.754864276522234, 0.0 ], [ 35.217403572931957, 31.754569322171999, 0.0 ], [ 35.217304885811487, 31.754298349450099, 0.0 ], [ 35.217173351792617, 31.753960986550553, 0.0 ], [ 35.216964717169574, 31.753404880968276, 0.0 ], [ 35.216795655131435, 31.752983961575964, 0.0 ], [ 35.216979934630508, 31.752937855751984, 0.0 ], [ 35.21736017352395, 31.752790337432334, 0.0 ], [ 35.217796138507765, 31.75262323267475, 0.0 ], [ 35.218054473322226, 31.752542105831186, 0.0 ], [ 35.218528063343378, 31.752400794808715, 0.0 ], [ 35.218713360633664, 31.752332587022554, 0.0 ], [ 35.218388886458108, 31.751710519885286, 0.0 ], [ 35.218000436064628, 31.750982374475111, 0.0 ], [ 35.21787964320162, 31.750752492493405, 0.0 ], [ 35.217705506580444, 31.750435496250756, 0.0 ], [ 35.217558184670459, 31.750220206889157, 0.0 ], [ 35.217110401450789, 31.749386062447265, 0.0 ], [ 35.216382119283644, 31.748169411521459, 0.0 ], [ 35.215783313993342, 31.747107141293434, 0.0 ], [ 35.215581008001479, 31.74666241116649, 0.0 ], [ 35.215270785597873, 31.74580059455894, 0.0 ], [ 35.215081031765486, 31.745278616371557, 0.0 ], [ 35.215010632593284, 31.745084960071839, 0.0 ], [ 35.214977737185905, 31.745011006759814, 0.0 ], [ 35.213715565584145, 31.743013364187565, 0.0 ], [ 35.213698968310972, 31.743021039512932, 0.0 ], [ 35.213465123367783, 31.74278666105501, 0.0 ], [ 35.21319719185113, 31.742808361643061, 0.0 ], [ 35.213164973773466, 31.742846717721811, 0.0 ], [ 35.213084559284191, 31.742865333492954, 0.0 ], [ 35.213063003310637, 31.742867778875304, 0.0 ], [ 35.212213390189625, 31.742964176238612, 0.0 ], [ 35.211988898505183, 31.74301859260672, 0.0 ], [ 35.211953883073718, 31.742990040270339, 0.0 ], [ 35.21189585370302, 31.742942720912637, 0.0 ], [ 35.211784166163724, 31.742938908838905, 0.0 ], [ 35.211695925551709, 31.743046018884208, 0.0 ], [ 35.211497150837197, 31.743287301173705, 0.0 ], [ 35.211405553220928, 31.743472308868366, 0.0 ], [ 35.211398236442939, 31.743487087252603, 0.0 ], [ 35.211284701967443, 31.743725547176858, 0.0 ], [ 35.211215935034133, 31.74386269042294, 0.0 ], [ 35.21117163281928, 31.743951043286831, 0.0 ], [ 35.211307635058347, 31.744075264268506, 0.0 ], [ 35.211657521674994, 31.74439483839712, 0.0 ], [ 35.211816691465231, 31.744527259567647, 0.0 ], [ 35.211983045082796, 31.744962701442425, 0.0 ], [ 35.212015743759139, 31.745048293194905, 0.0 ], [ 35.212210488631264, 31.745558049180651, 0.0 ], [ 35.212331954332399, 31.745550882837087, 0.0 ], [ 35.212641900953194, 31.745525808651244, 0.0 ], [ 35.213085864536311, 31.745375452008794, 0.0 ], [ 35.21323664046853, 31.745300278179581, 0.0 ], [ 35.213303653890407, 31.745278798949258, 0.0 ], [ 35.213337167338722, 31.745339642368318, 0.0 ], [ 35.213307863395841, 31.745489970803845, 0.0 ], [ 35.213256518389137, 31.745583843735123, 0.0 ], [ 35.213191604330085, 31.745656625499965, 0.0 ], [ 35.212437704007648, 31.745952557030233, 0.0 ], [ 35.21115885158941, 31.746401225487915, 0.0 ], [ 35.209984030369242, 31.746760173508733, 0.0 ], [ 35.208858099958441, 31.747117794757479, 0.0 ], [ 35.207347963693877, 31.7475971535379, 0.0 ], [ 35.206590490771582, 31.747859357180321, 0.0 ], [ 35.206211754759579, 31.748068295616832, 0.0 ], [ 35.20586657980661, 31.748412422148576, 0.0 ], [ 35.20564605148919, 31.74874835463082, 0.0 ], [ 35.205387169600733, 31.749330088429744, 0.0 ], [ 35.205339038766112, 31.749478955179182, 0.0 ], [ 35.205318433210124, 31.749542687919199, 0.0 ], [ 35.205309283868949, 31.749570987680038, 0.0 ], [ 35.205302627352694, 31.749591575985484, 0.0 ] ] ] } },
{ "type": "Feature", "properties": { "CODE": 708.0, "name": "שיכוני תלפיות", "code": "100", "East_West": "מערב" }, "geometry": { "type": "Polygon", "coordinates": [ [ [ 35.214447247874638, 31.742613676491011, 0.0 ], [ 35.214338666709644, 31.742672582005085, 0.0 ], [ 35.214098104164755, 31.742803089667252, 0.0 ], [ 35.214061265153248, 31.742823075198086, 0.0 ], [ 35.213982037338447, 31.742866056947221, 0.0 ], [ 35.213737859972873, 31.742998525376255, 0.0 ], [ 35.213726010295964, 31.743004953185395, 0.0 ], [ 35.213724834401262, 31.743006549060421, 0.0 ], [ 35.213721367802563, 31.743011381757984, 0.0 ], [ 35.213717970374177, 31.743016251124512, 0.0 ], [ 35.213717698184652, 31.74301674004737, 0.0 ], [ 35.214513318065492, 31.744275975296674, 0.0 ], [ 35.214641190551227, 31.74447835889643, 0.0 ], [ 35.214768068601963, 31.744679167597752, 0.0 ], [ 35.214816008095404, 31.744755040924961, 0.0 ], [ 35.214826644148374, 31.744771872541833, 0.0 ], [ 35.214870101946893, 31.744837865925884, 0.0 ], [ 35.214869614161664, 31.744839882693153, 0.0 ], [ 35.214961898989117, 31.744985939303199, 0.0 ], [ 35.214977737185905, 31.745011007523757, 0.0 ], [ 35.215010632593284, 31.745084960071839, 0.0 ], [ 35.215081031765486, 31.745278616371557, 0.0 ], [ 35.215177858474995, 31.745544969323635, 0.0 ], [ 35.215270785597873, 31.74580059455894, 0.0 ], [ 35.215581008001479, 31.74666241116649, 0.0 ], [ 35.215783313993342, 31.747107141293434, 0.0 ], [ 35.216382119283644, 31.748169411521459, 0.0 ], [ 35.217110401450789, 31.749386062447265, 0.0 ], [ 35.217558184670459, 31.750220206889157, 0.0 ], [ 35.217705506580444, 31.750435496250756, 0.0 ], [ 35.21787964320162, 31.750752492493405, 0.0 ], [ 35.218000436064628, 31.750982374475111, 0.0 ], [ 35.218388886458108, 31.751710519885286, 0.0 ], [ 35.218713360633664, 31.752332587022554, 0.0 ], [ 35.218528063343378, 31.752400794808715, 0.0 ], [ 35.218054473322226, 31.752542105831186, 0.0 ], [ 35.217796138507765, 31.75262323267475, 0.0 ], [ 35.21736017352395, 31.752790337432334, 0.0 ], [ 35.216979934630508, 31.752937855751984, 0.0 ], [ 35.216795655131435, 31.752983961575964, 0.0 ], [ 35.216964717169574, 31.753404880968276, 0.0 ], [ 35.217173351792617, 31.753960986550553, 0.0 ], [ 35.217304885811487, 31.754298349450099, 0.0 ], [ 35.217403572931957, 31.754569322171999, 0.0 ], [ 35.217486318549426, 31.754864276522234, 0.0 ], [ 35.217811500597428, 31.754780143621158, 0.0 ], [ 35.21807070947267, 31.754704106643302, 0.0 ], [ 35.219097725489213, 31.754331561595912, 0.0 ], [ 35.219713936536472, 31.754123213236589, 0.0 ], [ 35.220237035407884, 31.753959188443599, 0.0 ], [ 35.220451010515276, 31.753895535892795, 0.0 ], [ 35.220234248833854, 31.753521922013263, 0.0 ], [ 35.220068868091751, 31.753117618608567, 0.0 ], [ 35.219924159380952, 31.752836363888257, 0.0 ], [ 35.219758779537145, 31.752371788574013, 0.0 ], [ 35.219673135056269, 31.752067929519971, 0.0 ], [ 35.219404390564279, 31.751347203366702, 0.0 ], [ 35.219052956150399, 31.750478305649121, 0.0 ], [ 35.218586022645511, 31.749207960683162, 0.0 ], [ 35.218357461592809, 31.748767202203478, 0.0 ], [ 35.217884805819573, 31.747855722534243, 0.0 ], [ 35.217242385525601, 31.746600681714138, 0.0 ], [ 35.216833359220544, 31.745801515081375, 0.0 ], [ 35.216115325034146, 31.74460694273278, 0.0 ], [ 35.216088847191166, 31.744562893054582, 0.0 ], [ 35.216088371084034, 31.744562102387789, 0.0 ], [ 35.216087791670709, 31.74456114060084, 0.0 ], [ 35.216222390741308, 31.744508238483853, 0.0 ], [ 35.216309424915927, 31.744620234330611, 0.0 ], [ 35.216604755048721, 31.744498004880921, 0.0 ], [ 35.216486697555766, 31.744305667786172, 0.0 ], [ 35.216487891416783, 31.744304945871033, 0.0 ], [ 35.216475451546707, 31.744286669574862, 0.0 ], [ 35.216471246532862, 31.744280495479984, 0.0 ], [ 35.216434355419089, 31.744220393907039, 0.0 ], [ 35.216312933735416, 31.744022575011499, 0.0 ], [ 35.216280429993475, 31.743969619875369, 0.0 ], [ 35.215753480044434, 31.743111114339296, 0.0 ], [ 35.215621022557492, 31.742895313677316, 0.0 ], [ 35.215504699711339, 31.742705799849002, 0.0 ], [ 35.215446186148704, 31.742610469448458, 0.0 ], [ 35.215396175140192, 31.742528991584219, 0.0 ], [ 35.215395847255117, 31.742528454530113, 0.0 ], [ 35.215378373226216, 31.742528130617028, 0.0 ], [ 35.215308825656898, 31.742519388782043, 0.0 ], [ 35.215299474194808, 31.742516514052785, 0.0 ], [ 35.215257218342146, 31.742503520856058, 0.0 ], [ 35.215150523639217, 31.742489371042669, 0.0 ], [ 35.215145628719227, 31.742489670509645, 0.0 ], [ 35.215080199925538, 31.742463046211345, 0.0 ], [ 35.215080150518197, 31.742463022528998, 0.0 ], [ 35.215017987100524, 31.742431286654874, 0.0 ], [ 35.21501790355719, 31.742431238526262, 0.0 ], [ 35.214959540911501, 31.742394674495451, 0.0 ], [ 35.214959469944596, 31.742394622547028, 0.0 ], [ 35.214905377889771, 31.742353529821226, 0.0 ], [ 35.214905346448745, 31.742353502319162, 0.0 ], [ 35.214855976837363, 31.742308213973562, 0.0 ], [ 35.214811784216955, 31.742259138714477, 0.0 ], [ 35.214811736606237, 31.742259078362569, 0.0 ], [ 35.214773179117621, 31.742206728793317, 0.0 ], [ 35.214773130608577, 31.742206650106635, 0.0 ], [ 35.214740506492426, 31.742151450977513, 0.0 ], [ 35.214740484034529, 31.742151404376624, 0.0 ], [ 35.214714055598854, 31.742093794189596, 0.0 ], [ 35.214676218559113, 31.741998322592252, 0.0 ], [ 35.214487891251345, 31.74152312435595, 0.0 ], [ 35.214275819674043, 31.740988010236602, 0.0 ], [ 35.214085310358463, 31.741043147414498, 0.0 ], [ 35.214059884442683, 31.741090347801347, 0.0 ], [ 35.21402857186682, 31.741134888063986, 0.0 ], [ 35.213993815150161, 31.741171550378667, 0.0 ], [ 35.21393365767053, 31.741227876928036, 0.0 ], [ 35.213948926335398, 31.741252562659632, 0.0 ], [ 35.213909315122955, 31.74128325766517, 0.0 ], [ 35.213935542335975, 31.741331415930365, 0.0 ], [ 35.213968029009912, 31.741391065588605, 0.0 ], [ 35.213928366593493, 31.741334270069594, 0.0 ], [ 35.213960758045999, 31.741393747836071, 0.0 ], [ 35.214164165372438, 31.741829690317235, 0.0 ], [ 35.214194682040933, 31.741859849601511, 0.0 ], [ 35.21441730343296, 31.7421687429648, 0.0 ], [ 35.214458348356608, 31.742296371253239, 0.0 ], [ 35.214534668324838, 31.742408129131476, 0.0 ], [ 35.214623881812351, 31.742541144436856, 0.0 ], [ 35.214635107160113, 31.742559265232597, 0.0 ], [ 35.214447247874638, 31.742613676491011, 0.0 ] ] ] } }
]
}
