{
  "type": "FeatureCollection",
  "features": [
    {
      "type": "Feature",
      "properties": {
        "id": 142001,
        "שם_פרוייקט": "הוספת תחנת אוטובוס",
        "שכונה": "ח-ט",
        "גוש": 30200,
        "חלקה": 42,
        "מהות": "תחנה חדשה",
        "פירוט": "הוספת תחנת אוטובוס",
        "חומש": "1 - 2025-2030",
        "שנת_תכנון": 2025,
        "שנת_ביצוע": null,
        "סטטוס": "טרום תכנון",
        "לינק_1": "",
        "לינק_2": "",
        "הערות": "",
        "תאריך": "",
        "גורם_מנהל": ""
      },
      "geometry": {
        "type": "Point",
        "coordinates": [
          35.1964965,
          31.7529949
        ]
      }
    },
    {
      "type": "Feature",
      "properties": {
        "id": 142002,
        "שם_פרוייקט": "הוספת תחנת אוטובוס",
        "שכונה": "ח-ט",
        "גוש": 30200,
        "חלקה": 42,
        "מהות": "תחנה חדשה",
        "פירוט": "הוספת תחנת אוטובוס",
        "חומש": "1 - 2025-2030",
        "שנת_תכנון": 2025,
        "שנת_ביצוע": null,
        "סטטוס": "טרום תכנון",
        "לינק_1": "",
        "לינק_2": "",
        "הערות": "",
        "תאריך": "",
        "גורם_מנהל": ""
      },
      "geometry": {
        "type": "Point",
        "coordinates": [
          35.1964519,
          31.7532787
        ]
      }
    },
    {
      "type": "Feature",
      "properties": {
        "id": 142003,
        "שם_פרוייקט": "הוספת תחנת אוטובוס",
        "שכונה": "ח-ט",
        "גוש": 30199,
        "חלקה": 95,
        "מהות": "תחנה חדשה",
        "פירוט": "הוספת תחנת אוטובוס",
        "חומש": "1 - 2025-2030",
        "שנת_תכנון": 2025,
        "שנת_ביצוע": null,
        "סטטוס": "טרום תכנון",
        "לינק_1": "",
        "לינק_2": "",
        "הערות": "",
        "תאריך": "",
        "גורם_מנהל": ""
      },
      "geometry": {
        "type": "Point",
        "coordinates": [
          35.193961,
          31.7529674
        ]
      }
    },
    {
      "type": "Feature",
      "properties": {
        "id": 142004,
        "שם_פרוייקט": "הוספת תחנת אוטובוס",
        "שכונה": "ח-ט",
        "גוש": 30199,
        "חלקה": 95,
        "מהות": "תחנה חדשה",
        "פירוט": "הוספת תחנת אוטובוס",
        "חומש": "1 - 2025-2030",
        "שנת_תכנון": 2025,
        "שנת_ביצוע": null,
        "סטטוס": "טרום תכנון",
        "לינק_1": "",
        "לינק_2": "",
        "הערות": "",
        "תאריך": "",
        "גורם_מנהל": ""
      },
      "geometry": {
        "type": "Point",
        "coordinates": [
          35.1940757,
          31.7527391
        ]
      }
    },
    {
      "type": "Feature",
      "properties": {
        "id": 142005,
        "שם_פרוייקט": "הוספת תחנת אוטובוס",
        "שכונה": "ח-ט",
        "גוש": 30169,
        "חלקה": 171,
        "מהות": "תחנה חדשה",
        "פירוט": "הוספת תחנת אוטובוס",
        "חומש": "1 - 2025-2030",
        "שנת_תכנון": 2025,
        "שנת_ביצוע": null,
        "סטטוס": "טרום תכנון",
        "לינק_1": "",
        "לינק_2": "",
        "הערות": "",
        "תאריך": "",
        "גורם_מנהל": ""
      },
      "geometry": {
        "type": "Point",
        "coordinates": [
          35.19901,
          31.7544518
        ]
      }
    },
    {
      "type": "Feature",
      "properties": {
        "id": 142006,
        "שם_פרוייקט": "הוספת תחנת אוטובוס",
        "שכונה": "ח-ט",
        "גוש": 30169,
        "חלקה": 85,
        "מהות": "תחנה חדשה",
        "פירוט": "הוספת תחנת אוטובוס",
        "חומש": "1 - 2025-2030",
        "שנת_תכנון": 2025,
        "שנת_ביצוע": null,
        "סטטוס": "טרום תכנון",
        "לינק_1": "",
        "לינק_2": "",
        "הערות": "",
        "תאריך": "",
        "גורם_מנהל": ""
      },
      "geometry": {
        "type": "Point",
        "coordinates": [
          35.1990079,
          31.7541744
        ]
      }
    },
    {
      "type": "Feature",
      "properties": {
        "id": 142007,
        "שם_פרוייקט": "הוספת תחנת אוטובוס",
        "שכונה": "ח-ט",
        "גוש": 30169,
        "חלקה": null,
        "מהות": "תחנה חדשה",
        "פירוט": "הוספת תחנת אוטובוס",
        "חומש": "1 - 2025-2030",
        "שנת_תכנון": 2025,
        "שנת_ביצוע": null,
        "סטטוס": "טרום תכנון",
        "לינק_1": "",
        "לינק_2": "",
        "הערות": "",
        "תאריך": "",
        "גורם_מנהל": ""
      },
      "geometry": {
        "type": "Point",
        "coordinates": [
          35.1982079,
          31.7554855
        ]
      }
    },
    {
      "type": "Feature",
      "properties": {
        "id": 142008,
        "שם_פרוייקט": "הוספת תחנת אוטובוס",
        "שכונה": "ח-ט",
        "גוש": 30169,
        "חלקה": 62,
        "מהות": "תחנה חדשה",
        "פירוט": "הוספת תחנת אוטובוס",
        "חומש": "1 - 2025-2030",
        "שנת_תכנון": 2025,
        "שנת_ביצוע": null,
        "סטטוס": "טרום תכנון",
        "לינק_1": "",
        "לינק_2": "",
        "הערות": "",
        "תאריך": "",
        "גורם_מנהל": ""
      },
      "geometry": {
        "type": "Point",
        "coordinates": [
          35.1975329,
          31.7542213
        ]
      }
    },
    {
      "type": "Feature",
      "properties": {
        "id": 142009,
        "שם_פרוייקט": "הוספת תחנת אוטובוס",
        "שכונה": "ח-ט",
        "גוש": 30169,
        "חלקה": 95,
        "מהות": "תחנה חדשה",
        "פירוט": "הוספת תחנת אוטובוס",
        "חומש": "1 - 2025-2030",
        "שנת_תכנון": 2025,
        "שנת_ביצוע": null,
        "סטטוס": "טרום תכנון",
        "לינק_1": "",
        "לינק_2": "",
        "הערות": "",
        "תאריך": "",
        "גורם_מנהל": ""
      },
      "geometry": {
        "type": "Point",
        "coordinates": [
          35.1953182,
          31.7532735
        ]
      }
    },
    {
      "type": "Feature",
      "properties": {
        "id": 142010,
        "שם_פרוייקט": "הוספת תחנת אוטובוס",
        "שכונה": "ח-ט",
        "גוש": 30199,
        "חלקה": null,
        "מהות": "תחנה חדשה",
        "פירוט": "הוספת תחנת אוטובוס",
        "חומש": "1 - 2025-2030",
        "שנת_תכנון": 2025,
        "שנת_ביצוע": null,
        "סטטוס": "טרום תכנון",
        "לינק_1": "",
        "לינק_2": "",
        "הערות": "",
        "תאריך": "",
        "גורם_מנהל": ""
      },
      "geometry": {
        "type": "Point",
        "coordinates": [
          35.1938025,
          31.7533722
        ]
      }
    },
    {
      "type": "Feature",
      "properties": {
        "id": 142011,
        "שם_פרוייקט": "הוספת תחנת אוטובוס",
        "שכונה": "ח-ט",
        "גוש": null,
        "חלקה": null,
        "מהות": "תחנה חדשה",
        "פירוט": "הוספת תחנת אוטובוס",
        "חומש": "1 - 2025-2030",
        "שנת_תכנון": 2025,
        "שנת_ביצוע": null,
        "סטטוס": "טרום תכנון",
        "לינק_1": "",
        "לינק_2": "",
        "הערות": "",
        "תאריך": "",
        "גורם_מנהל": ""
      },
      "geometry": {
        "type": "Point",
        "coordinates": [
          35.1940133,
          31.7560121
        ]
      }
    },
    {
      "type": "Feature",
      "properties": {
        "id": 142012,
        "שם_פרוייקט": "הוספת תחנת אוטובוס",
        "שכונה": "ח-ט",
        "גוש": 30199,
        "חלקה": 95,
        "מהות": "תחנה חדשה",
        "פירוט": "הוספת תחנת אוטובוס",
        "חומש": "1 - 2025-2030",
        "שנת_תכנון": 2025,
        "שנת_ביצוע": null,
        "סטטוס": "טרום תכנון",
        "לינק_1": "",
        "לינק_2": "",
        "הערות": "",
        "תאריך": "",
        "גורם_מנהל": ""
      },
      "geometry": {
        "type": "Point",
        "coordinates": [
          35.192901,
          31.754993
        ]
      }
    },
    {
      "type": "Feature",
      "properties": {
        "id": 142013,
        "שם_פרוייקט": "הוספת תחנת אוטובוס",
        "שכונה": "ח-ט",
        "גוש": 30199,
        "חלקה": 95,
        "מהות": "תחנה חדשה",
        "פירוט": "הוספת תחנת אוטובוס",
        "חומש": "1 - 2025-2030",
        "שנת_תכנון": 2025,
        "שנת_ביצוע": null,
        "סטטוס": "טרום תכנון",
        "לינק_1": "",
        "לינק_2": "",
        "הערות": "",
        "תאריך": "",
        "גורם_מנהל": ""
      },
      "geometry": {
        "type": "Point",
        "coordinates": [
          35.1924617,
          31.7548448
        ]
      }
    },
    {
      "type": "Feature",
      "properties": {
        "id": 142014,
        "שם_פרוייקט": "הוספת תחנת אוטובוס",
        "שכונה": "ח-ט",
        "גוש": 30199,
        "חלקה": 76,
        "מהות": "תחנה חדשה",
        "פירוט": "הוספת תחנת אוטובוס",
        "חומש": "1 - 2025-2030",
        "שנת_תכנון": 2025,
        "שנת_ביצוע": null,
        "סטטוס": "טרום תכנון",
        "לינק_1": "",
        "לינק_2": "",
        "הערות": "",
        "תאריך": "",
        "גורם_מנהל": ""
      },
      "geometry": {
        "type": "Point",
        "coordinates": [
          35.1919549,
          31.7521185
        ]
      }
    },
    {
      "type": "Feature",
      "properties": {
        "id": 142015,
        "שם_פרוייקט": "הוספת תחנת אוטובוס",
        "שכונה": "ח-ט",
        "גוש": 30199,
        "חלקה": 76,
        "מהות": "תחנה חדשה",
        "פירוט": "הוספת תחנת אוטובוס",
        "חומש": "1 - 2025-2030",
        "שנת_תכנון": 2025,
        "שנת_ביצוע": null,
        "סטטוס": "טרום תכנון",
        "לינק_1": "",
        "לינק_2": "",
        "הערות": "",
        "תאריך": "",
        "גורם_מנהל": ""
      },
      "geometry": {
        "type": "Point",
        "coordinates": [
          35.1921379,
          31.7514981
        ]
      }
    },
    {
      "type": "Feature",
      "properties": {
        "id": 142016,
        "שם_פרוייקט": "הוספת תחנת אוטובוס",
        "שכונה": "א-ו",
        "גוש": 30143,
        "חלקה": 136,
        "מהות": "תחנה חדשה",
        "פירוט": "הוספת תחנות לאחר חיבור אליעזר הגדול לכביש הברך והלשמתו כציר תחצ",
        "חומש": "2 - 2031-2036",
        "שנת_תכנון": 2025,
        "שנת_ביצוע": null,
        "סטטוס": "טרום תכנון",
        "לינק_1": "",
        "לינק_2": "",
        "הערות": "",
        "תאריך": "",
        "גורם_מנהל": ""
      },
      "geometry": {
        "type": "Point",
        "coordinates": [
          35.2050731,
          31.7548171
        ]
      }
    },
    {
      "type": "Feature",
      "properties": {
        "id": 142017,
        "שם_פרוייקט": "הוספת תחנת אוטובוס",
        "שכונה": "א-ו",
        "גוש": 30143,
        "חלקה": 136,
        "מהות": "תחנה חדשה",
        "פירוט": "הוספת תחנות לאחר חיבור אליעזר הגדול לכביש הברך והלשמתו כציר תחצ",
        "חומש": "2 - 2031-2036",
        "שנת_תכנון": 2025,
        "שנת_ביצוע": null,
        "סטטוס": "טרום תכנון",
        "לינק_1": "",
        "לינק_2": "",
        "הערות": "",
        "תאריך": "",
        "גורם_מנהל": ""
      },
      "geometry": {
        "type": "Point",
        "coordinates": [
          35.2057433,
          31.7543421
        ]
      }
    },
    {
      "type": "Feature",
      "properties": {
        "id": 142018,
        "שם_פרוייקט": "הוספת תחנת אוטובוס",
        "שכונה": "א-ו",
        "גוש": 30131,
        "חלקה": 332,
        "מהות": "תחנה חדשה",
        "פירוט": "הוספת תחנות לאחר חיבור אליעזר הגדול לכביש הברך והלשמתו כציר תחצ",
        "חומש": "2 - 2031-2036",
        "שנת_תכנון": 2025,
        "שנת_ביצוע": null,
        "סטטוס": "טרום תכנון",
        "לינק_1": "",
        "לינק_2": "",
        "הערות": "",
        "תאריך": "",
        "גורם_מנהל": ""
      },
      "geometry": {
        "type": "Point",
        "coordinates": [
          35.2096506,
          31.7515761
        ]
      }
    }
  ]
}