{"type":"FeatureCollection","meta":{"built_at":"2026-08-13","source_refresh":"2026-07-05","public_assets":78,"infra_excluded":70,"city_owned_excluded":7,"nonconforming":13,"tenure":{"חכירה":29,"שכירות":49},"by_domain":{"חינוך":24,"חירום":9,"קהילה ותרבות":8,"מנהל ומשרדים":8,"שטח פתוח":7,"דת":6,"רווחה":6,"other":3,"מסחר":2,"ספורט":2,"מגורים":2,"בריאות":1}},"features":[{"type":"Feature","geometry":{"type":"Point","coordinates":[35.2085673,31.7484102]},"properties":{"asset_id":10821,"name":"שיטור עירוני - מגרש החרמות","use":"משרדים","domain":"admin","tenure":"שכירות","state":"פעיל","owner":"חברה","status":"נחתם חוזה לשכירת נכס","status_date":"2021-12-16","opened":"2021-09-09","built_sqm":280,"neighborhood":"תלפיות תעשיה","parcels":["30142/24"],"allocations":[],"zoning":"אזור תעשיה","residential":false,"nonconforming":false,"pikuach":null,"domain_label":"מנהל ומשרדים","address":"הרכב 42"}},{"type":"Feature","geometry":{"type":"Point","coordinates":[35.2164233,31.7546011]},"properties":{"asset_id":11173,"name":"מבנה שכור לקבוצות תיאטרון ומחול","use":"משרדים","domain":"admin","tenure":"שכירות","state":"בתהליך","owner":"פרטי","status":"תחילת תהליך שכירת נכס","status_date":"2022-11-27","opened":"2022-11-27","built_sqm":1000,"neighborhood":"תלפיות תעשיה","parcels":["30002/46"],"allocations":[{"org":"תיאטרון קוקמקום","use":"תיאטרון","active":1,"semel":"0"},{"org":"קטמון קבוצת מחול בירושלים","use":"אומנויות","active":1,"semel":"0"}],"zoning":"אזור תעשיה","residential":false,"nonconforming":false,"pikuach":null,"domain_label":"מנהל ומשרדים","address":"יד חרוצים 4"}},{"type":"Feature","geometry":{"type":"Point","coordinates":[35.2159298,31.7501619]},"properties":{"asset_id":11424,"name":"משל\"ט - יחידה טכנולוגית","use":"משרדים","domain":"admin","tenure":"שכירות","state":"פעיל","owner":"חברה","status":"נחתם חוזה לשכירת נכס","status_date":"2023-06-06","opened":"2023-05-24","built_sqm":251,"neighborhood":"תלפיות תעשיה","parcels":["30187/19","30187/21","30187/23","30187/45"],"allocations":[],"zoning":"אזור תעשיה","residential":false,"nonconforming":false,"pikuach":null,"domain_label":"מנהל ומשרדים","address":"הסדנא 4"}},{"type":"Feature","geometry":{"type":"Point","coordinates":[35.2234421,31.7475484]},"properties":{"asset_id":11674,"name":"כפר עציון 6","use":"משרדים","domain":"admin","tenure":"שכירות","state":"בתהליך","owner":"חברה","status":"תחילת תהליך שכירת נכס","status_date":"2023-08-27","opened":"2023-08-27","built_sqm":0,"neighborhood":"תלפיות","parcels":["30118/70","30118/71","30118/72","30118/77","30118/96","30118/98"],"allocations":[],"zoning":"2 מגורים","residential":true,"nonconforming":true,"pikuach":null,"domain_label":"מנהל ומשרדים","address":"כפר עציון 6"}},{"type":"Feature","geometry":{"type":"Point","coordinates":[35.19518,31.7564296]},"properties":{"asset_id":6115,"name":"מנהל רובע מערב הפיקוח העירוני ופיקוח עירוני","use":"משרדים","domain":"admin","tenure":"שכירות","state":"פעיל","owner":"רשות הפיתוח","status":"נחתם חוזה שכירה/חכירה","status_date":"2010-12-30","opened":null,"built_sqm":0,"neighborhood":"גוננים","parcels":["30169/9"],"allocations":[],"zoning":"מגורים ד'","residential":true,"nonconforming":true,"pikuach":null,"domain_label":"מנהל ומשרדים","address":"חוסה דה סן מרטין 1"}},{"type":"Feature","geometry":{"type":"Point","coordinates":[35.2135755,31.7522735]},"properties":{"asset_id":8604,"name":"מנהלת הרובעים","use":"משרדים","domain":"admin","tenure":"שכירות","state":"פעיל","owner":"פרטי","status":"נחתם חוזה לשכירת נכס","status_date":"2024-01-01","opened":null,"built_sqm":0,"neighborhood":"תלפיות תעשיה","parcels":["30130/327"],"allocations":[],"zoning":"אזור תעשיה","residential":false,"nonconforming":false,"pikuach":null,"domain_label":"מנהל ומשרדים","address":"גנרל פייר קניג 32"}},{"type":"Feature","geometry":{"type":"Point","coordinates":[35.2162931,31.7500107]},"properties":{"asset_id":9659,"name":"אגף אכיפה ושיטור","use":"משרדים","domain":"admin","tenure":"שכירות","state":"פעיל","owner":"פרטי","status":"נחתם חוזה לשכירת נכס","status_date":"2022-09-01","opened":null,"built_sqm":425,"neighborhood":"תלפיות תעשיה","parcels":["30187/21"],"allocations":[],"zoning":"אזור תעשיה","residential":false,"nonconforming":false,"pikuach":null,"domain_label":"מנהל ומשרדים","address":"הסדנא 4"}},{"type":"Feature","geometry":{"type":"Point","coordinates":[35.2162931,31.7500107]},"properties":{"asset_id":9881,"name":"משל\"ט פיקוח עירוני","use":"משרדים","domain":"admin","tenure":"שכירות","state":"פעיל","owner":"חברה","status":"נחתם חוזה לשכירת נכס","status_date":"2024-08-10","opened":null,"built_sqm":339,"neighborhood":"תלפיות תעשיה","parcels":["30187/21"],"allocations":[],"zoning":"אזור תעשיה","residential":false,"nonconforming":false,"pikuach":null,"domain_label":"מנהל ומשרדים","address":"הסדנא 4"}},{"type":"Feature","geometry":{"type":"Point","coordinates":[35.2066847,31.7572425]},"properties":{"asset_id":1208,"name":"קיוסק נחום משה ובניו","use":"קיוסק","domain":"commerce","tenure":"שכירות","state":"פעיל","owner":"מנהל מקרקעי ישראל","status":"נחתם חוזה שכירה/חכירה","status_date":"1978-09-19","opened":null,"built_sqm":58.5,"neighborhood":"גוננים","parcels":["30133/29"],"allocations":[{"org":"משה נחום","use":"קיוסק","active":1,"semel":"0"}],"zoning":"מגורים 5 מיוחד","residential":true,"nonconforming":false,"pikuach":null,"domain_label":"מסחר","address":"רבן יוחנן בן זכאי 39"}},{"type":"Feature","geometry":{"type":"Point","coordinates":[35.1957383,31.7539178]},"properties":{"asset_id":1655,"name":"חנות לפירות וירקות","use":"חנות","domain":"commerce","tenure":"שכירות","state":"פעיל","owner":"רשות הפיתוח","status":"נחתם חוזה שכירה/חכירה","status_date":"1980-12-16","opened":null,"built_sqm":15.3,"neighborhood":"גוננים","parcels":["30169/176"],"allocations":[],"zoning":"מגורים ומבנים ומוסדו","residential":true,"nonconforming":false,"pikuach":null,"domain_label":"מסחר","address":"שדה יצחק 17"}},{"type":"Feature","geometry":{"type":"Point","coordinates":[35.2291058,31.7668894]},"properties":{"asset_id":13797,"name":"דרך חברון 11 סינימטק","use":"ספריה","domain":"community","tenure":"שכירות","state":"פעיל","owner":"חברה","status":"נחתם חוזה לשכירת נכס","status_date":"2026-03-12","opened":"2025-08-04","built_sqm":137,"neighborhood":"גבעת אליהו - מר אליאס","parcels":["30020/137"],"allocations":[],"zoning":"4 מגורים","residential":true,"nonconforming":true,"pikuach":null,"domain_label":"קהילה ותרבות","address":"דרך חברון 11"}},{"type":"Feature","geometry":{"type":"Point","coordinates":[35.2086479,31.7518633]},"properties":{"asset_id":14798,"name":"האומן 18 שירותי קהילה","use":"משרדים","domain":"community","tenure":"שכירות","state":"בתהליך","owner":"חברה","status":"תחילת תהליך שכירת נכס","status_date":"2026-04-23","opened":"2026-04-27","built_sqm":0,"neighborhood":"תלפיות תעשיה","parcels":["30131/10","30131/11","30131/12","30131/13","30131/62","30131/64"],"allocations":[],"zoning":"אזור מסחרי","residential":false,"nonconforming":false,"pikuach":null,"domain_label":"קהילה ותרבות","address":"האומן 18"}},{"type":"Feature","geometry":{"type":"Point","coordinates":[35.2246951,31.7732251]},"properties":{"asset_id":4351,"name":"מקלט ציבורי מס' 833 + תכנית אמנות בקהילה","use":"מקלט צבורי","domain":"community","tenure":"שכירות","state":"פעיל","owner":"פרטי","status":"נחתם חוזה לשכירת נכס","status_date":"2012-10-15","opened":null,"built_sqm":200,"neighborhood":"ימין משה","parcels":["30030/27","30030/28"],"allocations":[],"zoning":"מגורים מיוחד לשימור","residential":true,"nonconforming":true,"pikuach":null,"domain_label":"קהילה ותרבות","address":"התקוה 21"}},{"type":"Feature","geometry":{"type":"Point","coordinates":[35.2044122,31.7690665]},"properties":{"asset_id":5351,"name":"קרקע לבנין ציבורי (לשימוש מועדון נוער ע''ש עזרא)","use":"קרקע לבניין ציבורי","domain":"community","tenure":"שכירות","state":"פעיל","owner":"הפאטריארכיה היוונית","status":"נחתם חוזה שכירה/חכירה","status_date":"1992-07-29","opened":null,"built_sqm":0,"neighborhood":"נוה שאנן/ניות","parcels":["30145/25"],"allocations":[],"zoning":null,"residential":false,"nonconforming":false,"pikuach":null,"domain_label":"קהילה ותרבות","address":"יהושע ה. ייבין"}},{"type":"Feature","geometry":{"type":"Point","coordinates":[35.1954527,31.7546673]},"properties":{"asset_id":8193,"name":"תנועת נוער \"השומר הצעיר\" ומכולת","use":"תנועת נוער","domain":"community","tenure":"חכירה","state":"בתהליך","owner":"מדינת ישראל","status":"החל תהליך חכירת נכס","status_date":"2023-07-13","opened":null,"built_sqm":0,"neighborhood":"גוננים","parcels":["30169/28"],"allocations":[{"org":"הסתדרות השומר הצעיר בישראל","use":"תנועת נוער","active":1,"semel":"80210"}],"zoning":"שטח לבנין ציבורי","residential":false,"nonconforming":false,"pikuach":null,"domain_label":"קהילה ותרבות","address":"מרגולין 3"}},{"type":"Feature","geometry":{"type":"Point","coordinates":[35.1968076,31.7527544]},"properties":{"asset_id":9767,"name":"מרכז להעצמה נשית ( לרבות קידום מנהיגות נשית )","use":"מנהל קהילתי – אגף חברה","domain":"community","tenure":"שכירות","state":"פעיל","owner":"מדינת ישראל","status":"נחתם חוזה לשכירת נכס","status_date":"2017-06-18","opened":null,"built_sqm":0,"neighborhood":"גוננים","parcels":["30200/12"],"allocations":[],"zoning":"יעוד עפ\"י תכנית מאוש","residential":false,"nonconforming":false,"pikuach":null,"domain_label":"קהילה ותרבות","address":"בר יוחאי 9"}},{"type":"Feature","geometry":{"type":"Point","coordinates":[35.2151078,31.7539624]},"properties":{"asset_id":9785,"name":"מרכז טיפול לנוער","use":"משרדים","domain":"community","tenure":"שכירות","state":"פעיל","owner":"חברה","status":"נחתם חוזה לשכירת נכס","status_date":"2024-07-18","opened":null,"built_sqm":450,"neighborhood":"תלפיות תעשיה","parcels":["30002/51"],"allocations":[],"zoning":"אזור תעשיה","residential":false,"nonconforming":false,"pikuach":null,"domain_label":"קהילה ותרבות","address":"גנרל פייר קניג 33"}},{"type":"Feature","geometry":{"type":"Point","coordinates":[35.2151078,31.7539624]},"properties":{"asset_id":9907,"name":"מרכז תמר","use":"משרדים","domain":"community","tenure":"שכירות","state":"פעיל","owner":"חברה","status":"נחתם חוזה לשכירת נכס","status_date":"2019-05-07","opened":null,"built_sqm":470,"neighborhood":"תלפיות תעשיה","parcels":["30002/51"],"allocations":[],"zoning":"אזור תעשיה","residential":false,"nonconforming":false,"pikuach":null,"domain_label":"קהילה ותרבות","address":"גנרל פייר קניג 33"}},{"type":"Feature","geometry":{"type":"Point","coordinates":[35.2224985,31.7523576]},"properties":{"asset_id":1033,"name":"גן ילדים עירוני \"החורשה\"","use":"גן ילדים","domain":"education","tenure":"חכירה","state":"בתהליך","owner":"קרן קיימת לישראל","status":"החל תהליך חכירת נכס","status_date":"2023-07-04","opened":null,"built_sqm":0,"neighborhood":"תלפיות","parcels":["30115/44"],"allocations":[],"zoning":"שטח לבנין ציבורי","residential":false,"nonconforming":false,"pikuach":["ממלכתי דתי"],"domain_label":"חינוך","address":"ברזילי 4"}},{"type":"Feature","geometry":{"type":"Point","coordinates":[35.2037915,31.7702405]},"properties":{"asset_id":10373,"name":"גן ילדים  ופעילות קהילתית","use":"מנהל קהילתי – אגף חברה","domain":"education","tenure":"שכירות","state":"פעיל","owner":"חברה","status":"נחתם חוזה לשכירת נכס","status_date":"2023-08-14","opened":null,"built_sqm":170,"neighborhood":"ניות","parcels":["30146/56"],"allocations":[],"zoning":"מוסד","residential":false,"nonconforming":false,"pikuach":null,"domain_label":"חינוך","address":"אברהם גרנות 4"}},{"type":"Feature","geometry":{"type":"Point","coordinates":[35.2092754,31.7654758]},"properties":{"asset_id":104,"name":"גן ילדים יעל וגן ילדים גולן","use":"גן ילדים","domain":"education","tenure":"חכירה","state":"פעיל","owner":"רשות הפיתוח","status":"נחתם חוזה חכירה","status_date":"2017-01-01","opened":null,"built_sqm":186.3,"neighborhood":"גוננים","parcels":["30007/22","30007/23","30007/24"],"allocations":[],"zoning":"מגורים 1 מיוחד","residential":true,"nonconforming":true,"pikuach":["ממלכתי דתי"],"domain_label":"חינוך","address":"הפורצים 21"}},{"type":"Feature","geometry":{"type":"Point","coordinates":[35.2144266,31.76408]},"properties":{"asset_id":10508,"name":"הרטמן בנות","use":"בית ספר","domain":"education","tenure":"שכירות","state":"פעיל","owner":"פרטי","status":"נחתם חוזה לשכירת נכס","status_date":"2021-06-17","opened":"2020-10-12","built_sqm":1320,"neighborhood":"קטמון הישנה","parcels":["30009/73","30009/74"],"allocations":[{"org":"מכון שלום הרטמן","use":"בתי ספר תיכוניים","active":1,"semel":"0"}],"zoning":"מגורים 1 מיוחד","residential":true,"nonconforming":true,"pikuach":["ממלכתי דתי"],"domain_label":"חינוך","address":"רחל אמנו 20"}},{"type":"Feature","geometry":{"type":"Point","coordinates":[35.2095472,31.7790478]},"properties":{"asset_id":10745,"name":"בית בלב","use":"גן ילדים","domain":"education","tenure":"שכירות","state":"פעיל","owner":"חברה","status":"נחתם חוזה לשכירת נכס","status_date":"2021-09-13","opened":"2021-04-27","built_sqm":273,"neighborhood":"רחביה","parcels":["30040/86"],"allocations":[],"zoning":"2 מגורים","residential":true,"nonconforming":true,"pikuach":null,"domain_label":"חינוך","address":"שד בן צבי יצחק 35"}},{"type":"Feature","geometry":{"type":"Point","coordinates":[35.2140778,31.764279]},"properties":{"asset_id":10751,"name":"2 גני ילדים","use":"בית ספר","domain":"education","tenure":"שכירות","state":"פעיל","owner":"חברה","status":"נחתם חוזה לשכירת נכס","status_date":"2021-06-17","opened":"2021-05-04","built_sqm":350,"neighborhood":"קטמון הישנה","parcels":["30009/74"],"allocations":[],"zoning":"מגורים 1 מיוחד","residential":true,"nonconforming":true,"pikuach":null,"domain_label":"חינוך","address":"דוד אלרואי 4"}},{"type":"Feature","geometry":{"type":"Point","coordinates":[35.2151078,31.7539624]},"properties":{"asset_id":10769,"name":"מוסד חינוכי לחינוך הכללי והחרדי","use":"בית ספר","domain":"education","tenure":"שכירות","state":"פעיל","owner":"חברה","status":"נחתם חוזה לשכירת נכס","status_date":"2021-06-28","opened":"2021-05-25","built_sqm":2000,"neighborhood":"תלפיות תעשיה","parcels":["30002/51"],"allocations":[{"org":"מרכז החינוך העצמאי","use":"בתי ספר יסודיים","active":1,"semel":"0"},{"org":"עזר לחינוך","use":"בתי ספר יסודיים","active":1,"semel":"0"},{"org":"מעיין החינוך התורני בני יוסף","use":"בית ספר","active":1,"semel":"0"}],"zoning":"אזור תעשיה","residential":false,"nonconforming":false,"pikuach":null,"domain_label":"חינוך","address":"גנרל פייר קניג 33"}},{"type":"Feature","geometry":{"type":"Point","coordinates":[35.2201015,31.7572692]},"properties":{"asset_id":10990,"name":"מעון יום","use":"גן ילדים","domain":"education","tenure":"שכירות","state":"פעיל","owner":"פרטי","status":"נחתם חוזה לשכירת נכס","status_date":"2026-06-21","opened":"2022-06-21","built_sqm":330,"neighborhood":"גאולים - בקעה","parcels":["30014/109","30014/110","30014/36"],"allocations":[],"zoning":"דרך משולבת","residential":false,"nonconforming":false,"pikuach":["ממלכתי דתי","ממלכתי"],"domain_label":"חינוך","address":"יהודה 16"}},{"type":"Feature","geometry":{"type":"Point","coordinates":[35.2180705,31.7708309]},"properties":{"asset_id":11420,"name":"ז'בוטינסקי 33 גני  ילדים","use":"גן ילדים","domain":"education","tenure":"שכירות","state":"פעיל","owner":"חברה","status":"נחתם חוזה לשכירת נכס","status_date":"2023-08-27","opened":"2023-05-23","built_sqm":360,"neighborhood":"טלביה/המוגרבים","parcels":["30021/4"],"allocations":[],"zoning":"מגורים 2 מיוחד","residential":true,"nonconforming":true,"pikuach":["ממלכתי דתי"],"domain_label":"חינוך","address":"זאב ז'בוטינסקי 33"}},{"type":"Feature","geometry":{"type":"Point","coordinates":[35.2122574,31.7518684]},"properties":{"asset_id":11744,"name":"רחוב המוסכים 4","use":"בית ספר","domain":"education","tenure":"שכירות","state":"בתהליך","owner":"חברה","status":"תחילת תהליך שכירת נכס","status_date":"2023-09-10","opened":"2023-09-10","built_sqm":0,"neighborhood":"מקור חיים","parcels":["30130/329"],"allocations":[{"org":"מרכז החינוך העצמאי","use":"בית ספר","active":1,"semel":"0"}],"zoning":"אזור תעשיה","residential":false,"nonconforming":false,"pikuach":["חרדי"],"domain_label":"חינוך","address":"המוסכים 4"}},{"type":"Feature","geometry":{"type":"Point","coordinates":[35.2137701,31.7547997]},"properties":{"asset_id":11941,"name":"בית ספר","use":"בית ספר","domain":"education","tenure":"שכירות","state":"בתהליך","owner":"חברה","status":"תחילת תהליך שכירת נכס","status_date":"2023-12-04","opened":"2023-12-04","built_sqm":3025,"neighborhood":"תלפיות תעשיה","parcels":["30198/49"],"allocations":[],"zoning":"אזור תעשיה","residential":false,"nonconforming":false,"pikuach":["ממלכתי דתי"],"domain_label":"חינוך","address":"יעקב בן דב 20"}},{"type":"Feature","geometry":{"type":"Point","coordinates":[35.2137701,31.7547997]},"properties":{"asset_id":13142,"name":"פייר קניג 20 פינת יעקב בן דב","use":"בית ספר","domain":"education","tenure":"שכירות","state":"פעיל","owner":"חברה","status":"נחתם חוזה לשכירת נכס","status_date":"2025-05-04","opened":"2025-01-22","built_sqm":0,"neighborhood":"תלפיות תעשיה","parcels":["30198/49"],"allocations":[],"zoning":"אזור תעשיה","residential":false,"nonconforming":false,"pikuach":["ממלכתי דתי"],"domain_label":"חינוך","address":"גנרל פייר קניג 20"}},{"type":"Feature","geometry":{"type":"Point","coordinates":[35.2050062,31.7694674]},"properties":{"asset_id":1321,"name":"הקובייה - מרכז אומנויות","use":"אומנויות","domain":"education","tenure":"שכירות","state":"פעיל","owner":"הפאטריארכיה היוונית","status":"נחתם חוזה שכירה/חכירה","status_date":"1992-07-29","opened":null,"built_sqm":0,"neighborhood":"נוה שאנן/ניות","parcels":["30145/24","30145/25"],"allocations":[],"zoning":null,"residential":false,"nonconforming":false,"pikuach":null,"domain_label":"חינוך","address":"יהושע ה. ייבין 13"}},{"type":"Feature","geometry":{"type":"Point","coordinates":[35.2137701,31.7547997]},"properties":{"asset_id":13776,"name":"פייר קניג 20 פינת בן דב קומה תחתונה","use":"בית ספר","domain":"education","tenure":"שכירות","state":"בתהליך","owner":"חברה","status":"תחילת תהליך שכירת נכס","status_date":"2025-07-30","opened":"2025-07-30","built_sqm":0,"neighborhood":"תלפיות תעשיה","parcels":["30198/49"],"allocations":[],"zoning":"אזור תעשיה","residential":false,"nonconforming":false,"pikuach":["ממלכתי דתי"],"domain_label":"חינוך","address":"גנרל פייר קניג 20"}},{"type":"Feature","geometry":{"type":"Point","coordinates":[35.1947534,31.7545338]},"properties":{"asset_id":1637,"name":"בי\"ס מ\"מ יסודי גבעת  גונן ובית כנסת \"גיבורי ישראל\"","use":"בית ספר","domain":"education","tenure":"חכירה","state":"פעיל","owner":"רשות הפיתוח","status":"נחתם חוזה חכירה","status_date":"2011-06-22","opened":null,"built_sqm":0,"neighborhood":"גוננים","parcels":["30169/35","30199/14"],"allocations":[{"org":"מוריה חברה לפיתוח ירושלים","use":"תאים פוטווולטאים","active":1,"semel":"0"},{"org":"מרכז ישיבות בני עקיבא אולפנת עורי","use":"בית ספר","active":1,"semel":"0"}],"zoning":null,"residential":false,"nonconforming":false,"pikuach":["ממלכתי"],"domain_label":"חינוך","address":"מרגולין 12"}},{"type":"Feature","geometry":{"type":"Point","coordinates":[35.2194878,31.7647523]},"properties":{"asset_id":179,"name":"2 גני ילדים","use":"גן ילדים","domain":"education","tenure":"חכירה","state":"פעיל","owner":"רשות הפיתוח","status":"נרשמה חכירה ע\"ש עיריה","status_date":"2025-03-26","opened":null,"built_sqm":160,"neighborhood":"מושבה גרמנית","parcels":["30012/52"],"allocations":[{"org":"עמותת אדם - לקידום אומנות החינוך","use":"גן ילדים","active":1,"semel":"0"}],"zoning":"מגורים 1 מיוחד","residential":true,"nonconforming":true,"pikuach":["ממלכתי"],"domain_label":"חינוך","address":"המליץ 8"}},{"type":"Feature","geometry":{"type":"Point","coordinates":[35.2015377,31.7629844]},"properties":{"asset_id":1793,"name":"2 גני ילדים גבעת הורדים","use":"גן ילדים","domain":"education","tenure":"שכירות","state":"פעיל","owner":"רשות הפיתוח","status":"נחתם חוזה שכירה/חכירה","status_date":"2020-11-23","opened":null,"built_sqm":0,"neighborhood":"גבעת הורדים","parcels":["30185/34"],"allocations":[],"zoning":null,"residential":false,"nonconforming":false,"pikuach":["ממלכתי דתי"],"domain_label":"חינוך","address":"ש. טשרניחובסקי 66"}},{"type":"Feature","geometry":{"type":"Point","coordinates":[35.2198906,31.7534866]},"properties":{"asset_id":4136,"name":"אקי\"מ - בית ליאו","use":"חינוך מיוחד","domain":"education","tenure":"חכירה","state":"פעיל","owner":"פרטי","status":"נחתם חוזה חכירה","status_date":"1997-06-18","opened":null,"built_sqm":789.09,"neighborhood":"תלפיות","parcels":["30001/76"],"allocations":[{"org":"אקי\"מ","use":"בית ספר","active":1,"semel":"0"}],"zoning":"מבנים ומוסדות ציבור","residential":false,"nonconforming":false,"pikuach":null,"domain_label":"חינוך","address":"דרך חברון 102"}},{"type":"Feature","geometry":{"type":"Point","coordinates":[35.1947534,31.7545338]},"properties":{"asset_id":4157,"name":"חט\"ב וסניף יסודי גבעת גונן וגני ילדים גבעת גונן","use":"בתי ספר תיכוניים","domain":"education","tenure":"חכירה","state":"פעיל","owner":"רשות הפיתוח","status":"נחתם חוזה חכירה","status_date":"2011-06-22","opened":null,"built_sqm":0,"neighborhood":"גוננים","parcels":["30169/35","30169/36","30199/14"],"allocations":[],"zoning":null,"residential":false,"nonconforming":false,"pikuach":["ממלכתי"],"domain_label":"חינוך","address":"מרגולין 12"}},{"type":"Feature","geometry":{"type":"Point","coordinates":[35.2253323,31.7728545]},"properties":{"asset_id":4249,"name":"גן ילדים בימין משה, רח פלא יועץ","use":"גן ילדים","domain":"education","tenure":"שכירות","state":"בתהליך","owner":"פרטי","status":"תחילת תהליך שכירת נכס","status_date":"2023-07-31","opened":null,"built_sqm":145,"neighborhood":"ימין משה","parcels":["30030/39"],"allocations":[],"zoning":"מגורים מיוחד לשימור","residential":true,"nonconforming":true,"pikuach":["ממלכתי דתי"],"domain_label":"חינוך","address":"פלא יועץ 7"}},{"type":"Feature","geometry":{"type":"Point","coordinates":[35.2042746,31.7489932]},"properties":{"asset_id":5152,"name":"מתנ\"ס קהילתי, גן ילדים ומסגד","use":"מנהל קהילתי – אגף חברה","domain":"education","tenure":"שכירות","state":"פעיל","owner":"מנהל מקרקעי ישראל","status":"נחתם חוזה שכירה/חכירה","status_date":"1986-10-05","opened":null,"built_sqm":0,"neighborhood":"בית צפפה","parcels":["30284/5010","30284/5015","30284/5016"],"allocations":[],"zoning":"שטח לבנין ציבורי","residential":false,"nonconforming":false,"pikuach":null,"domain_label":"חינוך","address":"אל תוחיד 91"}},{"type":"Feature","geometry":{"type":"Point","coordinates":[35.2174748,31.7612108]},"properties":{"asset_id":5581,"name":"2 כיתות גני ילדים","use":"גן ילדים","domain":"education","tenure":"חכירה","state":"פעיל","owner":"רשות הפיתוח","status":"נחתם חוזה חכירה","status_date":"2015-06-30","opened":null,"built_sqm":210,"neighborhood":"מושבה גרמנית","parcels":["30003/67"],"allocations":[],"zoning":"1 מגורים","residential":true,"nonconforming":true,"pikuach":["ממלכתי"],"domain_label":"חינוך","address":"הרכבת 32"}},{"type":"Feature","geometry":{"type":"Point","coordinates":[35.2232795,31.7759988]},"properties":{"asset_id":9610,"name":"גני ילדים בית שמואל","use":"גן ילדים","domain":"education","tenure":"שכירות","state":"פעיל","owner":"פרטי","status":"נחתם חוזה לשכירת נכס","status_date":"2021-08-31","opened":"2017-05-14","built_sqm":300,"neighborhood":"ממילא","parcels":["31349/1"],"allocations":[],"zoning":"מוסד","residential":false,"nonconforming":false,"pikuach":null,"domain_label":"חינוך","address":"שמאע אליהו 10"}},{"type":"Feature","geometry":{"type":"Point","coordinates":[35.2151078,31.7539624]},"properties":{"asset_id":9874,"name":"מרכז שירות פסיכולוגי חינוכי","use":"חינוך מיוחד","domain":"education","tenure":"שכירות","state":"פעיל","owner":"חברה","status":"נחתם חוזה לשכירת נכס","status_date":"2019-01-30","opened":null,"built_sqm":500,"neighborhood":"תלפיות תעשיה","parcels":["30002/51"],"allocations":[],"zoning":"אזור תעשיה","residential":false,"nonconforming":false,"pikuach":null,"domain_label":"חינוך","address":"גנרל פייר קניג 33"}},{"type":"Feature","geometry":{"type":"Point","coordinates":[35.215654,31.760725]},"properties":{"asset_id":2596,"name":"מקלט ציבורי מס' 697","use":"מקלט צבורי","domain":"emergency","tenure":"חכירה","state":"פעיל","owner":"רשות הפיתוח","status":"נרשמה חכירה ע\"ש עיריה","status_date":"2026-05-28","opened":null,"built_sqm":134,"neighborhood":"המושבה היוונית","parcels":["30004/87"],"allocations":[],"zoning":null,"residential":false,"nonconforming":false,"pikuach":null,"domain_label":"חירום","address":"עמק רפאים 68"}},{"type":"Feature","geometry":{"type":"Point","coordinates":[35.214192,31.7625202]},"properties":{"asset_id":2600,"name":"מקלט ציבורי מס' 693 (רח' יותם 8)","use":"מקלט צבורי","domain":"emergency","tenure":"חכירה","state":"פעיל","owner":"רשות הפיתוח","status":"נרשמה חכירה ע\"ש עיריה","status_date":"2025-08-20","opened":null,"built_sqm":139,"neighborhood":"המושבה היוונית","parcels":["30004/36"],"allocations":[],"zoning":"מגורים 1 מיוחד","residential":true,"nonconforming":false,"pikuach":null,"domain_label":"חירום","address":"יותם 8"}},{"type":"Feature","geometry":{"type":"Point","coordinates":[35.2213642,31.7641153]},"properties":{"asset_id":4062,"name":"מקלט ציבורי מס' 676","use":"מקלט צבורי","domain":"emergency","tenure":"חכירה","state":"פעיל","owner":"רשות הפיתוח","status":"נחתם חוזה חכירה","status_date":"1975-03-24","opened":null,"built_sqm":113,"neighborhood":"מושבה גרמנית","parcels":["30011/47"],"allocations":[],"zoning":"מגורים 4 מיוחד","residential":true,"nonconforming":false,"pikuach":null,"domain_label":"חירום","address":"אמיל זולה 6"}},{"type":"Feature","geometry":{"type":"Point","coordinates":[35.2234202,31.7491112]},"properties":{"asset_id":4255,"name":"מקלט ציבורי מס' 690","use":"מקלט צבורי","domain":"emergency","tenure":"חכירה","state":"בתהליך","owner":"פרטי","status":"החל תהליך חכירת נכס","status_date":"2023-07-31","opened":null,"built_sqm":361,"neighborhood":"תלפיות","parcels":["30118/22","30118/24"],"allocations":[],"zoning":"1 מגורים","residential":true,"nonconforming":false,"pikuach":null,"domain_label":"חירום","address":"קלוזנר 12"}},{"type":"Feature","geometry":{"type":"Point","coordinates":[35.19518,31.7564296]},"properties":{"asset_id":4272,"name":"מקלט ציבורי מס' 756  ותורה בציון צדק","use":"מקלט צבורי","domain":"emergency","tenure":"חכירה","state":"בתהליך","owner":"רשות הפיתוח","status":"החל תהליך חכירת נכס","status_date":"2023-07-31","opened":null,"built_sqm":0,"neighborhood":"גוננים","parcels":["30169/9"],"allocations":[{"org":"תורה בציון צדק","use":"מועדון נוער","active":1,"semel":"0"}],"zoning":"מגורים ד'","residential":true,"nonconforming":false,"pikuach":null,"domain_label":"חירום","address":"חוסה דה סן מרטין 1"}},{"type":"Feature","geometry":{"type":"Point","coordinates":[35.2126655,31.7714809]},"properties":{"asset_id":4326,"name":"מקלט מספר 816","use":"מקלט צבורי","domain":"emergency","tenure":"חכירה","state":"פעיל","owner":"קרן קיימת לישראל","status":"נרשמה חכירה ע\"ש עיריה","status_date":"2000-03-20","opened":null,"built_sqm":183.7,"neighborhood":"רחביה","parcels":["30025/151","30025/208"],"allocations":[{"org":"העמותה לניצולי שואה ירושלים.","use":"מועדון קשישים","active":1,"semel":"0"}],"zoning":"שטח ציבורי פתוח","residential":false,"nonconforming":false,"pikuach":null,"domain_label":"חירום","address":"דרך עזה"}},{"type":"Feature","geometry":{"type":"Point","coordinates":[35.2115062,31.7605014]},"properties":{"asset_id":4337,"name":"מקלט ציבורי 817","use":"מקלט צבורי","domain":"emergency","tenure":"שכירות","state":"פעיל","owner":"קרן קיימת לישראל","status":"נחתם חוזה שכירה/חכירה","status_date":"2010-03-10","opened":null,"built_sqm":0,"neighborhood":"קטמון הישנה","parcels":["30005/162"],"allocations":[],"zoning":"שטח צבורי פתוח","residential":false,"nonconforming":false,"pikuach":null,"domain_label":"חירום","address":"יהושע בן גמלא"}},{"type":"Feature","geometry":{"type":"Point","coordinates":[35.2211443,31.7639735]},"properties":{"asset_id":4384,"name":"מקלט ציבורי מס' 677","use":"מקלט צבורי","domain":"emergency","tenure":"חכירה","state":"פעיל","owner":"רשות הפיתוח","status":"נחתם חוזה חכירה","status_date":"1972-04-01","opened":null,"built_sqm":300,"neighborhood":"מושבה גרמנית","parcels":["30011/48","30011/49"],"allocations":[],"zoning":"מגורים 4 מיוחד","residential":true,"nonconforming":false,"pikuach":null,"domain_label":"חירום","address":"וינדהם דידס 6"}},{"type":"Feature","geometry":{"type":"Point","coordinates":[35.2111696,31.7460286]},"properties":{"asset_id":6384,"name":"תחנת כיבוי אש","use":"מכבי אש","domain":"emergency","tenure":"שכירות","state":"פעיל","owner":"רשות הפיתוח","status":"נחתם חוזה שכירה/חכירה","status_date":"2005-11-29","opened":null,"built_sqm":453.67,"neighborhood":"גבעת המטוס","parcels":["30128/22"],"allocations":[{"org":"תחנת לכיבוי אש - איתרי","use":"מכבי אש","active":1,"semel":"0"}],"zoning":"מבנים ומוסדות לחרום","residential":false,"nonconforming":false,"pikuach":null,"domain_label":"חירום","address":"משעול זהב מרדכי 4"}},{"type":"Feature","geometry":{"type":"Point","coordinates":[35.2262662,31.7732315]},"properties":{"asset_id":12971,"name":"בריכת הסולטן","use":"שטח פתוח צבורי","domain":"health","tenure":"חכירה","state":"פעיל","owner":"מנהל מקרקעי ישראל","status":"נחתם חוזה חכירה","status_date":"2024-11-20","opened":"2024-11-27","built_sqm":0,"neighborhood":"ימין משה","parcels":["30031/12","30031/13","30031/7"],"allocations":[],"zoning":"שטח צבורי פתוח","residential":false,"nonconforming":false,"pikuach":null,"domain_label":"בריאות","address":null}},{"type":"Feature","geometry":{"type":"Point","coordinates":[35.2218483,31.74943]},"properties":{"asset_id":12718,"name":"קורא הדורות 26 א ארנונה","use":"מגורים","domain":"housing","tenure":"שכירות","state":"פעיל","owner":"פרטי","status":"נחתם חוזה לשכירת נכס","status_date":"2025-06-08","opened":"2024-08-21","built_sqm":1250,"neighborhood":"תלפיות","parcels":["30117/12"],"allocations":[],"zoning":"1 מגורים","residential":true,"nonconforming":false,"pikuach":null,"domain_label":"מגורים","address":"קורא הדורות 26"}},{"type":"Feature","geometry":{"type":"Point","coordinates":[35.2072011,31.7628435]},"properties":{"asset_id":85,"name":"קרקע ביעוד מגורים ברחוב השיירות 22","use":"מגורים","domain":"housing","tenure":"חכירה","state":"פעיל","owner":"פרטי","status":"נחתם חוזה חכירה","status_date":"1973-03-05","opened":null,"built_sqm":0,"neighborhood":"קטמון הישנה","parcels":["30006/11"],"allocations":[],"zoning":"מגורים 1 מיוחד","residential":true,"nonconforming":false,"pikuach":null,"domain_label":"מגורים","address":null}},{"type":"Feature","geometry":{"type":"Point","coordinates":[35.2096491,31.7575749]},"properties":{"asset_id":1215,"name":"שצ\"פ ליד רחוב יוסי בן יועזר 10 א","use":"גן ציבורי","domain":"open_space","tenure":"חכירה","state":"פעיל","owner":"מנהל מקרקעי ישראל","status":"קבלת חוזה חכירה מרמי","status_date":"1978-02-27","opened":null,"built_sqm":0,"neighborhood":"גוננים","parcels":["30133/67"],"allocations":[],"zoning":"שטח צבורי פתוח","residential":false,"nonconforming":false,"pikuach":null,"domain_label":"שטח פתוח","address":null}},{"type":"Feature","geometry":{"type":"Point","coordinates":[35.2076838,31.756287]},"properties":{"asset_id":1221,"name":"שצ\"פ ליד רחוב יוסי בן יועזר 20","use":"גן ציבורי","domain":"open_space","tenure":"חכירה","state":"פעיל","owner":"רשות הפיתוח","status":"נרשמה חכירה ע\"ש עיריה","status_date":"1978-02-15","opened":"1977-03-20","built_sqm":0,"neighborhood":"גוננים","parcels":["30133/107"],"allocations":[],"zoning":"שטח צבורי פתוח","residential":false,"nonconforming":false,"pikuach":null,"domain_label":"שטח פתוח","address":null}},{"type":"Feature","geometry":{"type":"Point","coordinates":[35.1960736,31.7550305]},"properties":{"asset_id":1653,"name":"שצ\"פ ליד רחוב השומר 6ג","use":"שטח פתוח צבורי","domain":"open_space","tenure":"חכירה","state":"פעיל","owner":"רשות הפיתוח","status":"נחתם חוזה חכירה","status_date":"1972-01-30","opened":null,"built_sqm":0,"neighborhood":"גוננים","parcels":["30169/31","30169/33","30169/34"],"allocations":[],"zoning":"שטח צבורי פתוח","residential":false,"nonconforming":false,"pikuach":null,"domain_label":"שטח פתוח","address":null}},{"type":"Feature","geometry":{"type":"Point","coordinates":[35.222397,31.7680192]},"properties":{"asset_id":1887,"name":"גן הפעמון (חלקי)","use":"גן ציבורי","domain":"open_space","tenure":"שכירות","state":"פעיל","owner":"פרטי","status":"נחתם חוזה שכירה/חכירה","status_date":"2004-12-05","opened":null,"built_sqm":0,"neighborhood":"המושבה היוונית","parcels":["30197/116","30197/136","30197/138","30197/140","30197/142","30197/144","30197/146","30197/148","30197/15","30197/151","30197/154","30197/157","30197/159","30197/18","30197/19","30197/21","30197/22","30197/24","30197/56","30197/57","30197/75","30197/76","30197/80","30197/81","30197/82"],"allocations":[],"zoning":"מלונאות (אכסון מלונא","residential":false,"nonconforming":false,"pikuach":null,"domain_label":"שטח פתוח","address":"המליץ"}},{"type":"Feature","geometry":{"type":"Point","coordinates":[35.1923485,31.7529305]},"properties":{"asset_id":5932,"name":"\"גן קטמון\" ע\"ש מישה פלדמן","use":"גן ציבורי","domain":"open_space","tenure":"שכירות","state":"פעיל","owner":"מנהל מקרקעי ישראל","status":"נחתם חוזה שכירה/חכירה","status_date":"1989-11-06","opened":"1989-11-14","built_sqm":33500,"neighborhood":"קטמון הישנה","parcels":["30199/36","30199/64"],"allocations":[{"org":"הסוכנות היהודית לא\"י","use":"גן ציבורי","active":1,"semel":"0"}],"zoning":"דרך חדשה/הרחבה","residential":false,"nonconforming":false,"pikuach":null,"domain_label":"שטח פתוח","address":"בר יוחאי"}},{"type":"Feature","geometry":{"type":"Point","coordinates":[35.2126655,31.7714809]},"properties":{"asset_id":7837,"name":"שצ\"פ ליד רחוב דרך עזה","use":"שטח פתוח צבורי","domain":"open_space","tenure":"חכירה","state":"פעיל","owner":"קרן קיימת לישראל","status":"נרשמה חכירה ע\"ש עיריה","status_date":"2020-03-20","opened":"2000-03-27","built_sqm":0,"neighborhood":"רחביה","parcels":["30025/151","30025/208"],"allocations":[],"zoning":"שטח ציבורי פתוח","residential":false,"nonconforming":false,"pikuach":null,"domain_label":"שטח פתוח","address":null}},{"type":"Feature","geometry":{"type":"Point","coordinates":[35.2250185,31.7647916]},"properties":{"asset_id":8292,"name":"מתחם הרכבת","use":"שטח פתוח צבורי","domain":"open_space","tenure":"שכירות","state":"בתהליך","owner":"מנהל מקרקעי ישראל","status":"בתהליך שכירה/חכירה","status_date":null,"opened":"2005-07-26","built_sqm":18750,"neighborhood":"תלפיות","parcels":["30017/10","30017/8"],"allocations":[],"zoning":null,"residential":false,"nonconforming":false,"pikuach":null,"domain_label":"שטח פתוח","address":"דרך חברון"}},{"type":"Feature","geometry":{"type":"Point","coordinates":[35.2174898,31.7459376]},"properties":{"asset_id":10088,"name":"2 מצלמות אבטחה על גג בניין","use":"מצלמת ביטחון","domain":"other","tenure":"שכירות","state":"פעיל","owner":"מדינת ישראל","status":"נחתם חוזה לשכירת נכס","status_date":"2021-12-15","opened":null,"built_sqm":0,"neighborhood":"ארנונה","parcels":["30139/374"],"allocations":[],"zoning":"מגורים מיוחד","residential":true,"nonconforming":false,"pikuach":null,"domain_label":"אחר","address":"השופט חיים כהן 6"}},{"type":"Feature","geometry":{"type":"Point","coordinates":[35.2068285,31.7470778]},"properties":{"asset_id":11117,"name":"שטח לנפות תברואה - בית צאפפה","use":"מתקנים לאיסוף אשפה","domain":"other","tenure":"חכירה","state":"בתהליך","owner":"רשות הפיתוח","status":"החל תהליך חכירת נכס","status_date":"2022-10-24","opened":"2022-10-24","built_sqm":0,"neighborhood":"בית צפפה","parcels":["30285/120","30285/121"],"allocations":[],"zoning":"5 מגורים","residential":true,"nonconforming":false,"pikuach":null,"domain_label":"אחר","address":null}},{"type":"Feature","geometry":{"type":"Point","coordinates":[35.2182224,31.7550265]},"properties":{"asset_id":4311,"name":"השירות הפסיכולוגי (נכס ריק)","use":"ללא שימוש","domain":"other","tenure":"חכירה","state":"בתהליך","owner":"רשות הפיתוח","status":"החל תהליך חכירת נכס","status_date":"2023-08-01","opened":null,"built_sqm":140,"neighborhood":"גאולים - בקעה","parcels":["30001/34"],"allocations":[],"zoning":"מגורים מיוחד","residential":true,"nonconforming":false,"pikuach":null,"domain_label":"אחר","address":"רבקה 12"}},{"type":"Feature","geometry":{"type":"Point","coordinates":[35.2089378,31.7585313]},"properties":{"asset_id":1210,"name":"בית כנסת משכן שילה","use":"בית כנסת","domain":"religion","tenure":"חכירה","state":"פעיל","owner":"רשות הפיתוח","status":"נרשמה חכירה ע\"ש עיריה","status_date":"1972-01-30","opened":null,"built_sqm":352.14,"neighborhood":"גוננים","parcels":["30133/36"],"allocations":[],"zoning":"מבנים ומוסדות ציבור","residential":false,"nonconforming":false,"pikuach":null,"domain_label":"דת","address":"רבן יוחנן בן זכאי 27"}},{"type":"Feature","geometry":{"type":"Point","coordinates":[35.2061288,31.7553232]},"properties":{"asset_id":1288,"name":"בית כנסת \"בית יוסף\" מקווה טהרה","use":"בית כנסת","domain":"religion","tenure":"חכירה","state":"פעיל","owner":"מדינת ישראל","status":"נחתם חוזה חכירה","status_date":"1979-07-01","opened":null,"built_sqm":0,"neighborhood":"גוננים","parcels":["30143/36"],"allocations":[{"org":"ביכ\"נ \"בית יוסף\"","use":"בית כנסת","active":1,"semel":"0"}],"zoning":"מגורים 5 מיוחד","residential":true,"nonconforming":false,"pikuach":null,"domain_label":"דת","address":"אנטיגנוס 33"}},{"type":"Feature","geometry":{"type":"Point","coordinates":[35.1958046,31.7563203]},"properties":{"asset_id":3330,"name":"ביהכ\"נ לעולי בבל ע\"ש יוסף חיים","use":"בית כנסת","domain":"religion","tenure":"שכירות","state":"פעיל","owner":"רשות הפיתוח","status":"נחתם חוזה לשכירת נכס","status_date":"2011-10-23","opened":null,"built_sqm":73.7,"neighborhood":"גוננים","parcels":["30169/10"],"allocations":[{"org":"ביהכ\"נ לעולי בבל ע\"ש יוסף חיים","use":"בית כנסת","active":1,"semel":"0"}],"zoning":"מגורים מיוחד","residential":true,"nonconforming":false,"pikuach":null,"domain_label":"דת","address":"דב הוז 8"}},{"type":"Feature","geometry":{"type":"Point","coordinates":[35.1953504,31.7555747]},"properties":{"asset_id":7580,"name":"בית כנסת \"שערי רצון\"","use":"בית כנסת","domain":"religion","tenure":"חכירה","state":"פעיל","owner":"רשות הפיתוח","status":"נחתם חוזה חכירה","status_date":"1998-03-11","opened":null,"built_sqm":534,"neighborhood":"גוננים","parcels":["30169/19"],"allocations":[{"org":"שערי רצון – בית הכנסת של העדה הכורדית בירושלים","use":"בית כנסת","active":1,"semel":"0"}],"zoning":null,"residential":false,"nonconforming":false,"pikuach":null,"domain_label":"דת","address":"הנוטרים 16"}},{"type":"Feature","geometry":{"type":"Point","coordinates":[35.2073586,31.7633844]},"properties":{"asset_id":8675,"name":"2 מקוואות טהרה (נשים וגברים)","use":"מקווה","domain":"religion","tenure":"שכירות","state":"פעיל","owner":"רשות הפיתוח","status":"נחתם חוזה לשכירת נכס","status_date":"2012-09-10","opened":null,"built_sqm":205.8,"neighborhood":"קטמון הישנה","parcels":["30007/50"],"allocations":[],"zoning":"מגורים 1 מיוחד","residential":true,"nonconforming":false,"pikuach":null,"domain_label":"דת","address":"המצור 9"}},{"type":"Feature","geometry":{"type":"Point","coordinates":[35.1961659,31.7548599]},"properties":{"asset_id":8803,"name":"קרקע לבניין ציבורי ובית כנסת","use":"בית כנסת","domain":"religion","tenure":"חכירה","state":"בתהליך","owner":"רשות הפיתוח","status":"החל תהליך חכירת נכס","status_date":"2023-07-06","opened":null,"built_sqm":0,"neighborhood":"גוננים","parcels":["30169/30","30169/33"],"allocations":[],"zoning":"שטח לבנין ציבורי","residential":false,"nonconforming":false,"pikuach":null,"domain_label":"דת","address":"השומר 8"}},{"type":"Feature","geometry":{"type":"Point","coordinates":[35.1917018,31.7516116]},"properties":{"asset_id":5277,"name":"אצטדיון כדורגל \"טדי\"","use":"מגרש ספורט","domain":"sport","tenure":"חכירה","state":"פעיל","owner":"רשות הפיתוח","status":"נחתם חוזה חכירה","status_date":"1991-09-12","opened":null,"built_sqm":9729,"neighborhood":"מנחת","parcels":["30460/27","30460/29","30460/40"],"allocations":[{"org":"מוריה לפיתוח ירושלים","use":"תאים פוטווולטאים","active":1,"semel":"0"}],"zoning":"ספורט ונופש","residential":false,"nonconforming":false,"pikuach":null,"domain_label":"ספורט","address":"אגודת ספורט בית\"ר 1"}},{"type":"Feature","geometry":{"type":"Point","coordinates":[35.1940303,31.7510421]},"properties":{"asset_id":8309,"name":"היכל הפיס ארנה","use":"ספורט, מתקני כושר","domain":"sport","tenure":"שכירות","state":"פעיל","owner":"רשות הפיתוח","status":"נחתם חוזה שכירה/חכירה","status_date":"2007-03-01","opened":null,"built_sqm":47370.09,"neighborhood":"מנחת","parcels":["30503/54"],"allocations":[{"org":"אריאל ב'","use":"משרדים","active":1,"semel":"0"}],"zoning":"בנין ציבורי מיוחד","residential":false,"nonconforming":false,"pikuach":null,"domain_label":"ספורט","address":"דוד בנבנישתי 1"}},{"type":"Feature","geometry":{"type":"Point","coordinates":[35.2102427,31.7752882]},"properties":{"asset_id":4262,"name":"מועדון בית הזהב בארי","use":"מועדון קשישים","domain":"welfare","tenure":"חכירה","state":"פעיל","owner":"הפאטריארכיה היוונית","status":"נחתם חוזה חכירה","status_date":"1986-07-24","opened":null,"built_sqm":173,"neighborhood":"רחביה","parcels":["30165/2"],"allocations":[],"zoning":"2 מגורים","residential":true,"nonconforming":true,"pikuach":null,"domain_label":"רווחה","address":"י.ל. דיסקין 1"}},{"type":"Feature","geometry":{"type":"Point","coordinates":[35.196478,31.7551165]},"properties":{"asset_id":7545,"name":"בית שווויץ מועדון לקשיש","use":"מועדון קשישים","domain":"welfare","tenure":"שכירות","state":"פעיל","owner":"רשות הפיתוח","status":"נחתם חוזה לשכירת נכס","status_date":"1994-06-29","opened":null,"built_sqm":0,"neighborhood":"גוננים","parcels":["30169/33"],"allocations":[{"org":"בית שוויץ מועדון לקשיש","use":"מועדון קשישים","active":1,"semel":"0"}],"zoning":"שטח צבורי פתוח","residential":false,"nonconforming":false,"pikuach":null,"domain_label":"רווחה","address":"השומר 4"}},{"type":"Feature","geometry":{"type":"Point","coordinates":[35.2164233,31.7546011]},"properties":{"asset_id":8441,"name":"יחידת של''ם","use":"לשכת רווחה","domain":"welfare","tenure":"שכירות","state":"פעיל","owner":"פרטי","status":"נחתם חוזה לשכירת נכס","status_date":"2018-09-01","opened":null,"built_sqm":206.7,"neighborhood":"תלפיות תעשיה","parcels":["30002/46"],"allocations":[],"zoning":"אזור תעשיה","residential":false,"nonconforming":false,"pikuach":null,"domain_label":"רווחה","address":"יד חרוצים 4"}},{"type":"Feature","geometry":{"type":"Point","coordinates":[35.2086479,31.7518633]},"properties":{"asset_id":8542,"name":"תחנת שיקום","use":"שירות רווחה עירוני","domain":"welfare","tenure":"שכירות","state":"פעיל","owner":"רשות הפיתוח","status":"נחתם חוזה לשכירת נכס","status_date":"2023-02-07","opened":null,"built_sqm":230,"neighborhood":"תלפיות תעשיה","parcels":["30131/10","30131/11","30131/12"],"allocations":[],"zoning":"אזור מסחרי","residential":false,"nonconforming":false,"pikuach":null,"domain_label":"רווחה","address":"האומן 18"}},{"type":"Feature","geometry":{"type":"Point","coordinates":[35.2164233,31.7546011]},"properties":{"asset_id":9562,"name":"שלטר- מרכז יום ומקלט חירום לצעירים במצב סיכון","use":"שירות רווחה עירוני","domain":"welfare","tenure":"שכירות","state":"פעיל","owner":"רשות הפיתוח","status":"נחתם חוזה לשכירת נכס","status_date":"2016-11-01","opened":null,"built_sqm":321.3,"neighborhood":"תלפיות תעשיה","parcels":["30002/46"],"allocations":[{"org":"האיגוד הירושלמי למאבק בסמים","use":"שירות רווחה עירוני","active":1,"semel":"0"}],"zoning":"אזור תעשיה","residential":false,"nonconforming":false,"pikuach":null,"domain_label":"רווחה","address":"יד חרוצים 4"}},{"type":"Feature","geometry":{"type":"Point","coordinates":[35.1935207,31.7554964]},"properties":{"asset_id":9786,"name":"המרכז לחיים עצמאים מאת ה\"ה לארי ולאונור זוסמן","use":"שירות רווחה עירוני","domain":"welfare","tenure":"שכירות","state":"פעיל","owner":"רשות הפיתוח","status":"נחתם חוזה לשכירת נכס","status_date":"2019-02-03","opened":null,"built_sqm":268.55,"neighborhood":"גוננים","parcels":["30199/16"],"allocations":[],"zoning":"אזור מסחרי","residential":false,"nonconforming":false,"pikuach":null,"domain_label":"רווחה","address":"חוסה דה סן מרטין 5"}}]}