{
 "type": "FeatureCollection",
 "source": "היתרים בשכונות אורנים שאינם משויכים לתב\"ע במאגר (תב\"עות ישנות, מיקום geocode מ-govmap)",
 "source_date": "2026-06-21",
 "features": [
  {
   "type": "Feature",
   "geometry": {
    "type": "Point",
    "coordinates": [
     35.213983,
     31.771844
    ]
   },
   "properties": {
    "file_number": "1950/0211.03",
    "status": "הופק-הוצא היתר בניה",
    "status_date": "18/06/2024",
    "request_type": "התקנת מעלית חיצונית, חפירה ומילוי, תוספת בניה / הרחבה לבניין קיים, תוספת יח\"ד באמצעות תוספת בניה",
    "request_description": "תוספת קומת קרקע תת קרקעית, מעלית רכב, תוספת 2 קומות מעל קיים הכוללות 3 יח\"ד חדשות - סה\"כ 10 יח\"ד.",
    "address": "האר\"י 3",
    "sub_neighborhood": "קוממיות - טלביה",
    "neighborhood_yk": "רחביה",
    "source": "unassigned (old plan, govmap-geocoded)",
    "field_status": "טרם הוחל בבניה",
    "visit_date": "2024-06-18",
    "eta_quarter": "",
    "developer": "בלוסום אן רבינוביץ' 052-2282017"
   }
  },
  {
   "type": "Feature",
   "geometry": {
    "type": "Point",
    "coordinates": [
     35.210427,
     31.771071
    ]
   },
   "properties": {
    "file_number": "1989/0928.03",
    "status": "הופק-הוצא היתר בניה",
    "status_date": "03/11/2021",
    "request_type": "תוספת יח\"ד באמצעות תוספת בניה",
    "request_description": "תוספת קומות לפי תב\"ע 9988",
    "address": "דונש בן לברט 6",
    "sub_neighborhood": "רסקו - גבעת הורדים",
    "neighborhood_yk": "רחביה",
    "source": "unassigned (old plan, govmap-geocoded)",
    "field_status": "טרם הוחל בבניה",
    "visit_date": "2020-11-17",
    "eta_quarter": "",
    "developer": ""
   }
  },
  {
   "type": "Feature",
   "geometry": {
    "type": "Point",
    "coordinates": [
     35.218917,
     31.775736
    ]
   },
   "properties": {
    "file_number": "2016/0609.00",
    "status": "הופק-הוצא היתר בניה",
    "status_date": "12/12/2023",
    "request_type": "בניה חדשה / בניין חדש",
    "request_description": "בניין מגורים בן 8 קומות, 22 יח\"ד מעל3 קומות של חניון תת קרקעי",
    "address": "אגרון 12",
    "sub_neighborhood": "קוממיות - טלביה",
    "neighborhood_yk": "רחביה",
    "source": "unassigned (old plan, govmap-geocoded)",
    "field_status": "טרם הוחל בבניה",
    "visit_date": "2025-06-29",
    "eta_quarter": "",
    "developer": "שמראל עסקים בע\"מ - גבריאל ברדה 052-6565652\\058-4492626 מנה\"פ נעים יצחק \n054-9966868\\050-7217422"
   }
  },
  {
   "type": "Feature",
   "geometry": {
    "type": "Point",
    "coordinates": [
     35.218999,
     31.758496
    ]
   },
   "properties": {
    "file_number": "2020/0470.00",
    "status": "הופק-הוצא היתר בניה",
    "status_date": "20/07/2023",
    "request_type": "תמ\"א 38 הריסה ובניה",
    "request_description": "הריסה ובנייה מחדש לפי תמ\"א 38/2 תוך שימור חלקי מבנה וחזיתותיו",
    "address": "דן 4",
    "sub_neighborhood": "בקעה",
    "neighborhood_yk": "גאולים - בקעה",
    "source": "unassigned (old plan, govmap-geocoded)",
    "field_status": "טרם הוחל בבניה",
    "visit_date": "2025-11-26",
    "eta_quarter": "",
    "developer": ""
   }
  },
  {
   "type": "Feature",
   "geometry": {
    "type": "Point",
    "coordinates": [
     35.216267,
     31.774632
    ]
   },
   "properties": {
    "file_number": "2020/0666.00",
    "status": "הופק-הוצא היתר בניה",
    "status_date": "09/05/2024",
    "request_type": "בניה חדשה / בניין חדש",
    "request_description": "בנית מבנה מגורים חדש הכולל 10 יח\"ד",
    "address": "רמבן 13",
    "sub_neighborhood": "קוממיות - טלביה",
    "neighborhood_yk": "רחביה",
    "source": "unassigned (old plan, govmap-geocoded)",
    "field_status": "טרם הוחל בבניה",
    "visit_date": "2025-12-01",
    "eta_quarter": "",
    "developer": "0502286764 יוחאי הנרי"
   }
  },
  {
   "type": "Feature",
   "geometry": {
    "type": "Point",
    "coordinates": [
     35.227867,
     31.764621
    ]
   },
   "properties": {
    "file_number": "2021/0165.00",
    "status": "הופק-הוצא היתר בניה",
    "status_date": "08/09/2022",
    "request_type": "תמ\"א 38 הריסה ובניה",
    "request_description": "הריסה ובניה מחדש עפ\"י תכנית 10038 ותמ\"א 38",
    "address": "עובד 11",
    "sub_neighborhood": "גבעת חנניה - אבו תור",
    "neighborhood_yk": "גבעת חנניה",
    "source": "unassigned (old plan, govmap-geocoded)",
    "field_status": "טרם הוחל בבניה",
    "visit_date": "2025-01-06",
    "eta_quarter": "",
    "developer": "מתנאל שי הרבטס 076-5445061"
   }
  },
  {
   "type": "Feature",
   "geometry": {
    "type": "Point",
    "coordinates": [
     35.212024,
     31.769564
    ]
   },
   "properties": {
    "file_number": "2021/0311.00",
    "status": "הופק-הוצא היתר בניה",
    "status_date": "10/12/2024",
    "request_type": "תמ\"א 38 הריסה ובניה",
    "request_description": "הריסה ובניית בניין חדש בן 5 קומות לפי תמ\"א 38/2",
    "address": "חרלפ 26",
    "sub_neighborhood": "רסקו - גבעת הורדים",
    "neighborhood_yk": "קריית שמואל",
    "source": "unassigned (old plan, govmap-geocoded)",
    "field_status": "טרם הוחל בבניה",
    "visit_date": "2025-07-03",
    "eta_quarter": "",
    "developer": "שלומית אדלר0505905316"
   }
  },
  {
   "type": "Feature",
   "geometry": {
    "type": "Point",
    "coordinates": [
     35.213135,
     31.774271
    ]
   },
   "properties": {
    "file_number": "2022/0063.00",
    "status": "הופק-הוצא היתר בניה",
    "status_date": "30/06/2024",
    "request_type": "תמ\"א 38 - תוספות",
    "request_description": "תוספת שטחים עיקריים וממדים + תוספת 3 יח\"ד + חיזוק וחידוש הבניין ע\"פ תמ\"א 38",
    "address": "רמבן 39",
    "sub_neighborhood": "רחביה",
    "neighborhood_yk": "רחביה",
    "source": "unassigned (old plan, govmap-geocoded)",
    "field_status": "טרם הוחל בבניה",
    "visit_date": "2025-12-28",
    "eta_quarter": "",
    "developer": ""
   }
  },
  {
   "type": "Feature",
   "geometry": {
    "type": "Point",
    "coordinates": [
     35.211767,
     31.773118
    ]
   },
   "properties": {
    "file_number": "2022/0300.00",
    "status": "הופק-הוצא היתר בניה",
    "status_date": "18/11/2025",
    "request_type": "בניה חדשה / בניין חדש, עבודות הריסה",
    "request_description": "הריסת בניין קיים והקמת בניין חדש בין 5 קומות + קומת חניה הכולל 8 יח\"ד",
    "address": "י. אלפסי 22",
    "sub_neighborhood": "רחביה",
    "neighborhood_yk": "רחביה",
    "source": "unassigned (old plan, govmap-geocoded)",
    "field_status": "טרם הוחל בבניה",
    "visit_date": "2025-11-25",
    "eta_quarter": "",
    "developer": "שמואל שטרן 0546486144"
   }
  },
  {
   "type": "Feature",
   "geometry": {
    "type": "Point",
    "coordinates": [
     35.216777,
     31.758036
    ]
   },
   "properties": {
    "file_number": "2022/0583.00",
    "status": "הופק-הוצא היתר בניה",
    "status_date": "26/02/2025",
    "request_type": "תמ\"א 38 הריסה ובניה",
    "request_description": "בקשה להריסה ובנייה מחדש במסגרת תמ\"א 38.",
    "address": "דן 1",
    "sub_neighborhood": "בקעה",
    "neighborhood_yk": "גאולים - בקעה",
    "source": "unassigned (old plan, govmap-geocoded)",
    "field_status": "טרם הוחל בבניה",
    "visit_date": "2025-11-24",
    "eta_quarter": "",
    "developer": ""
   }
  },
  {
   "type": "Feature",
   "geometry": {
    "type": "Point",
    "coordinates": [
     35.203018,
     31.745608
    ]
   },
   "properties": {
    "file_number": "2018/0329.00",
    "status": "הופק-הוצא היתר בניה",
    "status_date": "04/08/2022",
    "request_type": "תוספת יח\"ד באמצעות תוספת בניה",
    "request_description": "הכשרת בניין קיים קומה אחד ותוספת קומה מעל הבניין קיים, הסה\"כ 4 יח\"ד.",
    "address": "",
    "sub_neighborhood": "בית צפאפא,שרפת",
    "neighborhood_yk": "בית צפפה",
    "source": "unassigned (old plan, govmap-geocoded)",
    "field_status": "טרם הוחל בבניה",
    "visit_date": "2024-12-18",
    "eta_quarter": "",
    "developer": ""
   }
  },
  {
   "type": "Feature",
   "geometry": {
    "type": "Point",
    "coordinates": [
     35.204738,
     31.735225
    ]
   },
   "properties": {
    "file_number": "2020/0656.00",
    "status": "הופק-הוצא היתר בניה",
    "status_date": "29/07/2025",
    "request_type": "תוספת בניה / הרחבה לבניין קיים, תוספת יח\"ד באמצעות תוספת בניה",
    "request_description": "תוספת בניה (הרחבת דירה ) + תוספת 4 יח\"ד . סה\"כ 6 יח\"ד",
    "address": "אל ווחדה 21",
    "sub_neighborhood": "בית צפאפא,שרפת",
    "neighborhood_yk": "בית צפפה",
    "source": "unassigned (old plan, govmap-geocoded)",
    "field_status": "טרם הוחל בבניה",
    "visit_date": "2025-09-02",
    "eta_quarter": "",
    "developer": ""
   }
  },
  {
   "type": "Feature",
   "geometry": {
    "type": "Point",
    "coordinates": [
     35.207866,
     31.741892
    ]
   },
   "properties": {
    "file_number": "1993/0683.02",
    "status": "הופק-הוצא היתר בניה",
    "status_date": "03/09/2025",
    "request_type": "תוספת בניה / הרחבה לבניין קיים, תוספת יח\"ד באמצעות תוספת בניה",
    "request_description": "תוספת קומה 2 יח\"ד מעל בניין קיים 2 קומות 4יח\"ד ושינוי המרתף ל 2 יח\"ד סה\"כ 8 יח\"ד",
    "address": "טבאליה 11",
    "sub_neighborhood": "בית צפאפא,שרפת",
    "neighborhood_yk": "בית צפפה",
    "source": "unassigned (old plan, govmap-geocoded)",
    "field_status": "טרם הוחל בבניה",
    "visit_date": "2025-09-18",
    "eta_quarter": "",
    "developer": ""
   }
  }
 ]
}